{"type":"FeatureCollection","features":[{"type":"Feature","geometry":{"type":"Polygon","coordinates":[[[-5.59,35.84],[-5.59,35.83],[-5.57,35.8],[-5.57,35.79],[-5.52,35.74],[-5.49,35.72],[-5.45,35.7],[-5.41,35.69],[-5.37,35.68],[-5.31,35.69],[-5.29,35.69],[-5.25,35.7],[-5.2,35.71],[-5.17,35.74],[-5.14,35.77],[-5.1,35.83],[-5.09,35.86],[-5.09,35.89],[-5.09,35.93],[-5.1,35.96],[-5.12,35.99],[-5.15,36.02],[-5.18,36.04],[-5.19,36.04],[-5.21,36.05],[-5.23,36.04],[-5.3,36.02],[-5.36,36],[-5.42,35.96],[-5.48,35.91],[-5.54,35.85],[-5.59,35.84]]]},"properties":{"codigo_iso_3166_2":"ES-CE"}},{"type":"Feature","geometry":{"type":"Polygon","coordinates":[[[-3.01,35.11],[-3,35.1],[-2.96,35.1],[-2.92,35.09],[-2.87,35.1],[-2.83,35.11],[-2.8,35.13],[-2.76,35.16],[-2.74,35.18],[-2.72,35.22],[-2.71,35.28],[-2.71,35.31],[-2.71,35.34],[-2.73,35.38],[-2.77,35.43],[-2.8,35.45],[-2.83,35.47],[-2.87,35.49],[-2.91,35.5],[-2.96,35.5],[-3,35.49],[-3.06,35.47],[-3.1,35.45],[-3.13,35.43],[-3.16,35.4],[-3.17,35.37],[-3.18,35.33],[-3.18,35.3],[-3.18,35.26],[-3.14,35.2],[-3.12,35.17],[-3.09,35.14],[-3.06,35.12],[-3.01,35.11]]]},"properties":{"codigo_iso_3166_2":"ES-ML"}},{"type":"Feature","geometry":{"type":"Polygon","coordinates":[[[-1.57,43.45],[-1.64,43.46],[-1.66,43.41],[-1.71,43.28],[-1.75,43.29],[-1.86,43.23],[-1.89,43.2],[-1.92,43.16],[-1.93,43.12],[-1.97,43.07],[-2.03,43.01],[-2.12,42.96],[-2.25,42.9],[-2.28,42.75],[-2.29,42.71],[-2.31,42.68],[-2.33,42.66],[-2.37,42.66],[-2.39,42.65],[-2.4,42.63],[-2.41,42.6],[-2.41,42.5],[-2.2,42.46],[-2.13,42.44],[-2.06,42.41],[-2,42.38],[-1.94,42.34],[-1.84,42.28],[-1.76,42.24],[-1.74,42.22],[-1.75,42.2],[-1.77,42.17],[-1.82,42.13],[-1.86,42.1],[-1.88,42.07],[-1.88,42.05],[-1.85,42],[-1.67,41.94],[-1.55,41.92],[-1.47,41.91],[-1.44,41.92],[-1.41,41.93],[-1.38,41.96],[-1.36,41.99],[-1.34,42.03],[-1.34,42.07],[-1.36,42.11],[-1.38,42.15],[-1.4,42.2],[-1.4,42.24],[-1.39,42.29],[-1.37,42.34],[-1.34,42.39],[-1.31,42.44],[-1.27,42.5],[-1.22,42.55],[-1.17,42.6],[-1.11,42.64],[-1.06,42.68],[-0.9,42.74],[-0.89,42.76],[-0.84,42.84],[-0.82,42.87],[-0.79,42.91],[-0.75,42.92],[-0.89,42.95],[-0.99,42.97],[-0.98,42.99],[-0.95,43.02],[-0.92,43.05],[-0.89,43.07],[-0.84,43.09],[-0.8,43.1],[-0.75,43.1],[-0.7,43.1],[-0.66,43.09],[-0.69,43.09],[-0.83,43.12],[-0.94,43.14],[-1.08,43.19],[-1.16,43.21],[-1.18,43.21],[-1.19,43.25],[-1.21,43.29],[-1.28,43.36],[-1.32,43.38],[-1.45,43.43],[-1.57,43.45]]]},"properties":{"codigo_iso_3166_2":"ES-NA"}},{"type":"Feature","geometry":{"type":"Polygon","coordinates":[[[-1.57,43.45],[-1.58,43.46],[-1.61,43.48],[-1.62,43.49],[-1.68,43.52],[-1.72,43.54],[-1.76,43.55],[-1.85,43.55],[-1.89,43.55],[-2.01,43.53],[-2.08,43.51],[-2.12,43.5],[-2.16,43.49],[-2.2,43.49],[-2.34,43.5],[-2.38,43.51],[-2.41,43.51],[-2.46,43.51],[-2.5,43.5],[-2.55,43.48],[-2.59,43.46],[-2.62,43.43],[-2.63,43.41],[-2.41,43.33],[-2.51,43.16],[-2.55,43.09],[-2.56,43.01],[-2.54,42.98],[-2.52,42.97],[-2.48,42.96],[-2.38,42.95],[-2.31,42.93],[-2.25,42.9],[-2.12,42.96],[-2.03,43.01],[-1.97,43.07],[-1.93,43.12],[-1.92,43.16],[-1.89,43.2],[-1.86,43.23],[-1.75,43.29],[-1.71,43.28],[-1.66,43.41],[-1.64,43.46],[-1.57,43.45]]]},"properties":{"codigo_iso_3166_2":"ES-SS"}},{"type":"Feature","geometry":{"type":"Polygon","coordinates":[[[-0.9,42.74],[-0.9,42.58],[-0.9,42.55],[-0.9,42.48],[-0.89,42.44],[-0.88,42.41],[-0.86,42.38],[-0.87,42.33],[-0.89,42.31],[-0.89,42.27],[-0.86,42.27],[-0.82,42.26],[-0.79,42.25],[-0.77,42.23],[-0.76,42.2],[-0.75,42.16],[-0.76,42.12],[-0.77,42.09],[-0.79,42.06],[-0.81,42.04],[-0.82,42.02],[-0.81,42],[-0.78,41.99],[-0.69,41.96],[-0.61,41.92],[-0.55,41.86],[-0.52,41.83],[-0.5,41.78],[-0.48,41.75],[-0.45,41.72],[-0.4,41.68],[-0.35,41.64],[-0.26,41.59],[-0.2,41.58],[-0.18,41.57],[-0.16,41.54],[-0.13,41.5],[-0.11,41.45],[-0.08,41.41],[-0.04,41.38],[0,41.36],[0.04,41.36],[0.08,41.36],[0.12,41.37],[0.16,41.38],[0.22,41.41],[0.28,41.42],[0.34,41.41],[0.4,41.5],[0.41,41.53],[0.41,41.57],[0.4,41.6],[0.37,41.63],[0.37,41.67],[0.39,41.71],[0.43,41.75],[0.5,41.8],[0.56,41.85],[0.6,41.9],[0.64,41.96],[0.66,42.03],[0.7,42.15],[0.73,42.26],[0.74,42.32],[0.74,42.36],[0.73,42.4],[0.72,42.43],[0.72,42.47],[0.71,42.49],[0.73,42.53],[0.74,42.54],[0.74,42.56],[0.74,42.59],[0.72,42.62],[0.66,42.7],[0.61,42.7],[0.59,42.73],[0.51,42.87],[0.44,42.86],[0.41,42.86],[0.35,42.86],[0.34,42.86],[0.33,42.87],[0.23,42.89],[0.13,42.9],[0.05,42.89],[0.02,42.89],[0.01,42.89],[-0.01,42.9],[-0.09,42.93],[-0.2,42.97],[-0.32,42.99],[-0.45,42.99],[-0.49,42.98],[-0.57,43.04],[-0.58,43.05],[-0.61,43.07],[-0.66,43.09],[-0.7,43.1],[-0.75,43.1],[-0.8,43.1],[-0.84,43.09],[-0.89,43.07],[-0.92,43.05],[-0.95,43.02],[-0.98,42.99],[-0.99,42.97],[-0.89,42.95],[-0.75,42.92],[-0.79,42.91],[-0.82,42.87],[-0.84,42.84],[-0.89,42.76],[-0.9,42.74]]]},"properties":{"codigo_iso_3166_2":"ES-HU"}},{"type":"Feature","geometry":{"type":"Polygon","coordinates":[[[0.34,41.41],[0.36,41.23],[0.41,41.29],[0.43,41.3],[0.47,41.31],[0.5,41.3],[0.54,41.3],[0.61,41.3],[0.69,41.31],[0.8,41.33],[0.89,41.35],[0.95,41.37],[1,41.4],[1.03,41.43],[1.09,41.49],[1.16,41.54],[1.2,41.55],[1.28,41.57],[1.39,41.58],[1.42,41.62],[1.43,41.66],[1.42,41.73],[1.42,41.75],[1.44,41.77],[1.47,41.78],[1.5,41.77],[1.56,41.78],[1.6,41.81],[1.62,41.84],[1.64,41.88],[1.66,41.94],[1.68,42.02],[1.71,42.14],[1.72,42.23],[1.73,42.26],[1.74,42.28],[1.76,42.29],[1.77,42.3],[1.84,42.31],[1.83,42.34],[1.82,42.38],[1.81,42.4],[1.77,42.45],[1.71,42.49],[1.7,42.49],[1.7,42.67],[1.66,42.67],[1.64,42.66],[1.64,42.68],[1.6,42.74],[1.54,42.79],[1.47,42.84],[1.38,42.87],[1.29,42.89],[1.25,42.89],[1.22,42.91],[1.19,42.93],[1.05,42.97],[0.9,43],[0.75,43.01],[0.7,43.02],[0.61,43],[0.57,42.99],[0.53,42.97],[0.48,42.93],[0.48,42.92],[0.45,42.9],[0.44,42.86],[0.51,42.87],[0.59,42.73],[0.61,42.7],[0.66,42.7],[0.72,42.62],[0.74,42.59],[0.74,42.56],[0.74,42.54],[0.73,42.53],[0.71,42.49],[0.72,42.47],[0.72,42.43],[0.73,42.4],[0.74,42.36],[0.74,42.32],[0.73,42.26],[0.7,42.15],[0.66,42.03],[0.64,41.96],[0.6,41.9],[0.56,41.85],[0.5,41.8],[0.43,41.75],[0.39,41.71],[0.37,41.67],[0.37,41.63],[0.4,41.6],[0.41,41.57],[0.41,41.53],[0.4,41.5],[0.34,41.41]]]},"properties":{"codigo_iso_3166_2":"ES-L"}},{"type":"Feature","geometry":{"type":"Polygon","coordinates":[[[1.84,42.31],[1.97,42.3],[2,42.28],[2.03,42.26],[2.05,42.23],[2.05,42.2],[2.05,42.19],[2.08,42.17],[2.12,42.15],[2.18,42.13],[2.25,42.13],[2.32,42.12],[2.38,42.1],[2.42,42.09],[2.47,42.04],[2.48,42],[2.45,41.96],[2.44,41.89],[2.44,41.86],[2.45,41.82],[2.46,41.79],[2.48,41.77],[2.51,41.75],[2.57,41.73],[2.64,41.74],[2.68,41.74],[2.71,41.73],[2.73,41.71],[2.78,41.65],[2.57,41.57],[2.58,41.55],[2.61,41.52],[2.65,41.5],[2.69,41.48],[2.73,41.47],[2.78,41.47],[2.83,41.47],[2.87,41.48],[2.91,41.5],[2.92,41.5],[3.16,41.64],[3.25,41.69],[3.32,41.74],[3.38,41.79],[3.43,41.86],[3.46,41.93],[3.47,41.96],[3.46,42.05],[3.46,42.08],[3.43,42.12],[3.43,42.13],[3.49,42.18],[3.52,42.22],[3.53,42.25],[3.54,42.29],[3.53,42.36],[3.51,42.39],[3.49,42.42],[3.47,42.45],[3.43,42.47],[3.39,42.48],[3.37,42.52],[3.33,42.55],[3.24,42.6],[3.15,42.62],[3.05,42.63],[2.94,42.64],[2.84,42.62],[2.73,42.6],[2.65,42.57],[2.55,42.54],[2.51,42.53],[2.43,42.57],[2.4,42.58],[2.28,42.6],[2.23,42.61],[2.12,42.59],[2.08,42.59],[2.06,42.58],[1.94,42.63],[1.78,42.66],[1.76,42.67],[1.71,42.67],[1.7,42.67],[1.7,42.49],[1.71,42.49],[1.77,42.45],[1.81,42.4],[1.82,42.38],[1.83,42.34],[1.84,42.31]]]},"properties":{"codigo_iso_3166_2":"ES-GI"}},{"type":"Feature","geometry":{"type":"Polygon","coordinates":[[[-4.94,39.39],[-5.09,39.34],[-5.19,39.32],[-5.31,39.31],[-5.34,39.29],[-5.35,39.24],[-5.38,39.2],[-5.44,39.17],[-5.53,39.13],[-5.6,39.11],[-5.65,39.1],[-5.7,39.1],[-5.73,39.1],[-5.76,39.12],[-5.81,39.12],[-5.86,39.12],[-5.93,39.1],[-6.02,39.07],[-6.09,39.06],[-6.16,39.06],[-6.23,39.08],[-6.28,39.11],[-6.34,39.14],[-6.41,39.16],[-6.48,39.17],[-6.55,39.19],[-6.61,39.2],[-6.67,39.23],[-6.71,39.27],[-6.75,39.31],[-6.79,39.35],[-6.84,39.38],[-6.89,39.4],[-6.96,39.42],[-7,39.42],[-7.04,39.42],[-7.06,39.42],[-7.08,39.39],[-7.08,39.38],[-7.14,39.34],[-7.25,39.27],[-7.24,39.26],[-7.41,39.14],[-7.42,39.15],[-7.45,39.18],[-7.43,39.13],[-7.41,39.09],[-7.36,39.03],[-7.31,38.99],[-7.28,38.97],[-7.27,38.97],[-7.29,38.95],[-7.35,38.92],[-7.42,38.85],[-7.48,38.77],[-7.52,38.69],[-7.55,38.59],[-7.56,38.48],[-7.54,38.38],[-7.49,38.29],[-7.39,38.19],[-7.37,38.17],[-7.35,38.14],[-7.34,38.13],[-7.33,38.14],[-7.18,38.12],[-7.12,38.12],[-7.08,38.13],[-7.05,38.14],[-7,38.17],[-6.95,38.2],[-6.86,38.14],[-6.83,38.13],[-6.76,38.11],[-6.75,38.1],[-6.7,38.1],[-6.64,38.08],[-6.6,38.05],[-6.55,38.03],[-6.49,38.04],[-6.46,38.04],[-6.41,38.03],[-6.35,38.01],[-6.18,37.94],[-6.05,37.98],[-6.01,38],[-5.98,38.02],[-5.96,38.04],[-5.94,38.07],[-5.92,38.09],[-5.89,38.12],[-5.85,38.14],[-5.8,38.16],[-5.76,38.17],[-5.71,38.18],[-5.67,38.17],[-5.58,38.14],[-5.54,38.22],[-5.53,38.26],[-5.53,38.29],[-5.54,38.33],[-5.55,38.37],[-5.55,38.41],[-5.53,38.45],[-5.49,38.49],[-5.44,38.52],[-5.38,38.56],[-5.31,38.6],[-5.24,38.64],[-5.04,38.73],[-4.96,38.82],[-4.94,38.86],[-4.92,38.9],[-4.92,38.93],[-4.93,38.96],[-4.93,39],[-4.91,39.04],[-4.89,39.08],[-4.83,39.18],[-4.76,39.29],[-4.69,39.45],[-4.75,39.42],[-4.94,39.39]]]},"properties":{"codigo_iso_3166_2":"ES-BA"}},{"type":"Feature","geometry":{"type":"Polygon","coordinates":[[[-5.21,36.05],[-5.12,36.12],[-5.08,36.18],[-5.06,36.21],[-5.05,36.22],[-5.06,36.2],[-5.08,36.18],[-5.25,36.31],[-5.25,36.3],[-5.27,36.33],[-5.37,36.44],[-5.38,36.45],[-5.39,36.47],[-5.4,36.49],[-5.43,36.53],[-5.44,36.56],[-5.43,36.6],[-5.4,36.64],[-5.38,36.65],[-5.35,36.67],[-5.33,36.7],[-5.31,36.74],[-5.29,36.79],[-5.27,36.83],[-5.25,36.85],[-5.18,36.84],[-5.13,36.87],[-5.11,36.91],[-5.11,36.93],[-5.14,37],[-5.19,36.97],[-5.23,36.97],[-5.3,37.01],[-5.38,37.03],[-5.42,37.03],[-5.46,37.03],[-5.48,37.02],[-5.5,37],[-5.52,36.96],[-5.56,36.95],[-5.63,36.95],[-5.68,36.95],[-5.78,36.92],[-5.86,36.89],[-5.88,36.86],[-5.93,36.85],[-5.97,36.85],[-6.01,36.85],[-6.08,36.86],[-6.12,36.87],[-6.15,36.88],[-6.23,36.9],[-6.31,36.9],[-6.33,36.9],[-6.34,36.9],[-6.36,36.89],[-6.39,36.87],[-6.42,36.85],[-6.54,36.81],[-6.58,36.8],[-6.61,36.81],[-6.62,36.79],[-6.63,36.77],[-6.64,36.73],[-6.64,36.69],[-6.61,36.61],[-6.57,36.55],[-6.51,36.5],[-6.45,36.46],[-6.45,36.44],[-6.43,36.37],[-6.39,36.3],[-6.34,36.23],[-6.29,36.16],[-6.23,36.1],[-6.16,36.05],[-6.1,36.03],[-6.07,36.02],[-6.02,36.01],[-6.01,36],[-5.94,35.96],[-5.84,35.9],[-5.77,35.87],[-5.68,35.85],[-5.59,35.84],[-5.54,35.85],[-5.48,35.91],[-5.42,35.96],[-5.36,36],[-5.3,36.02],[-5.23,36.04],[-5.21,36.05]]]},"properties":{"codigo_iso_3166_2":"ES-CA"}},{"type":"Feature","geometry":{"type":"Polygon","coordinates":[[[-7.93,42.58],[-7.99,42.56],[-8.04,42.55],[-8.07,42.55],[-8.11,42.56],[-8.15,42.56],[-8.19,42.54],[-8.23,42.52],[-8.28,42.48],[-8.3,42.45],[-8.31,42.42],[-8.31,42.39],[-8.27,42.33],[-8.25,42.26],[-8.22,42.16],[-8.22,42.15],[-8.25,42.09],[-8.29,42.02],[-8.39,41.91],[-8.45,41.9],[-8.45,41.88],[-8.45,41.85],[-8.43,41.8],[-8.41,41.76],[-8.38,41.73],[-8.31,41.67],[-8.27,41.66],[-8.23,41.65],[-8.17,41.64],[-8.13,41.63],[-8,41.65],[-7.79,41.7],[-7.77,41.7],[-7.76,41.69],[-7.65,41.66],[-7.54,41.65],[-7.44,41.66],[-7.32,41.67],[-7.22,41.69],[-7.11,41.73],[-7.05,41.78],[-7.04,41.79],[-7.03,41.78],[-6.98,41.78],[-6.97,41.78],[-6.95,41.96],[-6.98,41.96],[-7.01,42.04],[-7.01,42.06],[-6.99,42.11],[-6.96,42.14],[-6.94,42.16],[-6.93,42.16],[-6.87,42.2],[-6.78,42.25],[-6.77,42.32],[-6.77,42.38],[-6.8,42.44],[-6.82,42.47],[-6.86,42.48],[-6.9,42.49],[-6.91,42.49],[-7.07,42.5],[-7.19,42.44],[-7.23,42.43],[-7.28,42.42],[-7.32,42.42],[-7.36,42.42],[-7.45,42.42],[-7.54,42.41],[-7.6,42.41],[-7.65,42.42],[-7.71,42.44],[-7.82,42.49],[-7.89,42.53],[-7.93,42.58]]]},"properties":{"codigo_iso_3166_2":"ES-OR"}},{"type":"Feature","geometry":{"type":"Polygon","coordinates":[[[-4.94,39.39],[-5.1,39.52],[-5.15,39.57],[-5.17,39.61],[-5.18,39.65],[-5.16,39.67],[-5.15,39.73],[-5.16,39.76],[-5.21,39.81],[-5.31,39.87],[-5.34,39.91],[-5.36,39.95],[-5.37,39.99],[-5.33,40.12],[-5.35,40.2],[-5.37,40.22],[-5.41,40.23],[-5.47,40.21],[-5.52,40.21],[-5.59,40.22],[-5.65,40.25],[-5.73,40.29],[-5.84,40.28],[-5.92,40.29],[-6.01,40.32],[-6.05,40.35],[-6.13,40.4],[-6.16,40.43],[-6.2,40.45],[-6.26,40.45],[-6.33,40.43],[-6.47,40.37],[-6.51,40.34],[-6.56,40.3],[-6.59,40.28],[-6.63,40.27],[-6.64,40.27],[-6.68,40.26],[-6.69,40.26],[-6.78,40.26],[-6.84,40.26],[-6.87,40.28],[-6.82,40.33],[-7.01,40.43],[-7.07,40.4],[-7.09,40.39],[-7.14,40.36],[-7.18,40.34],[-7.23,40.26],[-7.25,40.23],[-7.25,40.19],[-7.24,40.11],[-7.23,40.07],[-7.15,39.97],[-7.14,39.96],[-7.14,39.94],[-7.18,39.88],[-7.19,39.87],[-7.26,39.87],[-7.38,39.86],[-7.5,39.85],[-7.58,39.84],[-7.63,39.82],[-7.7,39.78],[-7.73,39.75],[-7.75,39.73],[-7.77,39.7],[-7.78,39.66],[-7.78,39.63],[-7.77,39.6],[-7.72,39.52],[-7.7,39.49],[-7.6,39.41],[-7.55,39.38],[-7.55,39.37],[-7.55,39.33],[-7.52,39.25],[-7.5,39.22],[-7.45,39.18],[-7.42,39.15],[-7.41,39.14],[-7.24,39.26],[-7.25,39.27],[-7.14,39.34],[-7.08,39.38],[-7.08,39.39],[-7.06,39.42],[-7.04,39.42],[-7,39.42],[-6.96,39.42],[-6.89,39.4],[-6.84,39.38],[-6.79,39.35],[-6.75,39.31],[-6.71,39.27],[-6.67,39.23],[-6.61,39.2],[-6.55,39.19],[-6.48,39.17],[-6.41,39.16],[-6.34,39.14],[-6.28,39.11],[-6.23,39.08],[-6.16,39.06],[-6.09,39.06],[-6.02,39.07],[-5.93,39.1],[-5.86,39.12],[-5.81,39.12],[-5.76,39.12],[-5.73,39.1],[-5.7,39.1],[-5.65,39.1],[-5.6,39.11],[-5.53,39.13],[-5.44,39.17],[-5.38,39.2],[-5.35,39.24],[-5.34,39.29],[-5.31,39.31],[-5.19,39.32],[-5.09,39.34],[-4.94,39.39]]]},"properties":{"codigo_iso_3166_2":"ES-CC"}},{"type":"Feature","geometry":{"type":"Polygon","coordinates":[[[-5.73,40.29],[-5.7,40.37],[-5.68,40.4],[-5.65,40.42],[-5.6,40.44],[-5.55,40.46],[-5.5,40.48],[-5.46,40.51],[-5.42,40.55],[-5.4,40.6],[-5.37,40.64],[-5.33,40.69],[-5.28,40.73],[-5.23,40.76],[-5.19,40.8],[-5.16,40.84],[-5.14,40.89],[-5.11,40.97],[-5.11,41.05],[-5.13,41.13],[-5.29,41.18],[-5.3,41.14],[-5.32,41.14],[-5.37,41.15],[-5.43,41.17],[-5.52,41.2],[-5.61,41.22],[-5.68,41.23],[-5.75,41.24],[-5.8,41.24],[-5.85,41.23],[-5.89,41.22],[-5.91,41.2],[-5.93,41.18],[-5.96,41.17],[-6.02,41.17],[-6.09,41.19],[-6.22,41.24],[-6.25,41.25],[-6.26,41.26],[-6.38,41.29],[-6.47,41.3],[-6.48,41.3],[-6.55,41.47],[-6.6,41.46],[-6.64,41.46],[-6.68,41.45],[-6.78,41.41],[-6.85,41.35],[-6.91,41.29],[-6.96,41.23],[-6.98,41.2],[-6.99,41.2],[-7.02,41.19],[-7.06,41.16],[-7.1,41.12],[-7.13,41.09],[-7.14,41.06],[-7.15,41],[-7.15,40.97],[-7.13,40.9],[-7.08,40.81],[-7.06,40.74],[-7.06,40.71],[-7.06,40.67],[-7.06,40.64],[-7.06,40.6],[-7.08,40.54],[-7.08,40.48],[-7.08,40.46],[-7.08,40.41],[-7.07,40.4],[-7.01,40.43],[-6.82,40.33],[-6.87,40.28],[-6.84,40.26],[-6.78,40.26],[-6.69,40.26],[-6.68,40.26],[-6.64,40.27],[-6.63,40.27],[-6.59,40.28],[-6.56,40.3],[-6.51,40.34],[-6.47,40.37],[-6.33,40.43],[-6.26,40.45],[-6.2,40.45],[-6.16,40.43],[-6.13,40.4],[-6.05,40.35],[-6.01,40.32],[-5.92,40.29],[-5.84,40.28],[-5.73,40.29]]]},"properties":{"codigo_iso_3166_2":"ES-SA"}},{"type":"Feature","geometry":{"type":"Polygon","coordinates":[[[-7.03,41.78],[-7.01,41.78],[-6.97,41.78],[-6.82,41.76],[-6.79,41.76],[-6.79,41.75],[-6.78,41.69],[-6.77,41.66],[-6.73,41.6],[-6.71,41.57],[-6.68,41.54],[-6.61,41.51],[-6.56,41.5],[-6.56,41.49],[-6.6,41.46],[-6.55,41.47],[-6.48,41.3],[-6.47,41.3],[-6.38,41.29],[-6.26,41.26],[-6.25,41.25],[-6.22,41.24],[-6.09,41.19],[-6.02,41.17],[-5.96,41.17],[-5.93,41.18],[-5.91,41.2],[-5.89,41.22],[-5.85,41.23],[-5.8,41.24],[-5.75,41.24],[-5.68,41.23],[-5.61,41.22],[-5.52,41.2],[-5.43,41.17],[-5.37,41.15],[-5.32,41.14],[-5.3,41.14],[-5.29,41.18],[-5.31,41.37],[-5.32,41.48],[-5.31,41.53],[-5.3,41.56],[-5.31,41.59],[-5.33,41.64],[-5.35,41.69],[-5.36,41.73],[-5.36,41.76],[-5.35,41.78],[-5.32,41.79],[-5.3,41.81],[-5.29,41.84],[-5.28,41.87],[-5.28,41.92],[-5.29,41.95],[-5.3,41.98],[-5.32,42],[-5.38,42.04],[-5.4,42.03],[-5.44,42.04],[-5.48,42.07],[-5.54,42.1],[-5.59,42.12],[-5.69,42.13],[-5.84,42.13],[-5.98,42.13],[-6.11,42.14],[-6.21,42.16],[-6.27,42.19],[-6.34,42.2],[-6.42,42.19],[-6.47,42.19],[-6.53,42.2],[-6.6,42.21],[-6.78,42.25],[-6.87,42.2],[-6.93,42.16],[-6.94,42.16],[-6.96,42.14],[-6.99,42.11],[-7.01,42.06],[-7.01,42.04],[-6.98,41.96],[-6.95,41.96],[-6.97,41.78],[-6.98,41.78],[-7.03,41.78]]]},"properties":{"codigo_iso_3166_2":"ES-ZA"}},{"type":"Feature","geometry":{"type":"Polygon","coordinates":[[[-7.93,42.58],[-7.9,42.67],[-7.9,42.7],[-7.91,42.74],[-7.92,42.77],[-7.97,42.81],[-8,42.85],[-8.11,42.85],[-8.17,42.84],[-8.26,42.82],[-8.38,42.79],[-8.5,42.76],[-8.73,42.69],[-8.74,42.69],[-8.75,42.68],[-8.77,42.66],[-8.81,42.64],[-8.99,42.49],[-9.04,42.45],[-9.07,42.46],[-9.1,42.46],[-9.1,42.44],[-9.1,42.41],[-9.1,42.37],[-9.08,42.31],[-9.06,42.27],[-9.07,42.26],[-9.09,42.23],[-9.12,42.16],[-9.13,42.09],[-9.13,42.03],[-9.13,41.96],[-9.11,41.88],[-9.07,41.84],[-9.04,41.81],[-9,41.78],[-8.94,41.76],[-8.89,41.74],[-8.83,41.74],[-8.78,41.75],[-8.66,41.79],[-8.56,41.85],[-8.53,41.87],[-8.52,41.88],[-8.49,41.89],[-8.45,41.9],[-8.39,41.91],[-8.29,42.02],[-8.25,42.09],[-8.22,42.15],[-8.22,42.16],[-8.25,42.26],[-8.27,42.33],[-8.31,42.39],[-8.31,42.42],[-8.3,42.45],[-8.28,42.48],[-8.23,42.52],[-8.19,42.54],[-8.15,42.56],[-8.11,42.56],[-8.07,42.55],[-8.04,42.55],[-7.99,42.56],[-7.93,42.58]]]},"properties":{"codigo_iso_3166_2":"ES-PO"}},{"type":"Feature","geometry":{"type":"Polygon","coordinates":[[[-7.34,38.13],[-7.36,38.12],[-7.42,38.07],[-7.47,38.02],[-7.5,37.97],[-7.52,37.93],[-7.53,37.92],[-7.56,37.89],[-7.64,37.81],[-7.7,37.71],[-7.73,37.64],[-7.74,37.57],[-7.73,37.5],[-7.7,37.43],[-7.69,37.4],[-7.66,37.27],[-7.65,37.24],[-7.6,37.16],[-7.57,37.13],[-7.48,37.07],[-7.44,37.05],[-7.32,37.02],[-7.29,37.02],[-7.17,37.02],[-7.11,37.02],[-7.05,37.01],[-7.01,37],[-6.89,36.96],[-6.77,36.9],[-6.66,36.83],[-6.61,36.81],[-6.58,36.8],[-6.54,36.81],[-6.42,36.85],[-6.39,36.87],[-6.36,36.89],[-6.34,36.9],[-6.35,37.05],[-6.35,37.08],[-6.35,37.1],[-6.35,37.21],[-6.35,37.31],[-6.35,37.38],[-6.34,37.44],[-6.35,37.47],[-6.39,37.55],[-6.44,37.63],[-6.46,37.68],[-6.45,37.71],[-6.42,37.73],[-6.36,37.75],[-6.29,37.77],[-6.24,37.79],[-6.21,37.82],[-6.19,37.85],[-6.18,37.94],[-6.35,38.01],[-6.41,38.03],[-6.46,38.04],[-6.49,38.04],[-6.55,38.03],[-6.6,38.05],[-6.64,38.08],[-6.7,38.1],[-6.75,38.1],[-6.76,38.11],[-6.83,38.13],[-6.86,38.14],[-6.95,38.2],[-7,38.17],[-7.05,38.14],[-7.08,38.13],[-7.12,38.12],[-7.18,38.12],[-7.33,38.14],[-7.34,38.13]]]},"properties":{"codigo_iso_3166_2":"ES-H"}},{"type":"Feature","geometry":{"type":"Polygon","coordinates":[[[1.39,41.58],[1.5,41.45],[1.53,41.4],[1.55,41.36],[1.56,41.35],[1.58,41.3],[1.62,41.19],[1.39,41.14],[1.4,41.12],[1.42,41.09],[1.45,41.06],[1.49,41.04],[1.53,41.02],[1.57,41.01],[1.62,41.01],[1.67,41.01],[1.68,41.02],[1.97,41.07],[2.09,41.1],[2.21,41.15],[2.32,41.21],[2.38,41.27],[2.43,41.3],[2.5,41.34],[2.59,41.38],[2.89,41.49],[2.91,41.5],[2.87,41.48],[2.83,41.47],[2.78,41.47],[2.73,41.47],[2.69,41.48],[2.65,41.5],[2.61,41.52],[2.58,41.55],[2.57,41.57],[2.78,41.65],[2.73,41.71],[2.71,41.73],[2.68,41.74],[2.64,41.74],[2.57,41.73],[2.51,41.75],[2.48,41.77],[2.46,41.79],[2.45,41.82],[2.44,41.86],[2.44,41.89],[2.45,41.96],[2.48,42],[2.47,42.04],[2.42,42.09],[2.38,42.1],[2.32,42.12],[2.25,42.13],[2.18,42.13],[2.12,42.15],[2.08,42.17],[2.05,42.19],[2.05,42.2],[2.05,42.23],[2.03,42.26],[2,42.28],[1.97,42.3],[1.84,42.31],[1.77,42.3],[1.76,42.29],[1.74,42.28],[1.73,42.26],[1.72,42.23],[1.71,42.14],[1.68,42.02],[1.66,41.94],[1.64,41.88],[1.62,41.84],[1.6,41.81],[1.56,41.78],[1.5,41.77],[1.47,41.78],[1.44,41.77],[1.42,41.75],[1.42,41.73],[1.43,41.66],[1.42,41.62],[1.39,41.58]]]},"properties":{"codigo_iso_3166_2":"ES-B"}},{"type":"Feature","geometry":{"type":"Polygon","coordinates":[[[0.36,41.23],[0.27,41.16],[0.24,41.14],[0.21,41.1],[0.22,41.07],[0.26,41.01],[0.28,40.96],[0.28,40.89],[0.27,40.85],[0.23,40.79],[0.17,40.73],[0.24,40.67],[0.32,40.62],[0.33,40.62],[0.38,40.59],[0.52,40.53],[0.41,40.37],[0.43,40.36],[0.47,40.35],[0.52,40.35],[0.57,40.35],[0.61,40.36],[0.65,40.38],[0.69,40.4],[0.69,40.41],[0.71,40.42],[0.72,40.43],[0.74,40.45],[0.77,40.47],[0.9,40.52],[0.96,40.56],[0.99,40.58],[1.01,40.6],[1.04,40.66],[1.06,40.69],[1.06,40.72],[1.06,40.75],[1.03,40.81],[1.04,40.82],[1.1,40.86],[1.19,40.89],[1.31,40.93],[1.68,41.02],[1.67,41.01],[1.62,41.01],[1.57,41.01],[1.53,41.02],[1.49,41.04],[1.45,41.06],[1.42,41.09],[1.4,41.12],[1.39,41.14],[1.62,41.19],[1.58,41.3],[1.56,41.35],[1.55,41.36],[1.53,41.4],[1.5,41.45],[1.39,41.58],[1.28,41.57],[1.2,41.55],[1.16,41.54],[1.09,41.49],[1.03,41.43],[1,41.4],[0.95,41.37],[0.89,41.35],[0.8,41.33],[0.69,41.31],[0.61,41.3],[0.54,41.3],[0.5,41.3],[0.47,41.31],[0.43,41.3],[0.41,41.29],[0.36,41.23]]]},"properties":{"codigo_iso_3166_2":"ES-T"}},{"type":"Feature","geometry":{"type":"Polygon","coordinates":[[[0.17,40.73],[0.02,40.73],[-0.07,40.74],[-0.13,40.76],[-0.16,40.76],[-0.19,40.74],[-0.22,40.72],[-0.24,40.67],[-0.27,40.63],[-0.28,40.58],[-0.29,40.53],[-0.29,40.47],[-0.3,40.42],[-0.32,40.38],[-0.35,40.33],[-0.38,40.3],[-0.45,40.25],[-0.5,40.24],[-0.54,40.21],[-0.58,40.13],[-0.6,40.1],[-0.63,40.07],[-0.67,40.06],[-0.7,40.05],[-0.77,40.02],[-0.81,39.98],[-0.82,39.96],[-0.82,39.92],[-0.79,39.88],[-0.63,39.83],[-0.54,39.79],[-0.5,39.76],[-0.45,39.75],[-0.43,39.75],[-0.42,39.75],[-0.37,39.77],[-0.33,39.77],[-0.3,39.77],[-0.26,39.76],[-0.19,39.72],[-0.27,39.6],[-0.29,39.56],[-0.28,39.55],[-0.24,39.54],[-0.19,39.54],[-0.14,39.54],[-0.1,39.55],[-0.06,39.57],[-0.03,39.59],[0,39.62],[0.01,39.63],[0.25,39.9],[0.33,39.99],[0.4,40.05],[0.53,40.17],[0.63,40.29],[0.7,40.4],[0.72,40.43],[0.71,40.42],[0.69,40.41],[0.69,40.4],[0.65,40.38],[0.61,40.36],[0.57,40.35],[0.52,40.35],[0.47,40.35],[0.43,40.36],[0.41,40.37],[0.52,40.53],[0.38,40.59],[0.33,40.62],[0.32,40.62],[0.24,40.67],[0.17,40.73]]]},"properties":{"codigo_iso_3166_2":"ES-CS"}},{"type":"Feature","geometry":{"type":"MultiPolygon","coordinates":[[[[-0.79,39.88],[-0.92,39.94],[-0.97,39.96],[-1.02,39.97],[-1.06,39.98],[-1.15,39.97],[-1.24,39.78],[-1.27,39.73],[-1.3,39.69],[-1.32,39.67],[-1.36,39.67],[-1.41,39.64],[-1.44,39.61],[-1.47,39.58],[-1.48,39.55],[-1.49,39.51],[-1.5,39.42],[-1.4,39.37],[-1.32,39.34],[-1.24,39.32],[-1.21,39.3],[-1.18,39.27],[-1.18,39.23],[-1.21,39.16],[-1.23,39.13],[-1.24,39.09],[-1.23,39.05],[-1.21,39.02],[-1.17,38.98],[-1.14,38.96],[-1.1,38.94],[-1.06,38.93],[-1.02,38.94],[-0.99,38.93],[-0.96,38.91],[-0.95,38.88],[-0.93,38.79],[-0.8,38.77],[-0.72,38.77],[-0.61,38.78],[-0.47,38.8],[-0.27,38.84],[-0.25,38.84],[-0.19,38.85],[-0.03,38.88],[-0.09,38.94],[-0.03,38.99],[0.02,39.05],[0.05,39.05],[0.12,39.03],[0.06,39.09],[0.05,39.1],[0.03,39.14],[0.01,39.15],[0.01,39.17],[-0.01,39.26],[-0.05,39.33],[-0.07,39.38],[-0.08,39.45],[-0.08,39.47],[-0.07,39.5],[-0.06,39.52],[0.01,39.63],[0,39.62],[-0.03,39.59],[-0.06,39.57],[-0.1,39.55],[-0.14,39.54],[-0.19,39.54],[-0.24,39.54],[-0.28,39.55],[-0.29,39.56],[-0.27,39.6],[-0.19,39.72],[-0.26,39.76],[-0.3,39.77],[-0.33,39.77],[-0.37,39.77],[-0.42,39.75],[-0.43,39.75],[-0.45,39.75],[-0.5,39.76],[-0.54,39.79],[-0.63,39.83],[-0.79,39.88]]],[[[-1.16,40.01],[-1.15,40.07],[-1.17,40.09],[-1.21,40.11],[-1.26,40.13],[-1.45,40.15],[-1.4,40.07],[-1.37,40.04],[-1.34,40.03],[-1.29,40.02],[-1.16,40.01]]]]},"properties":{"codigo_iso_3166_2":"ES-V"}},{"type":"Feature","geometry":{"type":"Polygon","coordinates":[[[-0.93,38.79],[-0.91,38.73],[-0.92,38.69],[-0.94,38.67],[-1.02,38.65],[-1.02,38.54],[-1.03,38.47],[-1.06,38.4],[-1.06,38.37],[-1.06,38.34],[-1.04,38.32],[-1.01,38.3],[-0.99,38.28],[-0.99,38.25],[-0.99,38.21],[-1.01,38.18],[-1.01,38.14],[-1.01,38.09],[-0.99,38.05],[-0.98,38.04],[-0.96,38],[-0.94,37.97],[-0.93,37.96],[-0.9,37.93],[-0.86,37.9],[-0.76,37.85],[-0.74,37.87],[-0.7,37.84],[-0.55,37.78],[-0.56,37.76],[-0.55,37.78],[-0.49,37.85],[-0.46,37.91],[-0.43,37.97],[-0.41,38.03],[-0.4,38.06],[-0.38,38.07],[-0.35,38.09],[-0.32,38.12],[-0.29,38.19],[-0.28,38.22],[-0.28,38.24],[-0.27,38.25],[-0.24,38.28],[-0.21,38.3],[-0.18,38.32],[-0.15,38.33],[-0.09,38.35],[0.05,38.4],[0.18,38.51],[0.29,38.57],[0.36,38.63],[0.4,38.67],[0.42,38.7],[0.43,38.73],[0.43,38.79],[0.43,38.82],[0.41,38.86],[0.39,38.89],[0.29,38.97],[0.17,39.01],[0.12,39.03],[0.05,39.05],[0.02,39.05],[-0.03,38.99],[-0.09,38.94],[-0.03,38.88],[-0.19,38.85],[-0.25,38.84],[-0.27,38.84],[-0.47,38.8],[-0.61,38.78],[-0.72,38.77],[-0.8,38.77],[-0.93,38.79]]]},"properties":{"codigo_iso_3166_2":"ES-A"}},{"type":"Feature","geometry":{"type":"Polygon","coordinates":[[[-1.02,38.65],[-1.11,38.71],[-1.16,38.73],[-1.21,38.73],[-1.27,38.72],[-1.33,38.69],[-1.39,38.67],[-1.43,38.64],[-1.46,38.61],[-1.49,38.55],[-1.49,38.48],[-1.49,38.45],[-1.49,38.42],[-1.5,38.4],[-1.51,38.39],[-1.54,38.37],[-1.57,38.34],[-1.61,38.33],[-1.64,38.33],[-1.67,38.34],[-1.7,38.35],[-1.74,38.36],[-1.77,38.36],[-1.8,38.35],[-1.87,38.32],[-1.95,38.3],[-2.04,38.29],[-2.12,38.26],[-2.19,38.21],[-2.26,38.14],[-2.34,38.03],[-2.21,37.92],[-2.07,37.89],[-2.02,37.87],[-2,37.83],[-1.99,37.79],[-1.99,37.73],[-1.99,37.68],[-1.97,37.63],[-1.94,37.57],[-1.9,37.53],[-1.86,37.48],[-1.84,37.47],[-1.81,37.45],[-1.76,37.42],[-1.64,37.38],[-1.75,37.27],[-1.78,37.24],[-1.77,37.23],[-1.73,37.21],[-1.68,37.2],[-1.64,37.2],[-1.6,37.2],[-1.55,37.21],[-1.54,37.22],[-1.5,37.23],[-1.44,37.25],[-1.33,37.31],[-1.24,37.37],[-1.18,37.36],[-1.07,37.38],[-1.03,37.39],[-1.02,37.39],[-0.93,37.39],[-0.79,37.41],[-0.69,37.44],[-0.63,37.47],[-0.6,37.49],[-0.57,37.52],[-0.54,37.57],[-0.53,37.6],[-0.52,37.64],[-0.53,37.67],[-0.55,37.73],[-0.57,37.75],[-0.56,37.76],[-0.55,37.78],[-0.7,37.84],[-0.74,37.87],[-0.76,37.85],[-0.86,37.9],[-0.9,37.93],[-0.93,37.96],[-0.94,37.97],[-0.96,38],[-0.98,38.04],[-0.99,38.05],[-1.01,38.09],[-1.01,38.14],[-1.01,38.18],[-0.99,38.21],[-0.99,38.25],[-0.99,38.28],[-1.01,38.3],[-1.04,38.32],[-1.06,38.34],[-1.06,38.37],[-1.06,38.4],[-1.03,38.47],[-1.02,38.54],[-1.02,38.65]]]},"properties":{"codigo_iso_3166_2":"ES-MU"}},{"type":"Feature","geometry":{"type":"Polygon","coordinates":[[[-2.21,37.92],[-2.32,37.73],[-2.35,37.66],[-2.37,37.61],[-2.37,37.58],[-2.37,37.55],[-2.39,37.52],[-2.41,37.51],[-2.47,37.49],[-2.51,37.47],[-2.58,37.42],[-2.61,37.39],[-2.63,37.36],[-2.65,37.32],[-2.65,37.27],[-2.67,37.24],[-2.7,37.23],[-2.73,37.23],[-2.78,37.24],[-2.82,37.25],[-2.85,37.24],[-2.87,37.23],[-2.88,37.19],[-2.93,37.14],[-2.97,37.11],[-2.99,37.08],[-3.01,37.03],[-3.02,36.98],[-3.03,36.93],[-3.03,36.91],[-3.03,36.88],[-3.05,36.84],[-3.07,36.81],[-3.13,36.75],[-3.01,36.75],[-2.96,36.75],[-2.91,36.73],[-2.91,36.71],[-2.92,36.68],[-2.94,36.65],[-2.97,36.62],[-3.01,36.6],[-3.04,36.58],[-3.09,36.57],[-3.12,36.57],[-3.02,36.57],[-3,36.57],[-2.95,36.56],[-2.91,36.54],[-2.83,36.52],[-2.79,36.51],[-2.7,36.51],[-2.65,36.51],[-2.61,36.52],[-2.52,36.56],[-2.49,36.59],[-2.44,36.65],[-2.43,36.65],[-2.42,36.65],[-2.38,36.63],[-2.3,36.59],[-2.24,36.58],[-2.21,36.58],[-2.14,36.58],[-2.11,36.58],[-2.01,36.61],[-1.93,36.66],[-1.9,36.68],[-1.84,36.75],[-1.82,36.77],[-1.77,36.81],[-1.72,36.86],[-1.68,36.93],[-1.65,37],[-1.63,37.06],[-1.61,37.1],[-1.59,37.14],[-1.56,37.17],[-1.53,37.2],[-1.5,37.23],[-1.54,37.22],[-1.55,37.21],[-1.6,37.2],[-1.64,37.2],[-1.68,37.2],[-1.73,37.21],[-1.77,37.23],[-1.78,37.24],[-1.75,37.27],[-1.64,37.38],[-1.76,37.42],[-1.81,37.45],[-1.84,37.47],[-1.86,37.48],[-1.9,37.53],[-1.94,37.57],[-1.97,37.63],[-1.99,37.68],[-1.99,37.73],[-1.99,37.79],[-2,37.83],[-2.02,37.87],[-2.07,37.89],[-2.21,37.92]]]},"properties":{"codigo_iso_3166_2":"ES-AL"}},{"type":"Feature","geometry":{"type":"Polygon","coordinates":[[[-2.34,38.03],[-2.55,38.08],[-2.58,38.04],[-2.63,38],[-2.72,37.95],[-2.76,37.92],[-2.8,37.89],[-2.83,37.86],[-2.87,37.79],[-2.89,37.76],[-2.9,37.71],[-2.91,37.68],[-2.93,37.66],[-2.97,37.64],[-3.02,37.63],[-3.06,37.62],[-3.11,37.61],[-3.15,37.61],[-3.23,37.62],[-3.31,37.61],[-3.36,37.59],[-3.43,37.58],[-3.48,37.6],[-3.51,37.59],[-3.56,37.58],[-3.61,37.56],[-3.68,37.52],[-3.74,37.49],[-3.78,37.46],[-3.84,37.41],[-3.9,37.39],[-4,37.4],[-4.13,37.37],[-4.18,37.35],[-4.22,37.32],[-4.25,37.29],[-4.32,37.19],[-4.28,37.08],[-4.26,37.05],[-4.22,36.99],[-4.15,36.95],[-4.07,36.92],[-4.01,36.89],[-3.94,36.87],[-3.91,36.86],[-3.84,36.82],[-3.8,36.8],[-3.77,36.78],[-3.78,36.74],[-3.67,36.74],[-3.58,36.73],[-3.56,36.73],[-3.56,36.7],[-3.57,36.67],[-3.59,36.64],[-3.62,36.61],[-3.66,36.59],[-3.69,36.57],[-3.74,36.56],[-3.78,36.56],[-3.68,36.56],[-3.62,36.56],[-3.53,36.54],[-3.45,36.53],[-3.36,36.54],[-3.33,36.54],[-3.27,36.56],[-3.23,36.57],[-3.12,36.57],[-3.09,36.57],[-3.04,36.58],[-3.01,36.6],[-2.97,36.62],[-2.94,36.65],[-2.92,36.68],[-2.91,36.71],[-2.91,36.73],[-2.96,36.75],[-3.01,36.75],[-3.13,36.75],[-3.07,36.81],[-3.05,36.84],[-3.03,36.88],[-3.03,36.91],[-3.03,36.93],[-3.02,36.98],[-3.01,37.03],[-2.99,37.08],[-2.97,37.11],[-2.93,37.14],[-2.88,37.19],[-2.87,37.23],[-2.85,37.24],[-2.82,37.25],[-2.78,37.24],[-2.73,37.23],[-2.7,37.23],[-2.67,37.24],[-2.65,37.27],[-2.65,37.32],[-2.63,37.36],[-2.61,37.39],[-2.58,37.42],[-2.51,37.47],[-2.47,37.49],[-2.41,37.51],[-2.39,37.52],[-2.37,37.55],[-2.37,37.58],[-2.37,37.61],[-2.35,37.66],[-2.32,37.73],[-2.21,37.92],[-2.34,38.03]]]},"properties":{"codigo_iso_3166_2":"ES-GR"}},{"type":"Feature","geometry":{"type":"Polygon","coordinates":[[[-5.05,36.22],[-5.05,36.23],[-5.02,36.27],[-4.98,36.29],[-4.93,36.3],[-4.88,36.32],[-4.85,36.32],[-4.84,36.32],[-4.8,36.32],[-4.71,36.32],[-4.63,36.34],[-4.55,36.36],[-4.47,36.39],[-4.41,36.43],[-4.35,36.48],[-4.3,36.53],[-4.29,36.53],[-4.16,36.54],[-4.07,36.56],[-4.05,36.56],[-3.95,36.57],[-3.79,36.56],[-3.78,36.56],[-3.74,36.56],[-3.69,36.57],[-3.66,36.59],[-3.62,36.61],[-3.59,36.64],[-3.57,36.67],[-3.56,36.7],[-3.56,36.73],[-3.58,36.73],[-3.67,36.74],[-3.78,36.74],[-3.77,36.78],[-3.8,36.8],[-3.84,36.82],[-3.91,36.86],[-3.94,36.87],[-4.01,36.89],[-4.07,36.92],[-4.15,36.95],[-4.22,36.99],[-4.26,37.05],[-4.28,37.08],[-4.32,37.19],[-4.4,37.25],[-4.42,37.26],[-4.45,37.26],[-4.48,37.25],[-4.53,37.23],[-4.58,37.23],[-4.65,37.26],[-4.71,37.21],[-4.75,37.19],[-4.8,37.19],[-4.85,37.17],[-4.92,37.12],[-5,37.07],[-5.14,37],[-5.11,36.93],[-5.11,36.91],[-5.13,36.87],[-5.18,36.84],[-5.25,36.85],[-5.27,36.83],[-5.29,36.79],[-5.31,36.74],[-5.33,36.7],[-5.35,36.67],[-5.38,36.65],[-5.4,36.64],[-5.43,36.6],[-5.44,36.56],[-5.43,36.53],[-5.4,36.49],[-5.39,36.47],[-5.38,36.45],[-5.37,36.44],[-5.27,36.33],[-5.25,36.3],[-5.25,36.31],[-5.08,36.18],[-5.06,36.2],[-5.05,36.22]]]},"properties":{"codigo_iso_3166_2":"ES-MA"}},{"type":"Feature","geometry":{"type":"Polygon","coordinates":[[[-6.18,37.94],[-6.19,37.85],[-6.21,37.82],[-6.24,37.79],[-6.29,37.77],[-6.36,37.75],[-6.42,37.73],[-6.45,37.71],[-6.46,37.68],[-6.44,37.63],[-6.39,37.55],[-6.35,37.47],[-6.34,37.44],[-6.35,37.38],[-6.35,37.31],[-6.35,37.21],[-6.35,37.1],[-6.35,37.08],[-6.35,37.05],[-6.34,36.9],[-6.33,36.9],[-6.31,36.9],[-6.23,36.9],[-6.15,36.88],[-6.12,36.87],[-6.08,36.86],[-6.01,36.85],[-5.97,36.85],[-5.93,36.85],[-5.88,36.86],[-5.86,36.89],[-5.78,36.92],[-5.68,36.95],[-5.63,36.95],[-5.56,36.95],[-5.52,36.96],[-5.5,37],[-5.48,37.02],[-5.46,37.03],[-5.42,37.03],[-5.38,37.03],[-5.3,37.01],[-5.23,36.97],[-5.19,36.97],[-5.14,37],[-5,37.07],[-4.92,37.12],[-4.85,37.17],[-4.8,37.19],[-4.75,37.19],[-4.71,37.21],[-4.65,37.26],[-4.67,37.31],[-4.7,37.34],[-4.77,37.35],[-4.8,37.37],[-4.83,37.39],[-4.86,37.42],[-4.92,37.49],[-4.94,37.54],[-4.94,37.58],[-4.95,37.6],[-4.99,37.66],[-5.03,37.68],[-5.08,37.68],[-5.15,37.67],[-5.22,37.65],[-5.28,37.64],[-5.31,37.65],[-5.33,37.67],[-5.32,37.71],[-5.32,37.75],[-5.33,37.78],[-5.35,37.82],[-5.4,37.88],[-5.47,37.98],[-5.58,38.14],[-5.67,38.17],[-5.71,38.18],[-5.76,38.17],[-5.8,38.16],[-5.85,38.14],[-5.89,38.12],[-5.92,38.09],[-5.94,38.07],[-5.96,38.04],[-5.98,38.02],[-6.01,38],[-6.05,37.98],[-6.18,37.94]]]},"properties":{"codigo_iso_3166_2":"ES-SE"}},{"type":"Feature","geometry":{"type":"Polygon","coordinates":[[[-8,42.85],[-7.94,42.91],[-7.93,42.94],[-7.93,42.98],[-7.93,43.03],[-7.95,43.15],[-7.95,43.23],[-7.93,43.29],[-7.9,43.32],[-7.84,43.39],[-7.8,43.44],[-7.77,43.49],[-7.75,43.55],[-7.75,43.56],[-7.71,43.7],[-7.7,43.73],[-7.71,43.73],[-7.71,43.91],[-7.7,43.91],[-7.71,43.91],[-7.88,43.91],[-8,43.89],[-8.11,43.86],[-8.22,43.82],[-8.32,43.76],[-8.4,43.72],[-8.48,43.67],[-8.52,43.63],[-8.54,43.6],[-8.56,43.56],[-8.59,43.53],[-8.62,43.51],[-8.64,43.5],[-8.66,43.49],[-8.67,43.48],[-8.68,43.48],[-8.75,43.5],[-8.8,43.51],[-8.92,43.5],[-8.97,43.49],[-9.11,43.44],[-9.18,43.38],[-9.21,43.35],[-9.22,43.35],[-9.26,43.34],[-9.33,43.31],[-9.36,43.29],[-9.43,43.23],[-9.47,43.16],[-9.49,43.08],[-9.48,43.02],[-9.46,42.95],[-9.42,42.89],[-9.38,42.85],[-9.37,42.82],[-9.36,42.78],[-9.34,42.74],[-9.32,42.71],[-9.28,42.67],[-9.27,42.62],[-9.27,42.59],[-9.25,42.56],[-9.22,42.53],[-9.19,42.5],[-9.12,42.47],[-9.1,42.46],[-9.07,42.46],[-9.04,42.45],[-8.99,42.49],[-8.81,42.64],[-8.77,42.66],[-8.75,42.68],[-8.74,42.69],[-8.73,42.69],[-8.5,42.76],[-8.38,42.79],[-8.26,42.82],[-8.17,42.84],[-8.11,42.85],[-8,42.85]]]},"properties":{"codigo_iso_3166_2":"ES-C"}},{"type":"Feature","geometry":{"type":"Polygon","coordinates":[[[-7.07,42.5],[-7.04,42.63],[-7.03,42.68],[-7,42.72],[-6.97,42.75],[-6.89,42.8],[-6.86,42.84],[-6.85,42.85],[-6.83,42.91],[-6.9,43.02],[-6.92,43.05],[-6.93,43.09],[-6.92,43.12],[-6.9,43.14],[-6.9,43.17],[-6.91,43.19],[-6.94,43.2],[-6.98,43.22],[-7.02,43.24],[-7.06,43.26],[-7.1,43.3],[-7.12,43.33],[-7.14,43.37],[-7.14,43.4],[-7.12,43.42],[-7.05,43.48],[-7.05,43.49],[-7.04,43.5],[-7.04,43.51],[-7.03,43.61],[-7.02,43.72],[-7.03,43.73],[-7.09,43.74],[-7.1,43.74],[-7.11,43.74],[-7.12,43.75],[-7.2,43.8],[-7.32,43.86],[-7.46,43.9],[-7.58,43.91],[-7.7,43.91],[-7.71,43.91],[-7.71,43.73],[-7.7,43.73],[-7.71,43.7],[-7.75,43.56],[-7.75,43.55],[-7.77,43.49],[-7.8,43.44],[-7.84,43.39],[-7.9,43.32],[-7.93,43.29],[-7.95,43.23],[-7.95,43.15],[-7.93,43.03],[-7.93,42.98],[-7.93,42.94],[-7.94,42.91],[-8,42.85],[-7.97,42.81],[-7.92,42.77],[-7.91,42.74],[-7.9,42.7],[-7.9,42.67],[-7.93,42.58],[-7.89,42.53],[-7.82,42.49],[-7.71,42.44],[-7.65,42.42],[-7.6,42.41],[-7.54,42.41],[-7.45,42.42],[-7.36,42.42],[-7.32,42.42],[-7.28,42.42],[-7.23,42.43],[-7.19,42.44],[-7.07,42.5]]]},"properties":{"codigo_iso_3166_2":"ES-LU"}},{"type":"Feature","geometry":{"type":"Polygon","coordinates":[[[-6.83,42.91],[-6.72,42.91],[-6.66,42.92],[-6.56,42.92],[-6.49,42.94],[-6.44,42.97],[-6.39,43.01],[-6.37,43.03],[-6.31,43.04],[-6.28,43.03],[-6.21,43.02],[-6.14,43.05],[-6.09,43.05],[-6.04,43.05],[-5.99,43.03],[-5.93,43.01],[-5.88,42.99],[-5.83,42.99],[-5.8,43],[-5.74,43.03],[-5.66,43.03],[-5.61,43.03],[-5.55,43.03],[-5.47,43.04],[-5.38,43.05],[-5.28,43.08],[-5.2,43.1],[-5.14,43.12],[-5.1,43.13],[-5.07,43.16],[-5.04,43.18],[-4.97,43.21],[-4.94,43.22],[-4.88,43.22],[-4.83,43.19],[-4.71,43.24],[-4.68,43.26],[-4.67,43.26],[-4.63,43.29],[-4.56,43.34],[-4.51,43.4],[-4.31,43.41],[-4.26,43.41],[-4.27,43.43],[-4.28,43.47],[-4.3,43.5],[-4.33,43.53],[-4.37,43.55],[-4.42,43.57],[-4.46,43.58],[-4.49,43.58],[-4.88,43.63],[-5.01,43.65],[-5.12,43.67],[-5.19,43.69],[-5.25,43.7],[-5.33,43.72],[-5.42,43.73],[-5.51,43.74],[-5.58,43.75],[-5.61,43.75],[-5.62,43.75],[-5.63,43.76],[-5.68,43.78],[-5.72,43.8],[-5.77,43.81],[-5.82,43.82],[-5.91,43.81],[-5.95,43.8],[-6,43.79],[-6.03,43.77],[-6.05,43.76],[-6.09,43.76],[-6.2,43.77],[-6.3,43.77],[-6.49,43.74],[-6.54,43.74],[-6.62,43.75],[-6.71,43.75],[-6.9,43.75],[-7,43.73],[-7.02,43.73],[-7.03,43.73],[-7.02,43.72],[-7.03,43.61],[-7.04,43.51],[-7.04,43.5],[-7.05,43.49],[-7.05,43.48],[-7.12,43.42],[-7.14,43.4],[-7.14,43.37],[-7.12,43.33],[-7.1,43.3],[-7.06,43.26],[-7.02,43.24],[-6.98,43.22],[-6.94,43.2],[-6.91,43.19],[-6.9,43.17],[-6.9,43.14],[-6.92,43.12],[-6.93,43.09],[-6.92,43.05],[-6.9,43.02],[-6.83,42.91]]]},"properties":{"codigo_iso_3166_2":"ES-O"}},{"type":"Feature","geometry":{"type":"Polygon","coordinates":[[[-4.83,43.19],[-4.83,43.14],[-4.81,43.1],[-4.79,43.08],[-4.73,43.02],[-4.56,43.04],[-4.5,43.04],[-4.44,43.03],[-4.38,43.02],[-4.33,42.99],[-4.29,42.97],[-4.26,42.94],[-4.24,42.92],[-4.22,42.87],[-4.17,42.82],[-4.09,42.76],[-3.92,42.79],[-3.87,42.81],[-3.84,42.83],[-3.83,42.86],[-3.83,42.89],[-3.86,42.94],[-3.91,42.97],[-3.91,43],[-3.89,43.03],[-3.84,43.07],[-3.76,43.11],[-3.69,43.14],[-3.63,43.16],[-3.56,43.17],[-3.42,43.14],[-3.43,43.2],[-3.41,43.23],[-3.4,43.24],[-3.38,43.26],[-3.36,43.27],[-3.32,43.29],[-3.15,43.36],[-3.01,43.41],[-2.92,43.43],[-2.94,43.46],[-2.97,43.49],[-3.01,43.51],[-3.06,43.53],[-3.16,43.55],[-3.16,43.56],[-3.25,43.58],[-3.32,43.61],[-3.38,43.64],[-3.47,43.68],[-3.57,43.69],[-3.67,43.69],[-3.76,43.69],[-3.85,43.67],[-3.94,43.66],[-4.13,43.62],[-4.2,43.6],[-4.27,43.59],[-4.33,43.59],[-4.49,43.58],[-4.46,43.58],[-4.42,43.57],[-4.37,43.55],[-4.33,43.53],[-4.3,43.5],[-4.28,43.47],[-4.27,43.43],[-4.26,43.41],[-4.31,43.41],[-4.51,43.4],[-4.56,43.34],[-4.63,43.29],[-4.67,43.26],[-4.68,43.26],[-4.71,43.24],[-4.83,43.19]]]},"properties":{"codigo_iso_3166_2":"ES-S"}},{"type":"Feature","geometry":{"type":"Polygon","coordinates":[[[-2.34,43.5],[-2.53,43.57],[-2.63,43.6],[-2.72,43.62],[-2.82,43.63],[-2.97,43.61],[-3.11,43.58],[-3.16,43.56],[-3.16,43.55],[-3.06,43.53],[-3.01,43.51],[-2.97,43.49],[-2.94,43.46],[-2.92,43.43],[-3.01,43.41],[-3.15,43.36],[-3.32,43.29],[-3.36,43.27],[-3.38,43.26],[-3.4,43.24],[-3.41,43.23],[-3.43,43.2],[-3.42,43.14],[-3.33,43.18],[-3.3,43.19],[-3.23,43.19],[-3.14,43.17],[-3.01,43.16],[-2.97,43.15],[-2.94,43.13],[-2.92,43.11],[-2.91,43.09],[-2.89,43.07],[-2.86,43.05],[-2.82,43.04],[-2.78,43.03],[-2.73,43.03],[-2.68,43.04],[-2.64,43.05],[-2.55,43.09],[-2.51,43.16],[-2.41,43.33],[-2.63,43.41],[-2.62,43.43],[-2.59,43.46],[-2.55,43.48],[-2.5,43.5],[-2.46,43.51],[-2.41,43.51],[-2.38,43.51],[-2.34,43.5]]]},"properties":{"codigo_iso_3166_2":"ES-BI"}},{"type":"Feature","geometry":{"type":"MultiPolygon","coordinates":[[[[-18.04,27.99],[-18.09,27.97],[-18.16,27.92],[-18.2,27.87],[-18.22,27.85],[-18.24,27.79],[-18.24,27.75],[-18.23,27.69],[-18.23,27.66],[-18.2,27.6],[-18.18,27.58],[-18.16,27.55],[-18.11,27.52],[-18.08,27.51],[-18.04,27.5],[-18.01,27.49],[-17.97,27.49],[-17.91,27.51],[-17.88,27.52],[-17.85,27.54],[-17.78,27.6],[-17.72,27.7],[-17.71,27.73],[-17.7,27.81],[-17.7,27.84],[-17.71,27.88],[-17.72,27.91],[-17.75,27.95],[-17.78,27.97],[-17.85,28],[-17.89,28.01],[-17.93,28.02],[-17.97,28.01],[-18.04,27.99]]],[[[-17.5,28.26],[-17.51,28.23],[-17.53,28.16],[-17.53,28.11],[-17.53,28.08],[-17.5,28],[-17.45,27.95],[-17.4,27.91],[-17.37,27.9],[-17.32,27.87],[-17.28,27.86],[-17.21,27.86],[-17.18,27.86],[-17.09,27.89],[-17.03,27.92],[-17.01,27.94],[-16.97,27.99],[-16.95,28.02],[-16.94,28.02],[-16.9,27.97],[-16.84,27.91],[-16.79,27.87],[-16.76,27.86],[-16.71,27.84],[-16.69,27.84],[-16.64,27.83],[-16.54,27.84],[-16.47,27.87],[-16.41,27.9],[-16.36,27.95],[-16.31,28],[-16.27,28.06],[-16.24,28.12],[-16.21,28.19],[-16.19,28.24],[-16.18,28.27],[-16.17,28.29],[-16.16,28.3],[-16.12,28.33],[-16.09,28.37],[-16.07,28.4],[-16.05,28.45],[-16.05,28.49],[-16.06,28.56],[-16.07,28.59],[-16.11,28.65],[-16.14,28.68],[-16.18,28.7],[-16.25,28.72],[-16.29,28.72],[-16.32,28.72],[-16.42,28.7],[-16.5,28.66],[-16.55,28.63],[-16.59,28.61],[-16.64,28.59],[-16.71,28.57],[-16.82,28.55],[-16.93,28.52],[-17,28.47],[-17.03,28.45],[-17.06,28.42],[-17.09,28.35],[-17.09,28.34],[-17.1,28.35],[-17.14,28.37],[-17.24,28.39],[-17.28,28.39],[-17.31,28.39],[-17.35,28.38],[-17.42,28.34],[-17.45,28.32],[-17.47,28.3],[-17.5,28.26]]],[[[-17.68,28.97],[-17.73,29],[-17.82,29.02],[-17.88,29.03],[-17.92,29.02],[-17.98,29.01],[-18.01,28.99],[-18.09,28.94],[-18.13,28.9],[-18.16,28.86],[-18.18,28.78],[-18.18,28.75],[-18.16,28.66],[-18.12,28.57],[-18.06,28.47],[-18.01,28.41],[-17.98,28.39],[-17.95,28.37],[-17.91,28.36],[-17.84,28.35],[-17.8,28.35],[-17.76,28.36],[-17.72,28.37],[-17.69,28.39],[-17.63,28.45],[-17.61,28.47],[-17.57,28.58],[-17.54,28.65],[-17.53,28.72],[-17.53,28.77],[-17.53,28.8],[-17.54,28.82],[-17.58,28.89],[-17.6,28.92],[-17.63,28.94],[-17.68,28.97]]]]},"properties":{"codigo_iso_3166_2":"ES-TF"}},{"type":"Feature","geometry":{"type":"MultiPolygon","coordinates":[[[[-15.29,27.7],[-15.25,27.73],[-15.2,27.81],[-15.18,27.9],[-15.19,28.02],[-15.2,28.11],[-15.21,28.14],[-15.22,28.17],[-15.24,28.2],[-15.28,28.24],[-15.31,28.27],[-15.4,28.31],[-15.49,28.33],[-15.59,28.34],[-15.69,28.34],[-15.75,28.32],[-15.8,28.3],[-15.86,28.26],[-15.88,28.23],[-15.9,28.2],[-15.92,28.16],[-15.94,28.14],[-15.97,28.1],[-15.99,28.07],[-16.01,28],[-16.01,27.93],[-16,27.85],[-15.96,27.77],[-15.9,27.7],[-15.83,27.65],[-15.74,27.6],[-15.66,27.59],[-15.63,27.58],[-15.55,27.58],[-15.52,27.58],[-15.41,27.61],[-15.32,27.67],[-15.29,27.7]]],[[[-13.74,28.22],[-13.71,28.26],[-13.68,28.34],[-13.65,28.42],[-13.64,28.51],[-13.64,28.61],[-13.65,28.7],[-13.65,28.71],[-13.58,28.76],[-13.57,28.76],[-13.45,28.81],[-13.39,28.86],[-13.37,28.88],[-13.32,28.95],[-13.3,28.97],[-13.27,29.07],[-13.28,29.19],[-13.28,29.23],[-13.3,29.27],[-13.34,29.32],[-13.37,29.34],[-13.4,29.36],[-13.44,29.38],[-13.48,29.39],[-13.52,29.38],[-13.56,29.38],[-13.6,29.36],[-13.63,29.34],[-13.66,29.32],[-13.67,29.3],[-13.7,29.29],[-13.81,29.25],[-13.89,29.2],[-13.92,29.18],[-14,29.09],[-14.04,29],[-14.05,28.96],[-14.05,28.95],[-14.05,28.92],[-14.05,28.88],[-14.1,28.85],[-14.12,28.84],[-14.18,28.77],[-14.22,28.69],[-14.29,28.57],[-14.32,28.5],[-14.35,28.44],[-14.37,28.37],[-14.39,28.27],[-14.39,28.2],[-14.38,28.16],[-14.36,28.13],[-14.32,28.07],[-14.29,28.05],[-14.26,28.03],[-14.22,28.02],[-14.14,28.01],[-14.1,28.01],[-13.98,28.04],[-13.9,28.07],[-13.82,28.12],[-13.76,28.19],[-13.74,28.22]]]]},"properties":{"codigo_iso_3166_2":"ES-GC"}},{"type":"Feature","geometry":{"type":"MultiPolygon","coordinates":[[[[1.79,39.19],[1.77,39.2],[1.74,39.23],[1.7,39.26],[1.61,39.28],[1.56,39.29],[1.43,39.28],[1.34,39.26],[1.25,39.22],[1.18,39.18],[1.12,39.12],[1.06,39.05],[1.03,39],[1.02,38.97],[1.01,38.92],[1.02,38.88],[1.03,38.84],[1.06,38.79],[1.09,38.76],[1.13,38.74],[1.23,38.7],[1.33,38.69],[1.42,38.7],[1.5,38.72],[1.57,38.75],[1.67,38.81],[1.77,38.88],[1.81,38.94],[1.83,38.98],[1.84,39.06],[1.84,39.1],[1.83,39.13],[1.79,39.19]]],[[[3.51,39.38],[3.54,39.41],[3.62,39.53],[3.68,39.65],[3.68,39.7],[3.68,39.73],[3.67,39.78],[3.65,39.82],[3.6,39.87],[3.57,39.89],[3.54,39.91],[3.45,39.94],[3.4,39.95],[3.35,39.95],[3.35,39.96],[3.32,40],[3.29,40.03],[3.23,40.07],[3.18,40.09],[3.06,40.1],[2.97,40.09],[2.89,40.08],[2.81,40.06],[2.73,40.03],[2.6,39.97],[2.5,39.91],[2.43,39.86],[2.36,39.82],[2.3,39.79],[2.24,39.75],[2.2,39.71],[2.17,39.69],[2.15,39.64],[2.14,39.6],[2.14,39.56],[2.16,39.49],[2.18,39.45],[2.26,39.37],[2.31,39.35],[2.35,39.33],[2.43,39.31],[2.47,39.31],[2.58,39.32],[2.59,39.3],[2.67,39.25],[2.76,39.22],[2.81,39.21],[2.83,39.2],[2.86,39.17],[2.89,39.16],[2.95,39.13],[3,39.12],[3.08,39.11],[3.13,39.12],[3.23,39.15],[3.31,39.19],[3.37,39.24],[3.43,39.29],[3.49,39.35],[3.51,39.38]]],[[[4.13,40.24],[4.08,40.24],[3.99,40.24],[3.89,40.23],[3.81,40.22],[3.77,40.21],[3.71,40.17],[3.67,40.15],[3.64,40.11],[3.61,40.05],[3.6,40.02],[3.61,39.98],[3.64,39.9],[3.67,39.86],[3.7,39.83],[3.75,39.8],[3.79,39.78],[3.86,39.76],[3.89,39.75],[3.94,39.75],[3.96,39.74],[3.99,39.73],[4.06,39.7],[4.13,39.68],[4.17,39.67],[4.25,39.67],[4.29,39.67],[4.34,39.68],[4.41,39.72],[4.45,39.74],[4.48,39.78],[4.51,39.87],[4.52,39.9],[4.51,39.98],[4.5,40.02],[4.43,40.11],[4.38,40.15],[4.27,40.21],[4.17,40.23],[4.13,40.24]]]]},"properties":{"codigo_iso_3166_2":"ES-PM"}},{"type":"Feature","geometry":{"type":"Polygon","coordinates":[[[-1.85,42],[-1.86,41.95],[-1.83,41.78],[-1.83,41.72],[-1.85,41.67],[-1.88,41.64],[-1.92,41.63],[-1.95,41.6],[-1.97,41.57],[-1.97,41.53],[-1.96,41.49],[-1.97,41.46],[-1.98,41.44],[-2.01,41.43],[-2.08,41.43],[-2.13,41.41],[-2.16,41.36],[-2.16,41.29],[-2.15,41.22],[-2.11,41.18],[-2.05,41.15],[-1.98,41.16],[-1.94,41.15],[-1.89,41.12],[-1.82,41.08],[-1.62,40.95],[-1.52,40.95],[-1.49,40.96],[-1.46,40.97],[-1.43,41],[-1.42,41.03],[-1.38,41.05],[-1.34,41.08],[-1.28,41.1],[-1.2,41.13],[-1.14,41.14],[-1.08,41.14],[-1.03,41.13],[-1,41.11],[-0.95,41.1],[-0.9,41.09],[-0.85,41.09],[-0.78,41.1],[-0.73,41.11],[-0.69,41.12],[-0.66,41.14],[-0.64,41.16],[-0.62,41.21],[-0.62,41.27],[-0.62,41.29],[-0.6,41.31],[-0.58,41.33],[-0.51,41.34],[-0.46,41.32],[-0.44,41.3],[-0.39,41.27],[-0.32,41.24],[-0.23,41.2],[-0.11,41.15],[-0.01,41.11],[0.07,41.09],[0.13,41.08],[0.22,41.07],[0.21,41.1],[0.24,41.14],[0.27,41.16],[0.36,41.23],[0.34,41.41],[0.28,41.42],[0.22,41.41],[0.16,41.38],[0.12,41.37],[0.08,41.36],[0.04,41.36],[0,41.36],[-0.04,41.38],[-0.08,41.41],[-0.11,41.45],[-0.13,41.5],[-0.16,41.54],[-0.18,41.57],[-0.2,41.58],[-0.26,41.59],[-0.35,41.64],[-0.4,41.68],[-0.45,41.72],[-0.48,41.75],[-0.5,41.78],[-0.52,41.83],[-0.55,41.86],[-0.61,41.92],[-0.69,41.96],[-0.78,41.99],[-0.81,42],[-0.82,42.02],[-0.81,42.04],[-0.79,42.06],[-0.77,42.09],[-0.76,42.12],[-0.75,42.16],[-0.76,42.2],[-0.77,42.23],[-0.79,42.25],[-0.82,42.26],[-0.86,42.27],[-0.89,42.27],[-0.89,42.31],[-0.87,42.33],[-0.86,42.38],[-0.88,42.41],[-0.89,42.44],[-0.9,42.48],[-0.9,42.55],[-0.9,42.58],[-0.9,42.74],[-1.06,42.68],[-1.11,42.64],[-1.17,42.6],[-1.22,42.55],[-1.27,42.5],[-1.31,42.44],[-1.34,42.39],[-1.37,42.34],[-1.39,42.29],[-1.4,42.24],[-1.4,42.2],[-1.38,42.15],[-1.36,42.11],[-1.34,42.07],[-1.34,42.03],[-1.36,41.99],[-1.38,41.96],[-1.41,41.93],[-1.44,41.92],[-1.47,41.91],[-1.55,41.92],[-1.67,41.94],[-1.85,42]]]},"properties":{"codigo_iso_3166_2":"ES-Z"}},{"type":"Feature","geometry":{"type":"Polygon","coordinates":[[[-2.41,42.5],[-2.54,42.51],[-2.59,42.52],[-2.65,42.53],[-2.7,42.56],[-2.84,42.64],[-2.95,42.64],[-2.98,42.63],[-3.05,42.61],[-3.09,42.56],[-3.09,42.51],[-3.07,42.49],[-3.06,42.44],[-3.07,42.41],[-3.1,42.36],[-3.11,42.29],[-3.12,42.26],[-3.1,42.22],[-3.08,42.18],[-3.04,42.13],[-2.91,42.02],[-2.85,42.03],[-2.77,42.03],[-2.66,42.02],[-2.61,42.01],[-2.57,42.02],[-2.55,42.04],[-2.53,42.07],[-2.51,42.09],[-2.47,42.11],[-2.43,42.12],[-2.33,42.13],[-2.28,42.13],[-2.2,42.12],[-2.17,42.1],[-2.14,42.08],[-2.13,42.05],[-2.12,42.01],[-2.1,41.98],[-2.08,41.96],[-2.04,41.95],[-1.95,41.94],[-1.9,41.94],[-1.86,41.95],[-1.85,42],[-1.88,42.05],[-1.88,42.07],[-1.86,42.1],[-1.82,42.13],[-1.77,42.17],[-1.75,42.2],[-1.74,42.22],[-1.76,42.24],[-1.84,42.28],[-1.94,42.34],[-2,42.38],[-2.06,42.41],[-2.13,42.44],[-2.2,42.46],[-2.41,42.5]]]},"properties":{"codigo_iso_3166_2":"ES-LO"}},{"type":"Feature","geometry":{"type":"Polygon","coordinates":[[[-2.25,42.9],[-2.31,42.93],[-2.38,42.95],[-2.48,42.96],[-2.52,42.97],[-2.54,42.98],[-2.56,43.01],[-2.55,43.09],[-2.64,43.05],[-2.68,43.04],[-2.73,43.03],[-2.78,43.03],[-2.82,43.04],[-2.86,43.05],[-2.89,43.07],[-2.91,43.09],[-2.92,43.11],[-2.94,43.13],[-2.97,43.15],[-3.01,43.16],[-3.14,43.17],[-3.16,43.08],[-3.15,43.06],[-3.13,43.04],[-3.1,43.02],[-3.06,43.02],[-3.03,43.01],[-3.02,42.99],[-3.02,42.97],[-3.07,42.93],[-3.12,42.93],[-3.17,42.94],[-3.22,42.93],[-3.25,42.91],[-3.25,42.9],[-3.23,42.88],[-3.2,42.85],[-3.09,42.8],[-2.98,42.73],[-2.84,42.64],[-2.7,42.56],[-2.65,42.53],[-2.59,42.52],[-2.54,42.51],[-2.41,42.5],[-2.41,42.6],[-2.4,42.63],[-2.39,42.65],[-2.37,42.66],[-2.33,42.66],[-2.31,42.68],[-2.29,42.71],[-2.28,42.75],[-2.25,42.9]],[[-2.63,42.73],[-2.63,42.7],[-2.64,42.68],[-2.66,42.67],[-2.7,42.67],[-2.74,42.68],[-2.8,42.71],[-2.82,42.76],[-2.78,42.78],[-2.75,42.78],[-2.7,42.78],[-2.67,42.77],[-2.64,42.75],[-2.63,42.73]]]},"properties":{"codigo_iso_3166_2":"ES-VI"}},{"type":"Feature","geometry":{"type":"Polygon","coordinates":[[[-1.5,39.42],[-1.65,39.36],[-1.71,39.34],[-1.78,39.32],[-1.86,39.3],[-1.93,39.29],[-2.05,39.28],[-2.16,39.28],[-2.2,39.27],[-2.29,39.25],[-2.34,39.25],[-2.38,39.25],[-2.42,39.27],[-2.46,39.3],[-2.5,39.32],[-2.54,39.33],[-2.6,39.33],[-2.74,39.32],[-2.73,39.29],[-2.74,39.25],[-2.79,39.18],[-2.82,39.15],[-2.83,39.1],[-2.82,39.06],[-2.84,39.01],[-2.85,38.99],[-2.86,38.96],[-2.85,38.94],[-2.83,38.92],[-2.78,38.88],[-2.75,38.85],[-2.69,38.77],[-2.68,38.73],[-2.68,38.69],[-2.69,38.64],[-2.76,38.53],[-2.64,38.51],[-2.6,38.5],[-2.57,38.48],[-2.54,38.46],[-2.5,38.41],[-2.47,38.32],[-2.46,38.27],[-2.46,38.22],[-2.46,38.18],[-2.48,38.15],[-2.55,38.08],[-2.34,38.03],[-2.26,38.14],[-2.19,38.21],[-2.12,38.26],[-2.04,38.29],[-1.95,38.3],[-1.87,38.32],[-1.8,38.35],[-1.77,38.36],[-1.74,38.36],[-1.7,38.35],[-1.67,38.34],[-1.64,38.33],[-1.61,38.33],[-1.57,38.34],[-1.54,38.37],[-1.51,38.39],[-1.5,38.4],[-1.49,38.42],[-1.49,38.45],[-1.49,38.48],[-1.49,38.55],[-1.46,38.61],[-1.43,38.64],[-1.39,38.67],[-1.33,38.69],[-1.27,38.72],[-1.21,38.73],[-1.16,38.73],[-1.11,38.71],[-1.02,38.65],[-0.94,38.67],[-0.92,38.69],[-0.91,38.73],[-0.93,38.79],[-0.95,38.88],[-0.96,38.91],[-0.99,38.93],[-1.02,38.94],[-1.06,38.93],[-1.1,38.94],[-1.14,38.96],[-1.17,38.98],[-1.21,39.02],[-1.23,39.05],[-1.24,39.09],[-1.23,39.13],[-1.21,39.16],[-1.18,39.23],[-1.18,39.27],[-1.21,39.3],[-1.24,39.32],[-1.32,39.34],[-1.4,39.37],[-1.5,39.42]]]},"properties":{"codigo_iso_3166_2":"ES-AB"}},{"type":"Feature","geometry":{"type":"Polygon","coordinates":[[[0.22,41.07],[0.13,41.08],[0.07,41.09],[-0.01,41.11],[-0.11,41.15],[-0.23,41.2],[-0.32,41.24],[-0.39,41.27],[-0.44,41.3],[-0.46,41.32],[-0.51,41.34],[-0.58,41.33],[-0.6,41.31],[-0.62,41.29],[-0.62,41.27],[-0.62,41.21],[-0.64,41.16],[-0.66,41.14],[-0.69,41.12],[-0.73,41.11],[-0.78,41.1],[-0.85,41.09],[-0.9,41.09],[-0.95,41.1],[-1,41.11],[-1.03,41.13],[-1.08,41.14],[-1.14,41.14],[-1.2,41.13],[-1.28,41.1],[-1.34,41.08],[-1.38,41.05],[-1.42,41.03],[-1.43,41],[-1.46,40.97],[-1.49,40.96],[-1.52,40.95],[-1.62,40.95],[-1.57,40.87],[-1.54,40.8],[-1.54,40.76],[-1.54,40.68],[-1.55,40.65],[-1.57,40.6],[-1.63,40.54],[-1.67,40.51],[-1.81,40.4],[-1.65,40.28],[-1.6,40.24],[-1.52,40.19],[-1.45,40.15],[-1.26,40.13],[-1.21,40.11],[-1.17,40.09],[-1.15,40.07],[-1.16,40.01],[-1.15,39.97],[-1.06,39.98],[-1.02,39.97],[-0.97,39.96],[-0.92,39.94],[-0.79,39.88],[-0.82,39.92],[-0.82,39.96],[-0.81,39.98],[-0.77,40.02],[-0.7,40.05],[-0.67,40.06],[-0.63,40.07],[-0.6,40.1],[-0.58,40.13],[-0.54,40.21],[-0.5,40.24],[-0.45,40.25],[-0.38,40.3],[-0.35,40.33],[-0.32,40.38],[-0.3,40.42],[-0.29,40.47],[-0.29,40.53],[-0.28,40.58],[-0.27,40.63],[-0.24,40.67],[-0.22,40.72],[-0.19,40.74],[-0.16,40.76],[-0.13,40.76],[-0.07,40.74],[0.02,40.73],[0.17,40.73],[0.23,40.79],[0.27,40.85],[0.28,40.89],[0.28,40.96],[0.26,41.01],[0.22,41.07]]]},"properties":{"codigo_iso_3166_2":"ES-TE"}},{"type":"Feature","geometry":{"type":"Polygon","coordinates":[[[-1.15,39.97],[-1.16,40.01],[-1.29,40.02],[-1.34,40.03],[-1.37,40.04],[-1.4,40.07],[-1.45,40.15],[-1.52,40.19],[-1.6,40.24],[-1.65,40.28],[-1.81,40.4],[-1.88,40.52],[-1.92,40.56],[-1.97,40.59],[-2.02,40.62],[-2.07,40.63],[-2.15,40.63],[-2.23,40.62],[-2.34,40.58],[-2.45,40.53],[-2.55,40.49],[-2.63,40.46],[-2.7,40.44],[-2.74,40.42],[-2.78,40.41],[-2.8,40.38],[-2.81,40.34],[-2.82,40.28],[-2.82,40.24],[-2.84,40.21],[-2.85,40.19],[-2.9,40.17],[-2.97,40.16],[-3.07,40.16],[-3.16,40.07],[-3.06,39.85],[-3.02,39.78],[-2.99,39.73],[-2.97,39.69],[-2.94,39.67],[-2.93,39.64],[-2.92,39.61],[-2.92,39.58],[-2.93,39.47],[-2.74,39.32],[-2.6,39.33],[-2.54,39.33],[-2.5,39.32],[-2.46,39.3],[-2.42,39.27],[-2.38,39.25],[-2.34,39.25],[-2.29,39.25],[-2.2,39.27],[-2.16,39.28],[-2.05,39.28],[-1.93,39.29],[-1.86,39.3],[-1.78,39.32],[-1.71,39.34],[-1.65,39.36],[-1.5,39.42],[-1.49,39.51],[-1.48,39.55],[-1.47,39.58],[-1.44,39.61],[-1.41,39.64],[-1.36,39.67],[-1.32,39.67],[-1.3,39.69],[-1.27,39.73],[-1.24,39.78],[-1.15,39.97]]]},"properties":{"codigo_iso_3166_2":"ES-CU"}},{"type":"Feature","geometry":{"type":"Polygon","coordinates":[[[-4.69,39.45],[-4.58,39.51],[-4.53,39.53],[-4.47,39.53],[-4.41,39.52],[-4.34,39.51],[-4.29,39.5],[-4.24,39.5],[-4.21,39.52],[-4.17,39.56],[-4.11,39.58],[-4.08,39.58],[-4.07,39.57],[-4.07,39.54],[-4.08,39.5],[-4.1,39.44],[-4.11,39.4],[-4.1,39.37],[-4.08,39.36],[-4.03,39.35],[-3.96,39.33],[-3.92,39.32],[-3.86,39.28],[-3.82,39.27],[-3.78,39.28],[-3.74,39.29],[-3.64,39.3],[-3.58,39.31],[-3.52,39.33],[-3.46,39.36],[-3.39,39.41],[-3.33,39.44],[-3.28,39.47],[-3.23,39.48],[-3.16,39.49],[-3.11,39.48],[-3.07,39.46],[-3.02,39.46],[-2.93,39.47],[-2.92,39.58],[-2.92,39.61],[-2.93,39.64],[-2.94,39.67],[-2.97,39.69],[-2.99,39.73],[-3.02,39.78],[-3.06,39.85],[-3.16,40.07],[-3.37,40.06],[-3.44,40.06],[-3.5,40.06],[-3.54,40.07],[-3.57,40.09],[-3.72,40.14],[-3.96,40.22],[-4.07,40.24],[-4.16,40.26],[-4.22,40.26],[-4.29,40.23],[-4.4,40.22],[-4.57,40.21],[-4.73,40.22],[-4.78,40.22],[-4.84,40.21],[-4.88,40.19],[-4.97,40.13],[-5.05,40.1],[-5.12,40.1],[-5.21,40.1],[-5.33,40.12],[-5.37,39.99],[-5.36,39.95],[-5.34,39.91],[-5.31,39.87],[-5.21,39.81],[-5.16,39.76],[-5.15,39.73],[-5.16,39.67],[-5.18,39.65],[-5.17,39.61],[-5.15,39.57],[-5.1,39.52],[-4.94,39.39],[-4.89,39.5],[-4.87,39.53],[-4.85,39.54],[-4.83,39.55],[-4.79,39.52],[-4.76,39.48],[-4.75,39.42],[-4.69,39.45]]]},"properties":{"codigo_iso_3166_2":"ES-TO"}},{"type":"Feature","geometry":{"type":"Polygon","coordinates":[[[-6.78,42.25],[-6.6,42.21],[-6.53,42.2],[-6.47,42.19],[-6.42,42.19],[-6.34,42.2],[-6.27,42.19],[-6.21,42.16],[-6.11,42.14],[-5.98,42.13],[-5.84,42.13],[-5.69,42.13],[-5.59,42.12],[-5.54,42.1],[-5.48,42.07],[-5.44,42.04],[-5.4,42.03],[-5.38,42.04],[-5.39,42.14],[-5.38,42.17],[-5.37,42.19],[-5.34,42.21],[-5.28,42.22],[-5.2,42.25],[-5.12,42.29],[-5.06,42.3],[-5,42.29],[-4.94,42.35],[-4.92,42.38],[-4.91,42.43],[-4.9,42.5],[-4.89,42.58],[-4.89,42.71],[-4.89,42.79],[-4.89,42.83],[-4.87,42.87],[-4.84,42.91],[-4.73,43.02],[-4.79,43.08],[-4.81,43.1],[-4.83,43.14],[-4.83,43.19],[-4.88,43.22],[-4.94,43.22],[-4.97,43.21],[-5.04,43.18],[-5.07,43.16],[-5.1,43.13],[-5.14,43.12],[-5.2,43.1],[-5.28,43.08],[-5.38,43.05],[-5.47,43.04],[-5.55,43.03],[-5.61,43.03],[-5.66,43.03],[-5.74,43.03],[-5.8,43],[-5.83,42.99],[-5.88,42.99],[-5.93,43.01],[-5.99,43.03],[-6.04,43.05],[-6.09,43.05],[-6.14,43.05],[-6.21,43.02],[-6.28,43.03],[-6.31,43.04],[-6.37,43.03],[-6.39,43.01],[-6.44,42.97],[-6.49,42.94],[-6.56,42.92],[-6.66,42.92],[-6.72,42.91],[-6.83,42.91],[-6.85,42.85],[-6.86,42.84],[-6.89,42.8],[-6.97,42.75],[-7,42.72],[-7.03,42.68],[-7.04,42.63],[-7.07,42.5],[-6.91,42.49],[-6.9,42.49],[-6.86,42.48],[-6.82,42.47],[-6.8,42.44],[-6.77,42.38],[-6.77,42.32],[-6.78,42.25]]]},"properties":{"codigo_iso_3166_2":"ES-LE"}},{"type":"Feature","geometry":{"type":"Polygon","coordinates":[[[-1.86,41.95],[-1.9,41.94],[-1.95,41.94],[-2.04,41.95],[-2.08,41.96],[-2.1,41.98],[-2.12,42.01],[-2.13,42.05],[-2.14,42.08],[-2.17,42.1],[-2.2,42.12],[-2.28,42.13],[-2.33,42.13],[-2.43,42.12],[-2.47,42.11],[-2.51,42.09],[-2.53,42.07],[-2.55,42.04],[-2.57,42.02],[-2.61,42.01],[-2.66,42.02],[-2.77,42.03],[-2.85,42.03],[-2.91,42.02],[-2.98,41.94],[-3.04,41.88],[-3.11,41.83],[-3.15,41.81],[-3.24,41.77],[-3.28,41.76],[-3.32,41.74],[-3.36,41.72],[-3.39,41.68],[-3.44,41.62],[-3.49,41.59],[-3.54,41.58],[-3.41,41.5],[-3.38,41.47],[-3.34,41.42],[-3.32,41.39],[-3.28,41.35],[-3.2,41.3],[-3.06,41.29],[-2.92,41.28],[-2.74,41.25],[-2.66,41.22],[-2.59,41.2],[-2.54,41.17],[-2.51,41.14],[-2.48,41.11],[-2.44,41.09],[-2.4,41.08],[-2.36,41.08],[-2.31,41.08],[-2.26,41.09],[-2.2,41.1],[-2.05,41.15],[-2.11,41.18],[-2.15,41.22],[-2.16,41.29],[-2.16,41.36],[-2.13,41.41],[-2.08,41.43],[-2.01,41.43],[-1.98,41.44],[-1.97,41.46],[-1.96,41.49],[-1.97,41.53],[-1.97,41.57],[-1.95,41.6],[-1.92,41.63],[-1.88,41.64],[-1.85,41.67],[-1.83,41.72],[-1.83,41.78],[-1.86,41.95]]]},"properties":{"codigo_iso_3166_2":"ES-SO"}},{"type":"Feature","geometry":{"type":"MultiPolygon","coordinates":[[[[-4.09,42.76],[-4.21,42.71],[-4.25,42.69],[-4.28,42.66],[-4.29,42.64],[-4.29,42.58],[-4.28,42.53],[-4.26,42.5],[-4.25,42.45],[-4.27,42.39],[-4.26,42.32],[-4.25,42.29],[-4.24,42.25],[-4.21,42.2],[-4.18,42.16],[-4.14,42.11],[-4.1,42.08],[-4.07,42.05],[-4.04,42.04],[-4.01,42.03],[-3.97,42.01],[-3.93,41.97],[-3.93,41.95],[-3.95,41.93],[-3.98,41.91],[-4.02,41.9],[-4.05,41.88],[-4.07,41.86],[-4.07,41.83],[-4.04,41.77],[-3.98,41.58],[-3.85,41.51],[-3.8,41.49],[-3.76,41.49],[-3.73,41.5],[-3.68,41.54],[-3.62,41.57],[-3.54,41.58],[-3.49,41.59],[-3.44,41.62],[-3.39,41.68],[-3.36,41.72],[-3.32,41.74],[-3.28,41.76],[-3.24,41.77],[-3.15,41.81],[-3.11,41.83],[-3.04,41.88],[-2.98,41.94],[-2.91,42.02],[-3.04,42.13],[-3.08,42.18],[-3.1,42.22],[-3.12,42.26],[-3.11,42.29],[-3.1,42.36],[-3.07,42.41],[-3.06,42.44],[-3.07,42.49],[-3.09,42.51],[-3.09,42.56],[-3.05,42.61],[-2.98,42.63],[-2.95,42.64],[-2.84,42.64],[-2.98,42.73],[-3.09,42.8],[-3.2,42.85],[-3.23,42.88],[-3.25,42.9],[-3.25,42.91],[-3.22,42.93],[-3.17,42.94],[-3.12,42.93],[-3.07,42.93],[-3.02,42.97],[-3.02,42.99],[-3.03,43.01],[-3.06,43.02],[-3.1,43.02],[-3.13,43.04],[-3.15,43.06],[-3.16,43.08],[-3.14,43.17],[-3.23,43.19],[-3.3,43.19],[-3.33,43.18],[-3.42,43.14],[-3.56,43.17],[-3.63,43.16],[-3.69,43.14],[-3.76,43.11],[-3.84,43.07],[-3.89,43.03],[-3.91,43],[-3.91,42.97],[-3.86,42.94],[-3.83,42.89],[-3.83,42.86],[-3.84,42.83],[-3.87,42.81],[-3.92,42.79],[-4.09,42.76]]],[[[-2.63,42.73],[-2.64,42.75],[-2.67,42.77],[-2.7,42.78],[-2.75,42.78],[-2.78,42.78],[-2.82,42.76],[-2.8,42.71],[-2.74,42.68],[-2.7,42.67],[-2.66,42.67],[-2.64,42.68],[-2.63,42.7],[-2.63,42.73]]]]},"properties":{"codigo_iso_3166_2":"ES-BU"}},{"type":"Feature","geometry":{"type":"Polygon","coordinates":[[[-5.33,40.12],[-5.21,40.1],[-5.12,40.1],[-5.05,40.1],[-4.97,40.13],[-4.88,40.19],[-4.84,40.21],[-4.78,40.22],[-4.73,40.22],[-4.57,40.21],[-4.47,40.34],[-4.43,40.37],[-4.4,40.4],[-4.38,40.41],[-4.34,40.42],[-4.32,40.46],[-4.32,40.49],[-4.31,40.52],[-4.29,40.55],[-4.26,40.57],[-4.2,40.62],[-4.17,40.65],[-4.16,40.69],[-4.26,40.69],[-4.29,40.68],[-4.32,40.66],[-4.38,40.64],[-4.41,40.66],[-4.44,40.69],[-4.47,40.75],[-4.51,40.83],[-4.54,40.9],[-4.58,40.96],[-4.62,41],[-4.68,41.07],[-4.71,41.11],[-4.7,41.15],[-4.82,41.13],[-4.86,41.12],[-4.92,41.13],[-4.96,41.15],[-5.03,41.15],[-5.13,41.13],[-5.11,41.05],[-5.11,40.97],[-5.14,40.89],[-5.16,40.84],[-5.19,40.8],[-5.23,40.76],[-5.28,40.73],[-5.33,40.69],[-5.37,40.64],[-5.4,40.6],[-5.42,40.55],[-5.46,40.51],[-5.5,40.48],[-5.55,40.46],[-5.6,40.44],[-5.65,40.42],[-5.68,40.4],[-5.7,40.37],[-5.73,40.29],[-5.65,40.25],[-5.59,40.22],[-5.52,40.21],[-5.47,40.21],[-5.41,40.23],[-5.37,40.22],[-5.35,40.2],[-5.33,40.12]]]},"properties":{"codigo_iso_3166_2":"ES-AV"}},{"type":"Feature","geometry":{"type":"Polygon","coordinates":[[[-4.73,43.02],[-4.84,42.91],[-4.87,42.87],[-4.89,42.83],[-4.89,42.79],[-4.89,42.71],[-4.89,42.58],[-4.9,42.5],[-4.91,42.43],[-4.92,42.38],[-4.94,42.35],[-5,42.29],[-5.02,42.2],[-5.01,42.16],[-4.97,42.15],[-4.94,42.13],[-4.94,42.07],[-4.93,42.03],[-4.91,41.99],[-4.88,41.95],[-4.85,41.9],[-4.81,41.86],[-4.78,41.85],[-4.75,41.85],[-4.72,41.87],[-4.69,41.88],[-4.65,41.87],[-4.61,41.86],[-4.56,41.83],[-4.51,41.8],[-4.45,41.79],[-4.4,41.79],[-4.27,41.79],[-4.16,41.79],[-4.04,41.77],[-4.07,41.83],[-4.07,41.86],[-4.05,41.88],[-4.02,41.9],[-3.98,41.91],[-3.95,41.93],[-3.93,41.95],[-3.93,41.97],[-3.97,42.01],[-4.01,42.03],[-4.04,42.04],[-4.07,42.05],[-4.1,42.08],[-4.14,42.11],[-4.18,42.16],[-4.21,42.2],[-4.24,42.25],[-4.25,42.29],[-4.26,42.32],[-4.27,42.39],[-4.25,42.45],[-4.26,42.5],[-4.28,42.53],[-4.29,42.58],[-4.29,42.64],[-4.28,42.66],[-4.25,42.69],[-4.21,42.71],[-4.09,42.76],[-4.17,42.82],[-4.22,42.87],[-4.24,42.92],[-4.26,42.94],[-4.29,42.97],[-4.33,42.99],[-4.38,43.02],[-4.44,43.03],[-4.5,43.04],[-4.56,43.04],[-4.73,43.02]]]},"properties":{"codigo_iso_3166_2":"ES-P"}},{"type":"Feature","geometry":{"type":"MultiPolygon","coordinates":[[[[-4.75,39.42],[-4.76,39.48],[-4.79,39.52],[-4.83,39.55],[-4.85,39.54],[-4.87,39.53],[-4.89,39.5],[-4.94,39.39],[-4.75,39.42]]],[[[-5.04,38.73],[-4.94,38.71],[-4.88,38.68],[-4.81,38.64],[-4.72,38.58],[-4.61,38.51],[-4.52,38.45],[-4.44,38.41],[-4.39,38.38],[-4.28,38.35],[-4.27,38.38],[-4.24,38.39],[-4.19,38.39],[-4.12,38.39],[-4.03,38.39],[-3.95,38.39],[-3.89,38.39],[-3.85,38.4],[-3.83,38.41],[-3.79,38.42],[-3.73,38.42],[-3.66,38.42],[-3.58,38.42],[-3.51,38.42],[-3.45,38.42],[-3.42,38.43],[-3.39,38.45],[-3.36,38.46],[-3.3,38.46],[-3.23,38.46],[-3.14,38.45],[-3.06,38.44],[-2.98,38.45],[-2.92,38.47],[-2.76,38.53],[-2.69,38.64],[-2.68,38.69],[-2.68,38.73],[-2.69,38.77],[-2.75,38.85],[-2.78,38.88],[-2.83,38.92],[-2.85,38.94],[-2.86,38.96],[-2.85,38.99],[-2.84,39.01],[-2.82,39.06],[-2.83,39.1],[-2.82,39.15],[-2.79,39.18],[-2.74,39.25],[-2.73,39.29],[-2.74,39.32],[-2.93,39.47],[-3.02,39.46],[-3.07,39.46],[-3.11,39.48],[-3.16,39.49],[-3.23,39.48],[-3.28,39.47],[-3.33,39.44],[-3.39,39.41],[-3.46,39.36],[-3.52,39.33],[-3.58,39.31],[-3.64,39.3],[-3.74,39.29],[-3.78,39.28],[-3.82,39.27],[-3.86,39.28],[-3.92,39.32],[-3.96,39.33],[-4.03,39.35],[-4.08,39.36],[-4.1,39.37],[-4.11,39.4],[-4.1,39.44],[-4.08,39.5],[-4.07,39.54],[-4.07,39.57],[-4.08,39.58],[-4.11,39.58],[-4.17,39.56],[-4.21,39.52],[-4.24,39.5],[-4.29,39.5],[-4.34,39.51],[-4.41,39.52],[-4.47,39.53],[-4.53,39.53],[-4.58,39.51],[-4.69,39.45],[-4.76,39.29],[-4.83,39.18],[-4.89,39.08],[-4.91,39.04],[-4.93,39],[-4.93,38.96],[-4.92,38.93],[-4.92,38.9],[-4.94,38.86],[-4.96,38.82],[-5.04,38.73]]]]},"properties":{"codigo_iso_3166_2":"ES-CR"}},{"type":"Feature","geometry":{"type":"Polygon","coordinates":[[[-5.58,38.14],[-5.47,37.98],[-5.4,37.88],[-5.35,37.82],[-5.33,37.78],[-5.32,37.75],[-5.32,37.71],[-5.33,37.67],[-5.31,37.65],[-5.28,37.64],[-5.22,37.65],[-5.15,37.67],[-5.08,37.68],[-5.03,37.68],[-4.99,37.66],[-4.95,37.6],[-4.94,37.58],[-4.94,37.54],[-4.92,37.49],[-4.86,37.42],[-4.83,37.39],[-4.8,37.37],[-4.77,37.35],[-4.7,37.34],[-4.67,37.31],[-4.65,37.26],[-4.58,37.23],[-4.53,37.23],[-4.48,37.25],[-4.45,37.26],[-4.42,37.26],[-4.4,37.25],[-4.32,37.19],[-4.25,37.29],[-4.22,37.32],[-4.18,37.35],[-4.13,37.37],[-4,37.4],[-4.13,37.54],[-4.17,37.59],[-4.19,37.63],[-4.19,37.66],[-4.18,37.69],[-4.21,37.75],[-4.24,37.78],[-4.26,37.81],[-4.27,37.85],[-4.28,37.89],[-4.28,37.93],[-4.27,37.98],[-4.26,38.02],[-4.24,38.07],[-4.21,38.11],[-4.2,38.16],[-4.2,38.2],[-4.21,38.24],[-4.28,38.35],[-4.39,38.38],[-4.44,38.41],[-4.52,38.45],[-4.61,38.51],[-4.72,38.58],[-4.81,38.64],[-4.88,38.68],[-4.94,38.71],[-5.04,38.73],[-5.24,38.64],[-5.31,38.6],[-5.38,38.56],[-5.44,38.52],[-5.49,38.49],[-5.53,38.45],[-5.55,38.41],[-5.55,38.37],[-5.54,38.33],[-5.53,38.29],[-5.53,38.26],[-5.54,38.22],[-5.58,38.14]]]},"properties":{"codigo_iso_3166_2":"ES-CO"}},{"type":"Feature","geometry":{"type":"Polygon","coordinates":[[[-2.05,41.15],[-2.2,41.1],[-2.26,41.09],[-2.31,41.08],[-2.36,41.08],[-2.4,41.08],[-2.44,41.09],[-2.48,41.11],[-2.51,41.14],[-2.54,41.17],[-2.59,41.2],[-2.66,41.22],[-2.74,41.25],[-2.92,41.28],[-3.06,41.29],[-3.2,41.3],[-3.32,41.28],[-3.41,41.24],[-3.45,41.22],[-3.55,41.16],[-3.48,41.11],[-3.46,41.09],[-3.43,41.05],[-3.42,41],[-3.44,40.92],[-3.47,40.87],[-3.47,40.83],[-3.46,40.78],[-3.43,40.74],[-3.35,40.67],[-3.33,40.64],[-3.3,40.58],[-3.28,40.54],[-3.21,40.51],[-3.18,40.47],[-3.15,40.41],[-3.16,40.35],[-3.17,40.32],[-3.17,40.29],[-3.16,40.26],[-3.14,40.23],[-3.07,40.16],[-2.97,40.16],[-2.9,40.17],[-2.85,40.19],[-2.84,40.21],[-2.82,40.24],[-2.82,40.28],[-2.81,40.34],[-2.8,40.38],[-2.78,40.41],[-2.74,40.42],[-2.7,40.44],[-2.63,40.46],[-2.55,40.49],[-2.45,40.53],[-2.34,40.58],[-2.23,40.62],[-2.15,40.63],[-2.07,40.63],[-2.02,40.62],[-1.97,40.59],[-1.92,40.56],[-1.88,40.52],[-1.81,40.4],[-1.67,40.51],[-1.63,40.54],[-1.57,40.6],[-1.55,40.65],[-1.54,40.68],[-1.54,40.76],[-1.54,40.8],[-1.57,40.87],[-1.62,40.95],[-1.82,41.08],[-1.89,41.12],[-1.94,41.15],[-1.98,41.16],[-2.05,41.15]]]},"properties":{"codigo_iso_3166_2":"ES-GU"}},{"type":"Feature","geometry":{"type":"Polygon","coordinates":[[[-2.55,38.08],[-2.48,38.15],[-2.46,38.18],[-2.46,38.22],[-2.46,38.27],[-2.47,38.32],[-2.5,38.41],[-2.54,38.46],[-2.57,38.48],[-2.6,38.5],[-2.64,38.51],[-2.76,38.53],[-2.92,38.47],[-2.98,38.45],[-3.06,38.44],[-3.14,38.45],[-3.23,38.46],[-3.3,38.46],[-3.36,38.46],[-3.39,38.45],[-3.42,38.43],[-3.45,38.42],[-3.51,38.42],[-3.58,38.42],[-3.66,38.42],[-3.73,38.42],[-3.79,38.42],[-3.83,38.41],[-3.85,38.4],[-3.89,38.39],[-3.95,38.39],[-4.03,38.39],[-4.12,38.39],[-4.19,38.39],[-4.24,38.39],[-4.27,38.38],[-4.28,38.35],[-4.21,38.24],[-4.2,38.2],[-4.2,38.16],[-4.21,38.11],[-4.24,38.07],[-4.26,38.02],[-4.27,37.98],[-4.28,37.93],[-4.28,37.89],[-4.27,37.85],[-4.26,37.81],[-4.24,37.78],[-4.21,37.75],[-4.18,37.69],[-4.19,37.66],[-4.19,37.63],[-4.17,37.59],[-4.13,37.54],[-4,37.4],[-3.9,37.39],[-3.84,37.41],[-3.78,37.46],[-3.74,37.49],[-3.68,37.52],[-3.61,37.56],[-3.56,37.58],[-3.51,37.59],[-3.48,37.6],[-3.43,37.58],[-3.36,37.59],[-3.31,37.61],[-3.23,37.62],[-3.15,37.61],[-3.11,37.61],[-3.06,37.62],[-3.02,37.63],[-2.97,37.64],[-2.93,37.66],[-2.91,37.68],[-2.9,37.71],[-2.89,37.76],[-2.87,37.79],[-2.83,37.86],[-2.8,37.89],[-2.76,37.92],[-2.72,37.95],[-2.63,38],[-2.58,38.04],[-2.55,38.08]]]},"properties":{"codigo_iso_3166_2":"ES-J"}},{"type":"Feature","geometry":{"type":"Polygon","coordinates":[[[-3.07,40.16],[-3.14,40.23],[-3.16,40.26],[-3.17,40.29],[-3.17,40.32],[-3.16,40.35],[-3.15,40.41],[-3.18,40.47],[-3.21,40.51],[-3.28,40.54],[-3.3,40.58],[-3.33,40.64],[-3.35,40.67],[-3.43,40.74],[-3.46,40.78],[-3.47,40.83],[-3.47,40.87],[-3.44,40.92],[-3.42,41],[-3.43,41.05],[-3.46,41.09],[-3.48,41.11],[-3.55,41.16],[-3.59,41.15],[-3.65,41.12],[-3.73,41.05],[-3.81,41],[-3.88,40.96],[-3.91,40.93],[-3.93,40.91],[-3.95,40.88],[-3.96,40.84],[-3.98,40.81],[-4.01,40.78],[-4.05,40.75],[-4.16,40.69],[-4.17,40.65],[-4.2,40.62],[-4.26,40.57],[-4.29,40.55],[-4.31,40.52],[-4.32,40.49],[-4.32,40.46],[-4.34,40.42],[-4.38,40.41],[-4.4,40.4],[-4.43,40.37],[-4.47,40.34],[-4.57,40.21],[-4.4,40.22],[-4.29,40.23],[-4.22,40.26],[-4.16,40.26],[-4.07,40.24],[-3.96,40.22],[-3.72,40.14],[-3.57,40.09],[-3.54,40.07],[-3.5,40.06],[-3.44,40.06],[-3.37,40.06],[-3.16,40.07],[-3.07,40.16]]]},"properties":{"codigo_iso_3166_2":"ES-M"}},{"type":"Feature","geometry":{"type":"Polygon","coordinates":[[[-3.54,41.58],[-3.62,41.57],[-3.68,41.54],[-3.73,41.5],[-3.76,41.49],[-3.8,41.49],[-3.85,41.51],[-3.98,41.58],[-4,41.54],[-4.04,41.52],[-4.1,41.5],[-4.2,41.47],[-4.32,41.45],[-4.42,41.42],[-4.48,41.4],[-4.51,41.38],[-4.51,41.34],[-4.54,41.31],[-4.57,41.27],[-4.7,41.15],[-4.71,41.11],[-4.68,41.07],[-4.62,41],[-4.58,40.96],[-4.54,40.9],[-4.51,40.83],[-4.47,40.75],[-4.44,40.69],[-4.41,40.66],[-4.38,40.64],[-4.32,40.66],[-4.29,40.68],[-4.26,40.69],[-4.16,40.69],[-4.05,40.75],[-4.01,40.78],[-3.98,40.81],[-3.96,40.84],[-3.95,40.88],[-3.93,40.91],[-3.91,40.93],[-3.88,40.96],[-3.81,41],[-3.73,41.05],[-3.65,41.12],[-3.59,41.15],[-3.55,41.16],[-3.45,41.22],[-3.41,41.24],[-3.32,41.28],[-3.2,41.3],[-3.28,41.35],[-3.32,41.39],[-3.34,41.42],[-3.38,41.47],[-3.41,41.5],[-3.54,41.58]]]},"properties":{"codigo_iso_3166_2":"ES-SG"}},{"type":"Feature","geometry":{"type":"Polygon","coordinates":[[[-5.13,41.13],[-5.03,41.15],[-4.96,41.15],[-4.92,41.13],[-4.86,41.12],[-4.82,41.13],[-4.7,41.15],[-4.57,41.27],[-4.54,41.31],[-4.51,41.34],[-4.51,41.38],[-4.48,41.4],[-4.42,41.42],[-4.32,41.45],[-4.2,41.47],[-4.1,41.5],[-4.04,41.52],[-4,41.54],[-3.98,41.58],[-4.04,41.77],[-4.16,41.79],[-4.27,41.79],[-4.4,41.79],[-4.45,41.79],[-4.51,41.8],[-4.56,41.83],[-4.61,41.86],[-4.65,41.87],[-4.69,41.88],[-4.72,41.87],[-4.75,41.85],[-4.78,41.85],[-4.81,41.86],[-4.85,41.9],[-4.88,41.95],[-4.91,41.99],[-4.93,42.03],[-4.94,42.07],[-4.94,42.13],[-4.97,42.15],[-5.01,42.16],[-5.02,42.2],[-5,42.29],[-5.06,42.3],[-5.12,42.29],[-5.2,42.25],[-5.28,42.22],[-5.34,42.21],[-5.37,42.19],[-5.38,42.17],[-5.39,42.14],[-5.38,42.04],[-5.32,42],[-5.3,41.98],[-5.29,41.95],[-5.28,41.92],[-5.28,41.87],[-5.29,41.84],[-5.3,41.81],[-5.32,41.79],[-5.35,41.78],[-5.36,41.76],[-5.36,41.73],[-5.35,41.69],[-5.33,41.64],[-5.31,41.59],[-5.3,41.56],[-5.31,41.53],[-5.32,41.48],[-5.31,41.37],[-5.29,41.18],[-5.13,41.13]]]},"properties":{"codigo_iso_3166_2":"ES-VA"}}]}