{"type":"FeatureCollection","features":[{"type":"Feature","geometry":{"type":"Polygon","coordinates":[[[1.16,50.19],[1.19,50.21],[1.21,50.22],[1.26,50.24],[1.32,50.25],[1.37,50.25],[1.42,50.25],[1.48,50.24],[1.52,50.22],[1.46,50.16],[1.37,50.07],[1.56,49.96],[1.58,49.95],[1.63,49.92],[1.67,49.88],[1.71,49.85],[1.73,49.79],[1.72,49.73],[1.71,49.7],[1.7,49.66],[1.7,49.62],[1.7,49.58],[1.73,49.49],[1.73,49.44],[1.73,49.41],[1.74,49.32],[1.73,49.28],[1.7,49.23],[1.82,49.19],[1.87,49.18],[1.96,49.19],[2.05,49.2],[2.14,49.19],[2.18,49.18],[2.25,49.17],[2.3,49.17],[2.37,49.16],[2.49,49.12],[2.56,49.1],[2.64,49.09],[2.73,49.08],[2.83,49.08],[2.97,49.09],[3.04,49.1],[3.09,49.09],[3.12,49.07],[3.18,49.01],[3.27,48.94],[3.38,48.88],[3.44,48.85],[3.48,48.85],[3.6,48.95],[3.63,48.98],[3.64,49.02],[3.61,49.04],[3.63,49.08],[3.66,49.11],[3.68,49.14],[3.68,49.17],[3.68,49.21],[3.67,49.24],[3.68,49.28],[3.72,49.3],[3.79,49.32],[3.96,49.35],[4.04,49.38],[4.05,49.41],[4.06,49.45],[4.05,49.55],[4.06,49.6],[4.08,49.64],[4.12,49.67],[4.16,49.69],[4.2,49.73],[4.22,49.77],[4.23,49.81],[4.22,49.95],[4.2,49.96],[4.24,50.01],[4.34,50.12],[4.37,50.12],[4.41,50.12],[4.42,50.12],[4.44,50.15],[4.43,50.18],[4.43,50.19],[4.42,50.22],[4.4,50.27],[4.39,50.3],[4.29,50.41],[4.19,50.46],[4.09,50.5],[3.97,50.52],[3.91,50.52],[3.9,50.53],[3.79,50.6],[3.66,50.65],[3.51,50.69],[3.5,50.69],[3.48,50.73],[3.44,50.8],[3.42,50.83],[3.39,50.85],[3.31,50.89],[3.26,50.91],[3.11,50.93],[2.98,50.93],[2.9,50.92],[2.9,50.93],[2.87,51.03],[2.82,51.11],[2.79,51.14],[2.76,51.17],[2.67,51.21],[2.61,51.23],[2.44,51.25],[2.29,51.24],[1.85,51.16],[1.67,51.11],[1.51,51.06],[1.42,51.01],[1.39,50.99],[1.36,50.96],[1.32,50.89],[1.31,50.85],[1.31,50.8],[1.29,50.7],[1.29,50.57],[1.3,50.48],[1.3,50.42],[1.29,50.38],[1.29,50.35],[1.26,50.3],[1.22,50.25],[1.16,50.19]]]},"properties":{"codigo_iso_3166_2":"FR-HDF"}},{"type":"Feature","geometry":{"type":"Polygon","coordinates":[[[3.48,48.85],[3.42,48.79],[3.41,48.74],[3.44,48.69],[3.48,48.64],[3.51,48.62],[3.51,48.59],[3.42,48.49],[3.39,48.45],[3.4,48.41],[3.53,48.32],[3.57,48.28],[3.59,48.25],[3.6,48.23],[3.59,48.21],[3.61,48.18],[3.67,48.17],[3.71,48.15],[3.75,48.13],[3.79,48.1],[3.83,48.05],[3.91,47.99],[3.98,47.95],[4.02,47.94],[4.06,47.93],[4.1,47.94],[4.15,47.95],[4.22,47.96],[4.26,47.94],[4.33,47.93],[4.38,47.94],[4.55,47.98],[4.64,48],[4.71,48.01],[4.76,48.01],[4.82,47.97],[4.92,47.88],[4.95,47.84],[4.97,47.8],[4.98,47.77],[4.98,47.74],[4.99,47.71],[5.01,47.7],[5.05,47.69],[5.14,47.68],[5.22,47.65],[5.27,47.61],[5.32,47.6],[5.36,47.61],[5.42,47.66],[5.48,47.67],[5.6,47.67],[5.66,47.68],[5.7,47.71],[5.71,47.77],[5.75,47.83],[5.83,47.89],[5.87,47.91],[5.93,47.94],[5.99,47.96],[6.05,47.97],[6.11,47.98],[6.15,47.98],[6.18,47.97],[6.23,47.94],[6.29,47.94],[6.32,47.94],[6.39,47.94],[6.48,47.91],[6.54,47.92],[6.57,47.93],[6.6,47.93],[6.65,47.92],[6.7,47.9],[6.8,47.84],[6.9,47.8],[6.98,47.76],[7.02,47.73],[7.03,47.71],[7.04,47.68],[7.04,47.67],[7.04,47.66],[7.04,47.63],[7.07,47.57],[7.14,47.49],[7.16,47.48],[7.14,47.41],[7.15,47.35],[7.16,47.28],[7.17,47.26],[7.22,47.25],[7.23,47.25],[7.28,47.24],[7.32,47.24],[7.44,47.26],[7.48,47.27],[7.57,47.32],[7.64,47.36],[7.72,47.41],[7.78,47.47],[7.81,47.52],[7.83,47.55],[7.83,47.61],[7.82,47.66],[7.8,47.7],[7.79,47.71],[7.79,47.72],[7.81,47.78],[7.85,47.88],[7.87,47.94],[7.88,48],[7.87,48.07],[7.87,48.09],[7.87,48.1],[7.89,48.14],[7.97,48.26],[8,48.32],[8.01,48.35],[8.02,48.4],[8.05,48.5],[8.06,48.53],[8.08,48.55],[8.1,48.57],[8.15,48.61],[8.3,48.7],[8.38,48.8],[8.41,48.85],[8.42,48.88],[8.43,48.94],[8.43,48.97],[8.42,49],[8.38,49.06],[8.34,49.09],[8.22,49.15],[8.1,49.18],[7.93,49.21],[7.79,49.21],[7.76,49.22],[7.73,49.23],[7.7,49.24],[7.64,49.27],[7.54,49.31],[7.46,49.32],[7.4,49.33],[7.31,49.33],[7.26,49.32],[7.22,49.31],[7.21,49.3],[7.21,49.31],[7.1,49.35],[6.99,49.37],[6.95,49.38],[6.86,49.38],[6.81,49.44],[6.71,49.52],[6.6,49.58],[6.46,49.63],[6.33,49.65],[6.23,49.66],[6.12,49.67],[6.05,49.66],[6.03,49.65],[5.93,49.69],[5.83,49.71],[5.71,49.72],[5.61,49.71],[5.6,49.71],[5.47,49.79],[5.37,49.82],[5.16,49.92],[5.11,49.94],[5.11,49.95],[5.1,49.98],[5.11,50],[5.12,50.06],[5.12,50.1],[5.11,50.13],[5.07,50.2],[5.04,50.23],[5,50.26],[4.96,50.28],[4.86,50.3],[4.8,50.31],[4.75,50.31],[4.69,50.3],[4.61,50.28],[4.57,50.26],[4.49,50.21],[4.46,50.18],[4.44,50.15],[4.42,50.12],[4.41,50.12],[4.37,50.12],[4.34,50.12],[4.24,50.01],[4.2,49.96],[4.22,49.95],[4.23,49.81],[4.22,49.77],[4.2,49.73],[4.16,49.69],[4.12,49.67],[4.08,49.64],[4.06,49.6],[4.05,49.55],[4.06,49.45],[4.05,49.41],[4.04,49.38],[3.96,49.35],[3.79,49.32],[3.72,49.3],[3.68,49.28],[3.67,49.24],[3.68,49.21],[3.68,49.17],[3.68,49.14],[3.66,49.11],[3.63,49.08],[3.61,49.04],[3.64,49.02],[3.63,48.98],[3.6,48.95],[3.48,48.85]]]},"properties":{"codigo_iso_3166_2":"FR-GES"}},{"type":"Feature","geometry":{"type":"Polygon","coordinates":[[[7.04,45.02],[7.03,45.02],[6.96,45.02],[6.88,45.03],[6.81,45.04],[6.65,45.1],[6.63,45.12],[6.52,45.08],[6.48,45.07],[6.43,45.07],[6.39,45.08],[6.38,45.08],[6.34,45.09],[6.3,45.1],[6.27,45.09],[6.26,45.08],[6.24,45.03],[6.27,45.01],[6.31,44.99],[6.35,44.95],[6.36,44.92],[6.35,44.89],[6.32,44.87],[6.28,44.86],[6.17,44.85],[6.07,44.84],[5.99,44.81],[5.91,44.77],[5.84,44.72],[5.82,44.71],[5.79,44.66],[5.74,44.65],[5.71,44.64],[5.67,44.61],[5.66,44.59],[5.65,44.55],[5.64,44.52],[5.62,44.49],[5.59,44.47],[5.52,44.43],[5.47,44.39],[5.5,44.35],[5.64,44.28],[5.68,44.23],[5.67,44.2],[5.62,44.16],[5.57,44.15],[5.53,44.14],[5.5,44.14],[5.46,44.15],[5.43,44.17],[5.35,44.2],[5.15,44.26],[5.09,44.28],[5.02,44.29],[4.92,44.26],[4.87,44.26],[4.83,44.26],[4.8,44.27],[4.75,44.31],[4.71,44.33],[4.68,44.33],[4.66,44.31],[4.66,44.28],[4.7,44.22],[4.72,44.18],[4.72,44.13],[4.74,44.08],[4.8,44.04],[4.82,44.02],[4.82,43.98],[4.78,43.94],[4.69,43.89],[4.66,43.87],[4.64,43.84],[4.62,43.81],[4.61,43.76],[4.58,43.71],[4.51,43.7],[4.48,43.68],[4.44,43.64],[4.39,43.59],[4.36,43.56],[4.29,43.5],[4.23,43.47],[4.21,43.46],[4.22,43.46],[4.4,43.46],[4.46,43.45],[4.45,43.42],[4.44,43.39],[4.42,43.36],[4.38,43.33],[4.35,43.31],[4.3,43.29],[4.26,43.28],[4.21,43.28],[4.37,43.28],[4.43,43.24],[4.53,43.2],[4.62,43.19],[4.72,43.18],[4.82,43.18],[4.92,43.2],[4.93,43.2],[4.94,43.2],[5.04,43.16],[5.15,43.15],[5.17,43.14],[5.2,43.11],[5.3,43.06],[5.41,43.03],[5.55,43.01],[5.61,43],[5.68,42.97],[5.8,42.94],[5.9,42.92],[6.03,42.92],[6.17,42.93],[6.33,42.95],[6.51,42.98],[6.64,43.01],[6.77,43.05],[6.83,43.09],[6.86,43.11],[6.89,43.14],[6.91,43.17],[6.92,43.2],[6.92,43.25],[6.92,43.26],[6.96,43.26],[7.04,43.3],[7.07,43.32],[7.12,43.35],[7.2,43.41],[7.29,43.47],[7.31,43.5],[7.42,43.53],[7.5,43.57],[7.53,43.59],[7.54,43.61],[7.6,43.63],[7.65,43.66],[7.68,43.69],[7.72,43.75],[7.74,43.78],[7.74,43.81],[7.77,43.83],[7.84,43.9],[7.89,43.96],[7.91,43.99],[7.92,44.08],[7.92,44.12],[7.88,44.21],[7.86,44.24],[7.83,44.26],[7.77,44.3],[7.72,44.32],[7.62,44.34],[7.58,44.34],[7.47,44.33],[7.42,44.32],[7.41,44.32],[7.39,44.32],[7.35,44.33],[7.21,44.38],[7.17,44.4],[7.16,44.41],[7.16,44.42],[7.16,44.45],[7.13,44.52],[7.15,44.55],[7.23,44.64],[7.25,44.71],[7.26,44.74],[7.25,44.82],[7.22,44.89],[7.2,44.92],[7.17,44.95],[7.1,44.99],[7.05,45.02],[7.04,45.02]]]},"properties":{"codigo_iso_3166_2":"FR-PAC"}},{"type":"Feature","geometry":{"type":"Polygon","coordinates":[[[7.04,45.02],[7.07,45.04],[7.08,45.04],[7.09,45.04],[7.13,45.05],[7.17,45.07],[7.29,45.15],[7.33,45.22],[7.37,45.3],[7.38,45.36],[7.39,45.39],[7.37,45.45],[7.36,45.48],[7.31,45.54],[7.28,45.57],[7.22,45.6],[7.22,45.61],[7.21,45.65],[7.19,45.69],[7.14,45.74],[7.2,45.8],[7.23,45.82],[7.25,45.85],[7.26,45.88],[7.26,45.96],[7.22,46.03],[7.18,46.09],[7.08,46.2],[7.07,46.21],[7.07,46.27],[7.07,46.31],[7.02,46.4],[7.01,46.44],[7,46.47],[6.96,46.52],[6.93,46.54],[6.9,46.56],[6.8,46.6],[6.7,46.61],[6.6,46.62],[6.57,46.62],[6.53,46.62],[6.44,46.59],[6.21,46.48],[6.15,46.46],[6.07,46.44],[6.06,46.42],[5.95,46.33],[5.9,46.31],[5.88,46.29],[5.86,46.29],[5.82,46.28],[5.75,46.28],[5.74,46.28],[5.7,46.3],[5.68,46.31],[5.63,46.32],[5.56,46.29],[5.53,46.28],[5.5,46.28],[5.47,46.29],[5.38,46.37],[5.34,46.42],[5.29,46.46],[5.23,46.49],[5.14,46.51],[5.03,46.5],[4.98,46.48],[4.93,46.44],[4.89,46.38],[4.85,46.29],[4.82,46.24],[4.79,46.21],[4.76,46.2],[4.74,46.22],[4.7,46.24],[4.65,46.25],[4.59,46.27],[4.52,46.28],[4.46,46.28],[4.42,46.27],[4.4,46.26],[4.38,46.23],[4.32,46.19],[4.28,46.18],[4.22,46.18],[4.14,46.19],[4.05,46.2],[3.97,46.21],[3.92,46.22],[3.9,46.24],[3.89,46.25],[3.91,46.29],[3.96,46.31],[3.99,46.35],[3.99,46.41],[3.97,46.44],[3.94,46.47],[3.89,46.49],[3.79,46.54],[3.74,46.57],[3.73,46.61],[3.72,46.63],[3.67,46.69],[3.63,46.71],[3.6,46.72],[3.56,46.71],[3.52,46.68],[3.46,46.67],[3.39,46.67],[3.31,46.69],[3.13,46.73],[3.04,46.77],[3.03,46.79],[2.91,46.75],[2.83,46.73],[2.77,46.73],[2.7,46.71],[2.64,46.67],[2.6,46.62],[2.6,46.58],[2.57,46.55],[2.48,46.53],[2.38,46.5],[2.34,46.48],[2.25,46.42],[2.3,46.36],[2.35,46.32],[2.42,46.29],[2.48,46.25],[2.53,46.19],[2.57,46.12],[2.59,46.03],[2.59,46],[2.58,45.96],[2.56,45.93],[2.49,45.87],[2.44,45.85],[2.42,45.82],[2.43,45.8],[2.48,45.75],[2.5,45.71],[2.51,45.66],[2.5,45.62],[2.48,45.59],[2.49,45.54],[2.51,45.49],[2.51,45.47],[2.5,45.43],[2.47,45.4],[2.42,45.38],[2.34,45.34],[2.26,45.28],[2.23,45.24],[2.2,45.2],[2.2,45.16],[2.15,45.09],[2.06,44.98],[2.12,44.85],[2.14,44.81],[2.15,44.74],[2.14,44.71],[2.16,44.67],[2.2,44.64],[2.24,44.64],[2.29,44.66],[2.36,44.67],[2.39,44.66],[2.43,44.67],[2.47,44.69],[2.5,44.72],[2.57,44.81],[2.64,44.87],[2.68,44.9],[2.72,44.91],[2.76,44.9],[2.81,44.88],[2.9,44.79],[2.95,44.72],[2.96,44.69],[2.99,44.68],[3.02,44.73],[3.04,44.77],[3.07,44.81],[3.12,44.84],[3.21,44.9],[3.25,44.92],[3.32,44.94],[3.38,44.93],[3.43,44.88],[3.46,44.86],[3.51,44.84],[3.57,44.83],[3.7,44.82],[3.75,44.81],[3.82,44.78],[3.85,44.75],[3.87,44.72],[3.89,44.69],[3.92,44.6],[3.93,44.57],[3.96,44.51],[4.01,44.44],[4.08,44.38],[4.14,44.33],[4.21,44.3],[4.26,44.29],[4.33,44.32],[4.39,44.34],[4.45,44.34],[4.46,44.34],[4.54,44.33],[4.57,44.32],[4.66,44.28],[4.66,44.31],[4.68,44.33],[4.71,44.33],[4.75,44.31],[4.8,44.27],[4.83,44.26],[4.87,44.26],[4.92,44.26],[5.02,44.29],[5.09,44.28],[5.15,44.26],[5.35,44.2],[5.43,44.17],[5.46,44.15],[5.5,44.14],[5.53,44.14],[5.57,44.15],[5.62,44.16],[5.67,44.2],[5.68,44.23],[5.64,44.28],[5.5,44.35],[5.47,44.39],[5.52,44.43],[5.59,44.47],[5.62,44.49],[5.64,44.52],[5.65,44.55],[5.66,44.59],[5.67,44.61],[5.71,44.64],[5.74,44.65],[5.79,44.66],[5.82,44.71],[5.84,44.72],[5.91,44.77],[5.99,44.81],[6.07,44.84],[6.17,44.85],[6.28,44.86],[6.32,44.87],[6.35,44.89],[6.36,44.92],[6.35,44.95],[6.31,44.99],[6.27,45.01],[6.24,45.03],[6.26,45.08],[6.27,45.09],[6.3,45.1],[6.34,45.09],[6.38,45.08],[6.39,45.08],[6.43,45.07],[6.48,45.07],[6.52,45.08],[6.63,45.12],[6.65,45.1],[6.81,45.04],[6.88,45.03],[6.96,45.02],[7.03,45.02],[7.04,45.02]]]},"properties":{"codigo_iso_3166_2":"FR-ARA"}},{"type":"Feature","geometry":{"type":"Polygon","coordinates":[[[2.25,46.42],[2.1,46.42],[1.98,46.43],[1.91,46.43],[1.85,46.43],[1.78,46.42],[1.71,46.4],[1.61,46.39],[1.55,46.4],[1.5,46.4],[1.42,46.36],[1.39,46.36],[1.35,46.38],[1.29,46.39],[1.24,46.39],[1.21,46.4],[1.18,46.42],[1.15,46.44],[1.13,46.48],[1.07,46.54],[0.99,46.59],[0.95,46.61],[0.92,46.64],[0.91,46.67],[0.9,46.7],[0.84,46.78],[0.75,46.89],[0.69,46.93],[0.64,46.95],[0.58,46.96],[0.47,46.94],[0.39,46.94],[0.33,46.95],[0.31,46.98],[0.3,47.02],[0.27,47.05],[0.22,47.08],[0.07,47.15],[-0.04,47.1],[-0.11,47.08],[-0.18,47.09],[-0.24,47.09],[-0.41,47.08],[-0.49,47.06],[-0.55,47.05],[-0.59,47.03],[-0.6,47.02],[-0.64,47],[-0.69,47],[-0.75,46.99],[-0.83,47],[-0.87,46.99],[-0.88,46.96],[-0.86,46.93],[-0.8,46.88],[-0.75,46.82],[-0.71,46.77],[-0.68,46.71],[-0.64,46.59],[-0.62,46.5],[-0.63,46.47],[-0.62,46.42],[-0.59,46.38],[-0.61,46.35],[-0.69,46.32],[-0.74,46.32],[-0.79,46.32],[-0.84,46.32],[-0.86,46.33],[-0.89,46.34],[-0.94,46.35],[-0.98,46.35],[-1.03,46.34],[-1.12,46.31],[-1.14,46.3],[-1.21,46.24],[-1.32,46.13],[-1.4,46.15],[-1.37,46.09],[-1.36,46.08],[-1.34,46.04],[-1.32,46.02],[-1.32,46],[-1.32,45.99],[-1.32,45.98],[-1.33,45.98],[-1.37,45.94],[-1.43,45.87],[-1.46,45.84],[-1.47,45.8],[-1.46,45.72],[-1.45,45.69],[-1.43,45.66],[-1.37,45.6],[-1.34,45.57],[-1.39,45.5],[-1.4,45.44],[-1.41,45.33],[-1.45,45.15],[-1.46,44.99],[-1.47,44.8],[-1.47,44.74],[-1.46,44.7],[-1.45,44.69],[-1.49,44.63],[-1.5,44.57],[-1.51,44.47],[-1.54,44.33],[-1.59,44.11],[-1.64,43.89],[-1.7,43.7],[-1.72,43.64],[-1.79,43.57],[-1.84,43.54],[-1.89,43.51],[-1.92,43.49],[-1.96,43.45],[-1.99,43.42],[-2,43.39],[-2.01,43.36],[-2.01,43.31],[-2,43.28],[-1.98,43.24],[-1.93,43.2],[-1.9,43.17],[-1.79,43.12],[-1.76,43.11],[-1.67,43.09],[-1.67,43.07],[-1.66,43.03],[-1.63,42.97],[-1.6,42.94],[-1.56,42.91],[-1.49,42.88],[-1.44,42.87],[-1.4,42.86],[-1.34,42.87],[-1.32,42.86],[-1.29,42.86],[-1.25,42.85],[-1.17,42.83],[-1.01,42.79],[-0.92,42.78],[-0.84,42.71],[-0.76,42.66],[-0.65,42.62],[-0.53,42.61],[-0.41,42.62],[-0.33,42.64],[-0.32,42.64],[-0.32,42.65],[-0.3,42.83],[-0.31,42.83],[-0.3,42.93],[-0.28,42.97],[-0.26,43.01],[-0.25,43.01],[-0.21,43.06],[-0.16,43.1],[-0.11,43.15],[-0.07,43.19],[-0.04,43.23],[-0.02,43.28],[0,43.32],[0,43.36],[-0.01,43.41],[-0.04,43.49],[-0.07,43.54],[-0.11,43.56],[-0.19,43.58],[-0.21,43.61],[-0.22,43.65],[-0.21,43.72],[-0.2,43.8],[-0.17,43.86],[-0.13,43.9],[-0.08,43.92],[0.02,43.92],[0.07,43.93],[0.09,43.96],[0.14,43.99],[0.17,44],[0.23,44.01],[0.28,44.01],[0.33,44.01],[0.41,44.04],[0.51,44.06],[0.64,44.07],[0.7,44.08],[0.76,44.09],[0.8,44.12],[0.85,44.15],[0.91,44.21],[0.93,44.25],[0.93,44.29],[0.92,44.34],[0.93,44.37],[1,44.38],[1.03,44.39],[1.04,44.41],[1.04,44.44],[1.02,44.52],[1.04,44.56],[1.07,44.57],[1.14,44.63],[1.19,44.67],[1.25,44.7],[1.31,44.75],[1.38,44.82],[1.43,44.9],[1.45,44.97],[1.47,44.99],[1.49,45.01],[1.52,45.02],[1.59,45.02],[1.68,44.99],[1.73,44.97],[1.78,44.95],[1.84,44.95],[1.9,44.95],[2.06,44.98],[2.15,45.09],[2.2,45.16],[2.2,45.2],[2.23,45.24],[2.26,45.28],[2.34,45.34],[2.42,45.38],[2.47,45.4],[2.5,45.43],[2.51,45.47],[2.51,45.49],[2.49,45.54],[2.48,45.59],[2.5,45.62],[2.51,45.66],[2.5,45.71],[2.48,45.75],[2.43,45.8],[2.42,45.82],[2.44,45.85],[2.49,45.87],[2.56,45.93],[2.58,45.96],[2.59,46],[2.59,46.03],[2.57,46.12],[2.53,46.19],[2.48,46.25],[2.42,46.29],[2.35,46.32],[2.3,46.36],[2.25,46.42]]]},"properties":{"codigo_iso_3166_2":"FR-NAQ"}},{"type":"Feature","geometry":{"type":"Polygon","coordinates":[[[4.66,44.28],[4.57,44.32],[4.54,44.33],[4.46,44.34],[4.45,44.34],[4.39,44.34],[4.33,44.32],[4.26,44.29],[4.21,44.3],[4.14,44.33],[4.08,44.38],[4.01,44.44],[3.96,44.51],[3.93,44.57],[3.92,44.6],[3.89,44.69],[3.87,44.72],[3.85,44.75],[3.82,44.78],[3.75,44.81],[3.7,44.82],[3.57,44.83],[3.51,44.84],[3.46,44.86],[3.43,44.88],[3.38,44.93],[3.32,44.94],[3.25,44.92],[3.21,44.9],[3.12,44.84],[3.07,44.81],[3.04,44.77],[3.02,44.73],[2.99,44.68],[2.96,44.69],[2.95,44.72],[2.9,44.79],[2.81,44.88],[2.76,44.9],[2.72,44.91],[2.68,44.9],[2.64,44.87],[2.57,44.81],[2.5,44.72],[2.47,44.69],[2.43,44.67],[2.39,44.66],[2.36,44.67],[2.29,44.66],[2.24,44.64],[2.2,44.64],[2.16,44.67],[2.14,44.71],[2.15,44.74],[2.14,44.81],[2.12,44.85],[2.06,44.98],[1.9,44.95],[1.84,44.95],[1.78,44.95],[1.73,44.97],[1.68,44.99],[1.59,45.02],[1.52,45.02],[1.49,45.01],[1.47,44.99],[1.45,44.97],[1.43,44.9],[1.38,44.82],[1.31,44.75],[1.25,44.7],[1.19,44.67],[1.14,44.63],[1.07,44.57],[1.04,44.56],[1.02,44.52],[1.04,44.44],[1.04,44.41],[1.03,44.39],[1,44.38],[0.93,44.37],[0.92,44.34],[0.93,44.29],[0.93,44.25],[0.91,44.21],[0.85,44.15],[0.8,44.12],[0.76,44.09],[0.7,44.08],[0.64,44.07],[0.51,44.06],[0.41,44.04],[0.33,44.01],[0.28,44.01],[0.23,44.01],[0.17,44],[0.14,43.99],[0.09,43.96],[0.07,43.93],[0.02,43.92],[-0.08,43.92],[-0.13,43.9],[-0.17,43.86],[-0.2,43.8],[-0.21,43.72],[-0.22,43.65],[-0.21,43.61],[-0.19,43.58],[-0.11,43.56],[-0.07,43.54],[-0.04,43.49],[-0.01,43.41],[0,43.36],[0,43.32],[-0.02,43.28],[-0.04,43.23],[-0.07,43.19],[-0.11,43.15],[-0.16,43.1],[-0.21,43.06],[-0.25,43.01],[-0.26,43.01],[-0.28,42.97],[-0.3,42.93],[-0.31,42.83],[-0.3,42.83],[-0.32,42.65],[-0.32,42.64],[-0.33,42.64],[-0.32,42.63],[-0.3,42.62],[-0.23,42.58],[-0.17,42.55],[-0.13,42.54],[-0.03,42.52],[0.07,42.53],[0.13,42.53],[0.14,42.53],[0.19,42.51],[0.24,42.51],[0.34,42.51],[0.39,42.52],[0.41,42.52],[0.54,42.51],[0.6,42.5],[0.69,42.52],[0.72,42.53],[0.76,42.55],[0.81,42.59],[0.84,42.62],[0.85,42.63],[0.93,42.62],[0.94,42.61],[0.97,42.6],[1.02,42.57],[1.15,42.54],[1.23,42.53],[1.27,42.52],[1.36,42.48],[1.51,42.45],[1.54,42.4],[1.57,42.38],[1.6,42.35],[1.68,42.32],[1.78,42.29],[1.83,42.26],[1.88,42.23],[1.92,42.21],[1.97,42.2],[2.02,42.19],[2.12,42.2],[2.17,42.21],[2.22,42.23],[2.23,42.24],[2.28,42.21],[2.36,42.19],[2.46,42.17],[2.56,42.17],[2.7,42.2],[2.85,42.24],[2.91,42.26],[2.95,42.27],[2.97,42.28],[2.99,42.28],[3.05,42.27],[3.12,42.26],[3.16,42.26],[3.23,42.28],[3.28,42.29],[3.32,42.32],[3.36,42.35],[3.39,42.39],[3.4,42.42],[3.41,42.46],[3.41,42.49],[3.38,42.56],[3.33,42.62],[3.3,42.65],[3.29,42.67],[3.29,42.86],[3.29,42.9],[3.3,42.93],[3.32,42.99],[3.33,43.01],[3.36,43.04],[3.39,43.07],[3.43,43.09],[3.45,43.1],[3.49,43.1],[3.52,43.11],[3.61,43.13],[3.66,43.15],[3.77,43.22],[3.87,43.26],[4.02,43.34],[4.04,43.33],[4.07,43.31],[4.12,43.29],[4.16,43.28],[4.21,43.28],[4.26,43.28],[4.3,43.29],[4.35,43.31],[4.38,43.33],[4.42,43.36],[4.44,43.39],[4.45,43.42],[4.46,43.45],[4.4,43.46],[4.22,43.46],[4.21,43.46],[4.23,43.47],[4.29,43.5],[4.36,43.56],[4.39,43.59],[4.44,43.64],[4.48,43.68],[4.51,43.7],[4.58,43.71],[4.61,43.76],[4.62,43.81],[4.64,43.84],[4.66,43.87],[4.69,43.89],[4.78,43.94],[4.82,43.98],[4.82,44.02],[4.8,44.04],[4.74,44.08],[4.72,44.13],[4.72,44.18],[4.7,44.22],[4.66,44.28]]]},"properties":{"codigo_iso_3166_2":"FR-OCC"}},{"type":"Feature","geometry":{"type":"Polygon","coordinates":[[[3.4,48.41],[3.38,48.39],[3.3,48.37],[3.16,48.36],[3.1,48.36],[3.06,48.34],[3.04,48.33],[3.03,48.28],[2.99,48.23],[2.93,48.16],[2.98,48.15],[3.02,48.12],[3.07,48.07],[3.08,48.04],[3.08,48.01],[3.07,47.98],[3.01,47.92],[3,47.89],[3,47.84],[2.97,47.8],[2.89,47.77],[2.87,47.75],[2.87,47.72],[2.88,47.68],[2.92,47.64],[2.94,47.6],[2.94,47.57],[2.93,47.55],[2.89,47.53],[2.89,47.49],[2.92,47.46],[2.91,47.41],[2.9,47.36],[2.91,47.31],[2.96,47.27],[2.98,47.23],[3.03,47.13],[3.06,47.03],[3.07,46.98],[3.07,46.9],[3.06,46.84],[3.03,46.79],[3.04,46.77],[3.13,46.73],[3.31,46.69],[3.39,46.67],[3.46,46.67],[3.52,46.68],[3.56,46.71],[3.6,46.72],[3.63,46.71],[3.67,46.69],[3.72,46.63],[3.73,46.61],[3.74,46.57],[3.79,46.54],[3.89,46.49],[3.94,46.47],[3.97,46.44],[3.99,46.41],[3.99,46.35],[3.96,46.31],[3.91,46.29],[3.89,46.25],[3.9,46.24],[3.92,46.22],[3.97,46.21],[4.05,46.2],[4.14,46.19],[4.22,46.18],[4.28,46.18],[4.32,46.19],[4.38,46.23],[4.4,46.26],[4.42,46.27],[4.46,46.28],[4.52,46.28],[4.59,46.27],[4.65,46.25],[4.7,46.24],[4.74,46.22],[4.76,46.2],[4.79,46.21],[4.82,46.24],[4.85,46.29],[4.89,46.38],[4.93,46.44],[4.98,46.48],[5.03,46.5],[5.14,46.51],[5.23,46.49],[5.29,46.46],[5.34,46.42],[5.38,46.37],[5.47,46.29],[5.5,46.28],[5.53,46.28],[5.56,46.29],[5.63,46.32],[5.68,46.31],[5.7,46.3],[5.74,46.28],[5.75,46.28],[5.82,46.28],[5.86,46.29],[5.88,46.29],[5.9,46.31],[5.95,46.33],[6.06,46.42],[6.07,46.44],[6.15,46.46],[6.21,46.48],[6.44,46.59],[6.53,46.62],[6.57,46.62],[6.58,46.63],[6.59,46.64],[6.65,46.71],[6.7,46.8],[6.7,46.83],[6.72,46.84],[6.85,46.9],[6.98,47],[7.08,47.08],[7.14,47.13],[7.2,47.19],[7.22,47.25],[7.17,47.26],[7.16,47.28],[7.15,47.35],[7.14,47.41],[7.16,47.48],[7.14,47.49],[7.07,47.57],[7.04,47.63],[7.04,47.66],[7.04,47.67],[7.04,47.68],[7.03,47.71],[7.02,47.73],[6.98,47.76],[6.9,47.8],[6.8,47.84],[6.7,47.9],[6.65,47.92],[6.6,47.93],[6.57,47.93],[6.54,47.92],[6.48,47.91],[6.39,47.94],[6.32,47.94],[6.29,47.94],[6.23,47.94],[6.18,47.97],[6.15,47.98],[6.11,47.98],[6.05,47.97],[5.99,47.96],[5.93,47.94],[5.87,47.91],[5.83,47.89],[5.75,47.83],[5.71,47.77],[5.7,47.71],[5.66,47.68],[5.6,47.67],[5.48,47.67],[5.42,47.66],[5.36,47.61],[5.32,47.6],[5.27,47.61],[5.22,47.65],[5.14,47.68],[5.05,47.69],[5.01,47.7],[4.99,47.71],[4.98,47.74],[4.98,47.77],[4.97,47.8],[4.95,47.84],[4.92,47.88],[4.82,47.97],[4.76,48.01],[4.71,48.01],[4.64,48],[4.55,47.98],[4.38,47.94],[4.33,47.93],[4.26,47.94],[4.22,47.96],[4.15,47.95],[4.1,47.94],[4.06,47.93],[4.02,47.94],[3.98,47.95],[3.91,47.99],[3.83,48.05],[3.79,48.1],[3.75,48.13],[3.71,48.15],[3.67,48.17],[3.61,48.18],[3.59,48.21],[3.6,48.23],[3.59,48.25],[3.57,48.28],[3.53,48.32],[3.4,48.41]]]},"properties":{"codigo_iso_3166_2":"FR-BFC"}},{"type":"Feature","geometry":{"type":"Polygon","coordinates":[[[0.07,47.15],[0.09,47.24],[0.11,47.3],[0.15,47.35],[0.19,47.42],[0.22,47.52],[0.25,47.56],[0.31,47.6],[0.38,47.63],[0.47,47.66],[0.55,47.68],[0.61,47.7],[0.66,47.73],[0.72,47.78],[0.78,47.85],[0.82,47.93],[0.84,48],[0.83,48.07],[0.82,48.13],[0.8,48.19],[0.72,48.23],[0.65,48.25],[0.56,48.26],[0.49,48.28],[0.43,48.31],[0.39,48.35],[0.38,48.41],[0.36,48.43],[0.34,48.44],[0.3,48.45],[0.26,48.46],[0.18,48.44],[0.1,48.41],[0.04,48.39],[-0.01,48.38],[-0.07,48.41],[-0.12,48.49],[-0.16,48.51],[-0.2,48.53],[-0.24,48.53],[-0.28,48.51],[-0.34,48.5],[-0.42,48.49],[-0.52,48.48],[-0.64,48.47],[-0.73,48.46],[-0.79,48.46],[-0.83,48.47],[-0.86,48.49],[-0.94,48.5],[-1.08,48.5],[-1.07,48.39],[-1.08,48.32],[-1.09,48.29],[-1.09,48.22],[-1.06,48.1],[-1.06,48.05],[-1.07,48.01],[-1.09,47.99],[-1.15,47.96],[-1.2,47.9],[-1.23,47.82],[-1.25,47.79],[-1.29,47.79],[-1.38,47.81],[-1.43,47.81],[-1.49,47.8],[-1.55,47.78],[-1.6,47.76],[-1.67,47.74],[-1.74,47.72],[-1.81,47.7],[-1.96,47.68],[-2.05,47.66],[-2.08,47.63],[-2.1,47.57],[-2.13,47.55],[-2.17,47.53],[-2.21,47.52],[-2.24,47.51],[-2.46,47.45],[-2.48,47.49],[-2.51,47.47],[-2.6,47.44],[-2.65,47.41],[-2.7,47.37],[-2.71,47.37],[-2.79,47.38],[-2.79,47.37],[-2.78,47.33],[-2.77,47.31],[-2.77,47.29],[-2.69,47.22],[-2.54,47.14],[-2.44,47.1],[-2.36,47.06],[-2.32,47.03],[-2.32,47.02],[-2.36,46.93],[-2.37,46.88],[-2.37,46.85],[-2.35,46.76],[-2.29,46.69],[-2.22,46.63],[-2.15,46.59],[-2.11,46.56],[-2.09,46.53],[-2.08,46.52],[-2.07,46.48],[-2.02,46.42],[-1.95,46.37],[-1.86,46.32],[-1.68,46.26],[-1.63,46.25],[-1.6,46.24],[-1.49,46.19],[-1.4,46.15],[-1.32,46.13],[-1.21,46.24],[-1.14,46.3],[-1.12,46.31],[-1.03,46.34],[-0.98,46.35],[-0.94,46.35],[-0.89,46.34],[-0.86,46.33],[-0.84,46.32],[-0.79,46.32],[-0.74,46.32],[-0.69,46.32],[-0.61,46.35],[-0.59,46.38],[-0.62,46.42],[-0.63,46.47],[-0.62,46.5],[-0.64,46.59],[-0.68,46.71],[-0.71,46.77],[-0.75,46.82],[-0.8,46.88],[-0.86,46.93],[-0.88,46.96],[-0.87,46.99],[-0.83,47],[-0.75,46.99],[-0.69,47],[-0.64,47],[-0.6,47.02],[-0.59,47.03],[-0.55,47.05],[-0.49,47.06],[-0.41,47.08],[-0.24,47.09],[-0.18,47.09],[-0.11,47.08],[-0.04,47.1],[0.07,47.15]]]},"properties":{"codigo_iso_3166_2":"FR-PDL"}},{"type":"Feature","geometry":{"type":"Polygon","coordinates":[[[-1.08,48.5],[-1.2,48.53],[-1.25,48.53],[-1.29,48.52],[-1.34,48.51],[-1.38,48.5],[-1.42,48.49],[-1.43,48.5],[-1.46,48.51],[-1.5,48.53],[-1.59,48.64],[-1.69,48.76],[-1.77,48.85],[-1.78,48.86],[-1.83,48.87],[-1.84,48.87],[-1.88,48.87],[-1.94,48.87],[-2.07,48.83],[-2.11,48.81],[-2.12,48.81],[-2.14,48.81],[-2.15,48.82],[-2.23,48.84],[-2.28,48.84],[-2.33,48.84],[-2.46,48.83],[-2.57,48.79],[-2.62,48.77],[-2.67,48.81],[-2.84,48.93],[-2.87,48.96],[-2.91,48.99],[-2.95,49.01],[-3.01,49.03],[-3.12,49.04],[-3.16,49.04],[-3.37,49.01],[-3.38,49.01],[-3.46,49.01],[-3.52,49.01],[-3.57,49],[-3.61,48.99],[-3.66,48.97],[-3.73,48.93],[-3.76,48.9],[-3.77,48.89],[-3.82,48.89],[-3.87,48.88],[-3.88,48.88],[-3.93,48.89],[-4.05,48.9],[-4.15,48.89],[-4.35,48.86],[-4.5,48.83],[-4.58,48.81],[-4.73,48.77],[-4.87,48.69],[-4.94,48.64],[-5,48.58],[-5.03,48.51],[-5.05,48.43],[-5.03,48.38],[-5.02,48.35],[-4.99,48.3],[-4.95,48.27],[-4.88,48.23],[-4.83,48.2],[-4.8,48.2],[-4.81,48.19],[-4.84,48.16],[-4.87,48.11],[-4.88,48.08],[-4.88,48.04],[-4.87,48],[-4.85,47.97],[-4.79,47.92],[-4.75,47.89],[-4.66,47.86],[-4.64,47.85],[-4.63,47.84],[-4.62,47.82],[-4.54,47.74],[-4.45,47.69],[-4.4,47.67],[-4.35,47.65],[-4.23,47.64],[-4.18,47.64],[-4.12,47.65],[-4.03,47.68],[-3.88,47.63],[-3.67,47.6],[-3.66,47.59],[-3.65,47.59],[-3.61,47.57],[-3.57,47.56],[-3.46,47.54],[-3.43,47.53],[-3.31,47.48],[-3.19,47.44],[-3.05,47.42],[-2.91,47.42],[-2.89,47.43],[-2.81,47.39],[-2.79,47.38],[-2.71,47.37],[-2.7,47.37],[-2.65,47.41],[-2.6,47.44],[-2.51,47.47],[-2.48,47.49],[-2.46,47.45],[-2.24,47.51],[-2.21,47.52],[-2.17,47.53],[-2.13,47.55],[-2.1,47.57],[-2.08,47.63],[-2.05,47.66],[-1.96,47.68],[-1.81,47.7],[-1.74,47.72],[-1.67,47.74],[-1.6,47.76],[-1.55,47.78],[-1.49,47.8],[-1.43,47.81],[-1.38,47.81],[-1.29,47.79],[-1.25,47.79],[-1.23,47.82],[-1.2,47.9],[-1.15,47.96],[-1.09,47.99],[-1.07,48.01],[-1.06,48.05],[-1.06,48.1],[-1.09,48.22],[-1.09,48.29],[-1.08,48.32],[-1.07,48.39],[-1.08,48.5]]]},"properties":{"codigo_iso_3166_2":"FR-BRE"}},{"type":"Feature","geometry":{"type":"Polygon","coordinates":[[[1.16,50.19],[1.08,50.15],[1.05,50.13],[0.99,50.12],[0.93,50.1],[0.84,50.08],[0.72,50.06],[0.64,50.06],[0.56,50.04],[0.39,49.99],[0.19,49.92],[0.07,49.87],[0.03,49.85],[-0.05,49.79],[-0.09,49.74],[-0.16,49.64],[-0.17,49.58],[-0.17,49.55],[-0.15,49.49],[-0.16,49.49],[-0.17,49.48],[-0.2,49.47],[-0.33,49.5],[-0.43,49.52],[-0.8,49.54],[-0.94,49.56],[-0.99,49.57],[-0.99,49.59],[-0.99,49.66],[-1,49.7],[-1.02,49.73],[-1.05,49.76],[-1.15,49.82],[-1.19,49.84],[-1.32,49.87],[-1.44,49.87],[-1.55,49.86],[-1.61,49.84],[-1.62,49.84],[-1.63,49.84],[-1.71,49.85],[-1.75,49.86],[-1.85,49.86],[-1.9,49.85],[-1.96,49.84],[-2.01,49.82],[-2.07,49.77],[-2.11,49.73],[-2.15,49.63],[-2.15,49.53],[-2.13,49.44],[-2.07,49.34],[-1.99,49.26],[-1.93,49.22],[-1.9,49.19],[-1.89,49.17],[-1.88,49.11],[-1.86,49.03],[-1.85,48.97],[-1.85,48.91],[-1.84,48.87],[-1.83,48.87],[-1.78,48.86],[-1.77,48.85],[-1.69,48.76],[-1.59,48.64],[-1.5,48.53],[-1.46,48.51],[-1.43,48.5],[-1.42,48.49],[-1.38,48.5],[-1.34,48.51],[-1.29,48.52],[-1.25,48.53],[-1.2,48.53],[-1.08,48.5],[-0.94,48.5],[-0.86,48.49],[-0.83,48.47],[-0.79,48.46],[-0.73,48.46],[-0.64,48.47],[-0.52,48.48],[-0.42,48.49],[-0.34,48.5],[-0.28,48.51],[-0.24,48.53],[-0.2,48.53],[-0.16,48.51],[-0.12,48.49],[-0.07,48.41],[-0.01,48.38],[0.04,48.39],[0.1,48.41],[0.18,48.44],[0.26,48.46],[0.3,48.45],[0.34,48.44],[0.36,48.43],[0.38,48.41],[0.39,48.35],[0.43,48.31],[0.49,48.28],[0.56,48.26],[0.65,48.25],[0.72,48.23],[0.8,48.19],[0.79,48.28],[0.8,48.31],[0.83,48.34],[0.86,48.37],[0.91,48.39],[0.94,48.42],[0.96,48.44],[0.97,48.46],[0.96,48.49],[0.93,48.54],[0.87,48.61],[0.86,48.65],[0.87,48.68],[0.9,48.7],[1.01,48.74],[1.07,48.75],[1.18,48.75],[1.23,48.76],[1.28,48.77],[1.33,48.8],[1.42,48.85],[1.47,48.9],[1.49,48.94],[1.47,49.01],[1.48,49.05],[1.51,49.06],[1.56,49.07],[1.59,49.08],[1.62,49.11],[1.65,49.14],[1.7,49.23],[1.73,49.28],[1.74,49.32],[1.73,49.41],[1.73,49.44],[1.73,49.49],[1.7,49.58],[1.7,49.62],[1.7,49.66],[1.71,49.7],[1.72,49.73],[1.73,49.79],[1.71,49.85],[1.67,49.88],[1.63,49.92],[1.58,49.95],[1.56,49.96],[1.37,50.07],[1.46,50.16],[1.52,50.22],[1.48,50.24],[1.42,50.25],[1.37,50.25],[1.32,50.25],[1.26,50.24],[1.21,50.22],[1.19,50.21],[1.16,50.19]]]},"properties":{"codigo_iso_3166_2":"FR-NOR"}},{"type":"Feature","geometry":{"type":"Polygon","coordinates":[[[9.02,41.29],[9.08,41.28],[9.2,41.28],[9.28,41.29],[9.32,41.3],[9.39,41.34],[9.43,41.36],[9.53,41.47],[9.59,41.56],[9.63,41.66],[9.64,41.76],[9.64,41.88],[9.65,41.89],[9.7,41.96],[9.75,42.02],[9.78,42.09],[9.8,42.16],[9.8,42.22],[9.8,42.34],[9.78,42.48],[9.77,42.55],[9.75,42.62],[9.71,42.66],[9.71,42.69],[9.72,42.75],[9.71,42.88],[9.68,42.98],[9.67,43.01],[9.64,43.06],[9.61,43.09],[9.58,43.11],[9.54,43.13],[9.49,43.15],[9.42,43.15],[9.38,43.15],[9.33,43.15],[9.29,43.13],[9.25,43.11],[9.19,43.07],[9.17,43.04],[9.1,42.92],[9.09,42.9],[9.07,42.9],[8.93,42.85],[8.88,42.81],[8.84,42.8],[8.73,42.77],[8.61,42.71],[8.55,42.67],[8.48,42.61],[8.46,42.58],[8.43,42.52],[8.41,42.51],[8.38,42.48],[8.37,42.45],[8.35,42.38],[8.35,42.35],[8.36,42.31],[8.39,42.27],[8.37,42.23],[8.36,42.19],[8.37,42.12],[8.38,42.09],[8.44,42.02],[8.44,42.01],[8.45,41.98],[8.46,41.94],[8.52,41.87],[8.51,41.85],[8.5,41.79],[8.49,41.75],[8.52,41.68],[8.54,41.65],[8.56,41.62],[8.57,41.61],[8.58,41.55],[8.59,41.51],[8.66,41.43],[8.74,41.38],[8.81,41.35],[8.89,41.32],[8.97,41.3],[9.02,41.29]]]},"properties":{"codigo_iso_3166_2":"FR-COR"}},{"type":"Feature","geometry":{"type":"Polygon","coordinates":[[[3.03,46.79],[3.06,46.84],[3.07,46.9],[3.07,46.98],[3.06,47.03],[3.03,47.13],[2.98,47.23],[2.96,47.27],[2.91,47.31],[2.9,47.36],[2.91,47.41],[2.92,47.46],[2.89,47.49],[2.89,47.53],[2.93,47.55],[2.94,47.57],[2.94,47.6],[2.92,47.64],[2.88,47.68],[2.87,47.72],[2.87,47.75],[2.89,47.77],[2.97,47.8],[3,47.84],[3,47.89],[3.01,47.92],[3.07,47.98],[3.08,48.01],[3.08,48.04],[3.07,48.07],[3.02,48.12],[2.98,48.15],[2.93,48.16],[2.77,48.14],[2.66,48.12],[2.57,48.12],[2.53,48.13],[2.5,48.15],[2.5,48.2],[2.47,48.25],[2.4,48.29],[2.32,48.32],[2.23,48.33],[2.13,48.32],[2.07,48.3],[2.03,48.3],[1.99,48.31],[1.96,48.34],[1.95,48.38],[1.9,48.44],[1.85,48.46],[1.8,48.49],[1.77,48.53],[1.72,48.58],[1.64,48.65],[1.61,48.68],[1.59,48.72],[1.58,48.76],[1.57,48.83],[1.54,48.88],[1.49,48.94],[1.47,48.9],[1.42,48.85],[1.33,48.8],[1.28,48.77],[1.23,48.76],[1.18,48.75],[1.07,48.75],[1.01,48.74],[0.9,48.7],[0.87,48.68],[0.86,48.65],[0.87,48.61],[0.93,48.54],[0.96,48.49],[0.97,48.46],[0.96,48.44],[0.94,48.42],[0.91,48.39],[0.86,48.37],[0.83,48.34],[0.8,48.31],[0.79,48.28],[0.8,48.19],[0.82,48.13],[0.83,48.07],[0.84,48],[0.82,47.93],[0.78,47.85],[0.72,47.78],[0.66,47.73],[0.61,47.7],[0.55,47.68],[0.47,47.66],[0.38,47.63],[0.31,47.6],[0.25,47.56],[0.22,47.52],[0.19,47.42],[0.15,47.35],[0.11,47.3],[0.09,47.24],[0.07,47.15],[0.22,47.08],[0.27,47.05],[0.3,47.02],[0.31,46.98],[0.33,46.95],[0.39,46.94],[0.47,46.94],[0.58,46.96],[0.64,46.95],[0.69,46.93],[0.75,46.89],[0.84,46.78],[0.9,46.7],[0.91,46.67],[0.92,46.64],[0.95,46.61],[0.99,46.59],[1.07,46.54],[1.13,46.48],[1.15,46.44],[1.18,46.42],[1.21,46.4],[1.24,46.39],[1.29,46.39],[1.35,46.38],[1.39,46.36],[1.42,46.36],[1.5,46.4],[1.55,46.4],[1.61,46.39],[1.71,46.4],[1.78,46.42],[1.85,46.43],[1.91,46.43],[1.98,46.43],[2.1,46.42],[2.25,46.42],[2.34,46.48],[2.38,46.5],[2.48,46.53],[2.57,46.55],[2.6,46.58],[2.6,46.62],[2.64,46.67],[2.7,46.71],[2.77,46.73],[2.83,46.73],[2.91,46.75],[3.03,46.79]]]},"properties":{"codigo_iso_3166_2":"FR-CVL"}},{"type":"Feature","geometry":{"type":"Polygon","coordinates":[[[1.7,49.23],[1.65,49.14],[1.62,49.11],[1.59,49.08],[1.56,49.07],[1.51,49.06],[1.48,49.05],[1.47,49.01],[1.49,48.94],[1.54,48.88],[1.57,48.83],[1.58,48.76],[1.59,48.72],[1.61,48.68],[1.64,48.65],[1.72,48.58],[1.77,48.53],[1.8,48.49],[1.85,48.46],[1.9,48.44],[1.95,48.38],[1.96,48.34],[1.99,48.31],[2.03,48.3],[2.07,48.3],[2.13,48.32],[2.23,48.33],[2.32,48.32],[2.4,48.29],[2.47,48.25],[2.5,48.2],[2.5,48.15],[2.53,48.13],[2.57,48.12],[2.66,48.12],[2.77,48.14],[2.93,48.16],[2.99,48.23],[3.03,48.28],[3.04,48.33],[3.06,48.34],[3.1,48.36],[3.16,48.36],[3.3,48.37],[3.38,48.39],[3.4,48.41],[3.39,48.45],[3.42,48.49],[3.51,48.59],[3.51,48.62],[3.48,48.64],[3.44,48.69],[3.41,48.74],[3.42,48.79],[3.48,48.85],[3.44,48.85],[3.38,48.88],[3.27,48.94],[3.18,49.01],[3.12,49.07],[3.09,49.09],[3.04,49.1],[2.97,49.09],[2.83,49.08],[2.73,49.08],[2.64,49.09],[2.56,49.1],[2.49,49.12],[2.37,49.16],[2.3,49.17],[2.25,49.17],[2.18,49.18],[2.14,49.19],[2.05,49.2],[1.96,49.19],[1.87,49.18],[1.82,49.19],[1.7,49.23]]]},"properties":{"codigo_iso_3166_2":"FR-IDF"}}]}