{"type":"FeatureCollection","features":[{"type":"Feature","geometry":{"type":"Polygon","coordinates":[[[-7.42,54.94],[-7.55,54.75],[-7.91,54.66],[-7.71,54.6],[-7.89,54.53],[-8,54.54],[-8.16,54.44],[-7.89,54.29],[-7.84,54.2],[-7.61,54.14],[-7.31,54.11],[-7.15,54.25],[-7.19,54.34],[-7.05,54.41],[-6.87,54.33],[-6.82,54.23],[-6.65,54.17],[-6.62,54.04],[-6.28,54.11],[-6.04,54.04],[-5.91,54.09],[-5.87,54.18],[-5.61,54.26],[-5.55,54.37],[-5.64,54.46],[-5.43,54.47],[-5.56,54.67],[-5.75,54.68],[-5.87,54.62],[-5.91,54.65],[-5.88,54.68],[-5.69,54.77],[-5.98,55.06],[-6.1,55.21],[-6.35,55.24],[-6.55,55.23],[-6.84,55.18],[-6.95,55.2],[-7.02,55.07],[-7.15,55.05],[-7.36,55.04],[-7.42,54.94]]]},"properties":{"codigo_iso_3166_2":"GB-NIR"}},{"type":"Feature","geometry":{"type":"MultiPolygon","coordinates":[[[[-3.08,53.26],[-3.36,53.35],[-3.51,53.31],[-3.77,53.32],[-4,53.25],[-4.15,53.23],[-4.23,53.16],[-4.34,53.11],[-4.36,53.03],[-4.6,52.93],[-4.76,52.81],[-4.5,52.83],[-4.41,52.89],[-4.13,52.89],[-4.05,52.72],[-4.12,52.63],[-3.95,52.55],[-4.06,52.49],[-4.2,52.28],[-4.51,52.14],[-4.69,52.11],[-4.96,52.01],[-5.29,51.92],[-5.13,51.86],[-4.94,51.6],[-4.71,51.65],[-4.64,51.73],[-4.38,51.73],[-4.29,51.67],[-4.07,51.68],[-4.29,51.62],[-4.27,51.55],[-3.97,51.56],[-3.89,51.62],[-3.75,51.53],[-3.58,51.42],[-3.29,51.38],[-3.17,51.45],[-3.08,51.51],[-2.8,51.56],[-2.67,51.62],[-2.65,51.82],[-3.05,51.98],[-3.12,52.08],[-3.11,52.17],[-2.96,52.34],[-3.2,52.41],[-3.12,52.57],[-2.96,52.73],[-3.14,52.8],[-3.13,52.88],[-3,52.95],[-2.73,52.97],[-2.85,53.02],[-2.96,53.14],[-3.08,53.26]]],[[[-4.1,53.31],[-4.28,53.4],[-4.55,53.4],[-4.57,53.28],[-4.5,53.18],[-4.34,53.13],[-4.23,53.18],[-4.2,53.22],[-4.1,53.25],[-4.1,53.31]]]]},"properties":{"codigo_iso_3166_2":"GB-WLS"}},{"type":"Feature","geometry":{"type":"MultiPolygon","coordinates":[[[[-2.96,53.14],[-2.85,53.02],[-2.73,52.97],[-3,52.95],[-3.13,52.88],[-3.14,52.8],[-2.96,52.73],[-3.12,52.57],[-3.2,52.41],[-2.96,52.34],[-3.11,52.17],[-3.12,52.08],[-3.05,51.98],[-2.65,51.82],[-2.67,51.62],[-2.54,51.67],[-2.68,51.53],[-2.73,51.5],[-2.82,51.47],[-2.99,51.32],[-3.06,51.21],[-3.38,51.19],[-3.71,51.24],[-4.15,51.21],[-4.23,51.06],[-4.34,51],[-4.53,51.01],[-4.55,50.92],[-4.55,50.81],[-4.79,50.6],[-5.03,50.52],[-5.05,50.43],[-5.44,50.19],[-5.68,50.16],[-5.58,50.05],[-5.47,50.13],[-5.32,50.09],[-5.21,49.97],[-5.1,50.01],[-5.02,50.19],[-4.8,50.23],[-4.75,50.33],[-4.5,50.33],[-4.25,50.36],[-4.2,50.45],[-4.19,50.43],[-4.12,50.35],[-3.95,50.32],[-3.83,50.23],[-3.65,50.23],[-3.63,50.31],[-3.52,50.38],[-3.51,50.51],[-3.47,50.59],[-3.26,50.67],[-2.95,50.73],[-2.69,50.69],[-2.48,50.59],[-2.44,50.64],[-1.98,50.6],[-2.03,50.73],[-1.9,50.72],[-1.8,50.72],[-1.67,50.74],[-1.4,50.77],[-1.32,50.83],[-1.45,50.91],[-1.32,50.86],[-1.15,50.78],[-1.09,50.85],[-0.99,50.85],[-0.93,50.84],[-0.81,50.73],[-0.57,50.8],[-0.21,50.83],[0.02,50.78],[0.27,50.75],[0.37,50.82],[0.87,50.93],[1.03,51.04],[1.36,51.13],[1.41,51.22],[1.42,51.39],[0.98,51.35],[0.67,51.39],[0.69,51.48],[0.51,51.49],[0.38,51.45],[0.55,51.52],[0.65,51.54],[0.83,51.54],[0.95,51.68],[0.89,51.78],[0.99,51.83],[1.14,51.78],[1.29,51.86],[1.26,51.94],[1.08,51.95],[1.33,51.94],[1.58,52.08],[1.63,52.27],[1.77,52.49],[1.75,52.53],[1.75,52.63],[1.64,52.78],[1.27,52.93],[0.97,52.97],[0.57,52.97],[0.38,52.79],[0.28,52.8],[0.02,52.91],[0.33,53.09],[0.34,53.23],[0.22,53.42],[0.02,53.52],[-0.2,53.63],[-0.31,53.71],[-0.7,53.69],[-0.45,53.71],[-0.3,53.74],[-0.05,53.63],[0.13,53.64],[-0.15,53.9],[-0.22,54.02],[-0.2,54.15],[-0.4,54.27],[-0.56,54.48],[-0.78,54.56],[-1.19,54.62],[-1.25,54.73],[-1.34,54.87],[-1.36,54.92],[-1.41,55],[-1.46,55.07],[-1.57,55.29],[-1.63,55.59],[-1.82,55.64],[-2.02,55.81],[-2.16,55.72],[-2.28,55.59],[-2.18,55.46],[-2.36,55.36],[-2.46,55.36],[-2.69,55.19],[-2.85,55.11],[-3.05,54.98],[-3.28,54.94],[-3.39,54.88],[-3.63,54.51],[-3.47,54.39],[-3.24,54.11],[-3.06,54.16],[-2.84,54.17],[-3.02,53.93],[-3.02,53.75],[-2.95,53.71],[-3.1,53.57],[-3.05,53.48],[-2.88,53.33],[-2.81,53.32],[-2.78,53.3],[-2.93,53.3],[-3.06,53.43],[-3.19,53.38],[-3.1,53.29],[-3.08,53.26],[-2.96,53.14]]],[[[-1.08,50.71],[-1.3,50.77],[-1.51,50.71],[-1.32,50.59],[-1.17,50.6],[-1.08,50.71]]]]},"properties":{"codigo_iso_3166_2":"GB-ENG"}},{"type":"Feature","geometry":{"type":"MultiPolygon","coordinates":[[[[-2.02,55.81],[-2.15,55.92],[-2.36,55.95],[-2.64,56.06],[-2.8,56.06],[-3.06,55.95],[-3.08,55.95],[-3.45,56],[-3.51,56.01],[-3.74,56.05],[-3.84,56.11],[-3.75,56.07],[-3.42,56.02],[-3.18,56.06],[-2.96,56.21],[-2.78,56.19],[-2.58,56.28],[-2.82,56.38],[-2.88,56.46],[-3.26,56.35],[-3.06,56.45],[-2.82,56.47],[-2.53,56.58],[-2.44,56.74],[-2.22,56.87],[-2.07,57.1],[-2.04,57.23],[-1.98,57.32],[-1.76,57.47],[-1.83,57.61],[-2.11,57.7],[-2.43,57.67],[-2.82,57.7],[-3.08,57.67],[-3.28,57.72],[-3.75,57.63],[-4.03,57.56],[-4.12,57.59],[-3.91,57.81],[-4.14,57.85],[-4.03,57.95],[-3.22,58.31],[-3.09,58.41],[-3.13,58.51],[-3.02,58.64],[-3.2,58.66],[-3.81,58.57],[-4.16,58.56],[-4.38,58.52],[-4.99,58.63],[-5.05,58.45],[-5.17,58.35],[-5.1,58.28],[-5.31,58.24],[-5.29,57.98],[-5.49,57.86],[-5.61,57.93],[-5.81,57.84],[-5.76,57.63],[-5.87,57.5],[-5.81,57.35],[-5.6,57.28],[-5.83,57],[-5.74,56.89],[-5.91,56.76],[-6,56.62],[-5.67,56.5],[-5.34,56.69],[-5.3,56.64],[-5.41,56.55],[-5.39,56.47],[-5.51,56.4],[-5.6,56.26],[-5.52,56.17],[-5.59,56.01],[-5.7,55.92],[-5.58,55.76],[-5.72,55.56],[-5.77,55.3],[-5.64,55.3],[-5.45,55.59],[-5.43,55.72],[-5.32,55.78],[-5.41,55.87],[-5.45,56.01],[-5.31,56.01],[-4.98,55.87],[-4.9,56],[-4.59,55.94],[-4.49,55.93],[-4.63,55.93],[-4.79,55.96],[-4.89,55.87],[-4.92,55.71],[-4.67,55.56],[-4.63,55.47],[-4.75,55.41],[-4.88,55.22],[-5.01,55.14],[-5.03,54.99],[-5.17,55.01],[-5.13,54.85],[-4.95,54.81],[-4.86,54.87],[-4.6,54.78],[-4.51,54.7],[-4.35,54.7],[-4.35,54.81],[-3.96,54.77],[-3.84,54.87],[-3.6,54.88],[-3.58,54.97],[-3.05,54.98],[-2.85,55.11],[-2.69,55.19],[-2.46,55.36],[-2.36,55.36],[-2.18,55.46],[-2.28,55.59],[-2.16,55.72],[-2.02,55.81]]],[[[-5.07,55.51],[-5.16,55.68],[-5.36,55.69],[-5.35,55.48],[-5.16,55.43],[-5.07,55.51]]],[[[-6.03,55.73],[-6.12,55.93],[-6.41,55.86],[-6.49,55.74],[-6.32,55.73],[-6.22,55.63],[-6.03,55.73]]],[[[-5.8,56.11],[-5.92,56.06],[-6.08,55.92],[-5.96,55.8],[-5.74,56.08],[-5.8,56.11]]],[[[-5.69,56.43],[-5.72,56.49],[-5.95,56.52],[-6.06,56.64],[-6.29,56.61],[-6.29,56.53],[-6.13,56.47],[-6.33,56.28],[-6.15,56.28],[-5.72,56.35],[-5.69,56.43]]],[[[-6.56,57.35],[-6.32,57.16],[-6.02,57.2],[-5.92,57.05],[-5.69,57.19],[-6.11,57.32],[-6.15,57.59],[-6.31,57.7],[-6.71,57.51],[-6.71,57.38],[-6.56,57.35]]],[[[-7.24,57.33],[-7.35,57.41],[-7.46,57.24],[-7.27,57.15],[-7.24,57.33]]],[[[-7.13,57.65],[-7.18,57.69],[-7.54,57.59],[-7.29,57.51],[-7.13,57.54],[-7.13,57.65]]],[[[-6.96,57.74],[-6.54,57.92],[-6.35,58.04],[-6.39,58.1],[-6.32,58.27],[-6.17,58.42],[-6.35,58.46],[-6.82,58.29],[-6.9,58.17],[-7.06,58.23],[-7.13,58.12],[-7.04,57.96],[-6.9,57.94],[-7.08,57.81],[-6.96,57.74]]],[[[-2.73,58.97],[-3.01,59.02],[-3.08,59.13],[-3.32,59.13],[-3.37,59.02],[-3.2,58.92],[-2.97,58.95],[-2.84,58.88],[-2.73,58.97]]],[[[-1.1,60.42],[-1.34,60.53],[-1.44,60.46],[-1.4,60.32],[-1.66,60.31],[-1.67,60.24],[-1.26,60.12],[-1.38,59.91],[-1.27,59.88],[-1.08,60.32],[-1.1,60.42]]]]},"properties":{"codigo_iso_3166_2":"GB-SCT"}}]}