{"type":"FeatureCollection","features":[{"type":"Feature","geometry":{"type":"Polygon","coordinates":[[[6.85,45.36],[6.87,45.37],[6.86,45.38],[6.92,45.39],[6.95,45.39],[6.98,45.4],[7.01,45.42],[7.04,45.44],[7.07,45.48],[7.08,45.47],[7.27,45.5],[7.33,45.51],[7.34,45.52],[7.35,45.52],[7.4,45.53],[7.45,45.55],[7.49,45.56],[7.53,45.58],[7.58,45.58],[7.62,45.58],[7.68,45.57],[7.76,45.57],[7.83,45.59],[7.86,45.6],[7.88,45.62],[7.9,45.65],[7.9,45.67],[7.91,45.71],[7.9,45.76],[7.87,45.8],[7.86,45.85],[7.86,45.9],[7.85,45.94],[7.83,45.94],[7.78,46.12],[7.77,46.12],[7.75,46.11],[7.74,46.12],[7.67,46.13],[7.57,46.15],[7.46,46.14],[7.37,46.12],[7.31,46.1],[7.25,46.08],[7.19,46.07],[7.16,46.06],[7.1,46.07],[6.97,46.05],[6.81,46.02],[6.7,45.98],[6.64,45.95],[6.61,45.92],[6.57,45.87],[6.55,45.83],[6.54,45.74],[6.57,45.67],[6.62,45.6],[6.69,45.55],[6.72,45.54],[6.73,45.5],[6.74,45.46],[6.8,45.4],[6.81,45.39],[6.84,45.36],[6.85,45.36]]]},"properties":{"codigo_iso_3166_2":"IT-23"}},{"type":"Feature","geometry":{"type":"Polygon","coordinates":[[[6.85,45.36],[6.77,45.33],[6.72,45.33],[6.58,45.3],[6.52,45.28],[6.48,45.26],[6.43,45.22],[6.41,45.19],[6.39,45.16],[6.38,45.1],[6.38,45.07],[6.39,45.04],[6.43,44.97],[6.48,44.93],[6.48,44.92],[6.49,44.9],[6.53,44.84],[6.56,44.81],[6.68,44.74],[6.71,44.72],[6.68,44.69],[6.64,44.62],[6.61,44.56],[6.61,44.51],[6.61,44.48],[6.63,44.43],[6.64,44.41],[6.64,44.37],[6.64,44.34],[6.68,44.27],[6.73,44.21],[6.79,44.16],[6.87,44.11],[6.95,44.07],[7.04,44.04],[7.15,44],[7.27,43.97],[7.29,43.97],[7.35,43.96],[7.56,44.06],[7.63,44.08],[7.69,44.08],[7.69,44.09],[7.72,44.12],[7.79,44.13],[7.9,44.12],[7.94,44.13],[7.96,44.13],[7.98,44.13],[8,44.13],[8.03,44.15],[8.06,44.18],[8.08,44.23],[8.08,44.24],[8.07,44.27],[8.08,44.29],[8.1,44.32],[8.12,44.35],[8.19,44.41],[8.23,44.46],[8.24,44.51],[8.26,44.52],[8.32,44.52],[8.45,44.52],[8.49,44.52],[8.51,44.52],[8.55,44.53],[8.58,44.55],[8.59,44.56],[8.61,44.58],[8.65,44.58],[8.67,44.58],[8.69,44.58],[8.75,44.57],[8.8,44.57],[8.84,44.58],[8.86,44.59],[8.88,44.61],[8.91,44.64],[8.95,44.65],[8.99,44.65],[9.03,44.64],[9.12,44.6],[9.17,44.59],[9.2,44.61],[9.2,44.68],[9.16,44.77],[9.14,44.81],[9.1,44.85],[9.04,44.89],[8.98,44.93],[8.92,44.97],[8.86,44.99],[8.8,45.01],[8.75,45.01],[8.7,45.03],[8.66,45.05],[8.63,45.07],[8.6,45.11],[8.56,45.18],[8.53,45.25],[8.53,45.28],[8.54,45.3],[8.57,45.31],[8.64,45.32],[8.72,45.35],[8.77,45.38],[8.79,45.4],[8.8,45.43],[8.79,45.47],[8.72,45.55],[8.66,45.65],[8.6,45.76],[8.58,45.81],[8.59,45.83],[8.59,45.87],[8.59,45.89],[8.62,45.93],[8.62,45.94],[8.7,46],[8.72,46.05],[8.73,46.11],[8.65,46.12],[8.61,46.13],[8.69,46.29],[8.73,46.29],[8.78,46.29],[8.76,46.29],[8.73,46.29],[8.72,46.3],[8.7,46.31],[8.7,46.32],[8.69,46.33],[8.7,46.37],[8.68,46.44],[8.66,46.49],[8.64,46.52],[8.61,46.54],[8.55,46.57],[8.5,46.59],[8.45,46.61],[8.36,46.61],[8.33,46.61],[8.24,46.59],[8.19,46.58],[8.15,46.55],[8.08,46.5],[8.04,46.47],[7.98,46.43],[7.9,46.37],[7.87,46.32],[7.85,46.3],[7.83,46.22],[7.83,46.2],[7.83,46.19],[7.78,46.13],[7.77,46.13],[7.77,46.12],[7.78,46.12],[7.83,45.94],[7.85,45.94],[7.86,45.9],[7.86,45.85],[7.87,45.8],[7.9,45.76],[7.91,45.71],[7.9,45.67],[7.9,45.65],[7.88,45.62],[7.86,45.6],[7.83,45.59],[7.76,45.57],[7.68,45.57],[7.62,45.58],[7.58,45.58],[7.53,45.58],[7.49,45.56],[7.45,45.55],[7.4,45.53],[7.35,45.52],[7.34,45.52],[7.33,45.51],[7.27,45.5],[7.08,45.47],[7.07,45.48],[7.04,45.44],[7.01,45.42],[6.98,45.4],[6.95,45.39],[6.92,45.39],[6.86,45.38],[6.87,45.37],[6.85,45.36]]]},"properties":{"codigo_iso_3166_2":"IT-21"}},{"type":"Feature","geometry":{"type":"Polygon","coordinates":[[[9.2,44.68],[9.27,44.69],[9.31,44.72],[9.34,44.78],[9.35,44.84],[9.32,44.87],[9.32,44.9],[9.33,44.93],[9.35,44.98],[9.38,45.03],[9.41,45.06],[9.44,45.09],[9.48,45.11],[9.5,45.12],[9.57,45.12],[9.63,45.1],[9.67,45.09],[9.71,45.09],[9.76,45.1],[9.85,45.12],[9.89,45.13],[9.95,45.13],[10,45.11],[10.06,45.06],[10.11,45.04],[10.14,45.05],[10.18,45.04],[10.23,45.03],[10.3,45],[10.38,44.97],[10.45,44.95],[10.5,44.93],[10.55,44.93],[10.58,44.93],[10.63,44.95],[10.66,44.97],[10.68,44.98],[10.72,44.97],[10.76,44.96],[10.81,44.94],[10.86,44.93],[10.91,44.92],[10.96,44.93],[11.06,44.95],[11.15,44.96],[11.24,44.95],[11.42,44.95],[11.28,45.02],[11.22,45.06],[11.2,45.09],[11.16,45.1],[11.13,45.1],[11.07,45.12],[11.04,45.14],[10.99,45.18],[10.94,45.21],[10.82,45.28],[10.76,45.31],[10.72,45.34],[10.69,45.36],[10.67,45.42],[10.66,45.45],[10.65,45.54],[10.66,45.59],[10.68,45.64],[10.72,45.69],[10.84,45.83],[10.77,45.84],[10.71,45.84],[10.64,45.81],[10.6,45.81],[10.57,45.83],[10.54,45.86],[10.51,45.91],[10.49,45.95],[10.49,45.99],[10.5,46.03],[10.52,46.07],[10.56,46.13],[10.58,46.19],[10.58,46.24],[10.55,46.3],[10.55,46.32],[10.56,46.36],[10.6,46.38],[10.62,46.41],[10.61,46.44],[10.57,46.47],[10.51,46.49],[10.48,46.51],[10.45,46.55],[10.45,46.56],[10.43,46.58],[10.35,46.63],[10.32,46.66],[10.28,46.71],[10.23,46.79],[10.22,46.8],[10.16,46.8],[10.1,46.8],[10,46.77],[9.96,46.75],[9.86,46.69],[9.8,46.6],[9.77,46.52],[9.69,46.5],[9.67,46.53],[9.65,46.57],[9.58,46.61],[9.54,46.64],[9.45,46.66],[9.41,46.67],[9.33,46.67],[9.27,46.66],[9.18,46.64],[9.14,46.62],[9.1,46.6],[9.05,46.55],[9.03,46.52],[9,46.44],[9,46.35],[9,46.34],[9,46.33],[8.9,46.25],[8.88,46.26],[8.87,46.26],[8.86,46.27],[8.83,46.28],[8.78,46.29],[8.73,46.29],[8.69,46.29],[8.61,46.13],[8.65,46.12],[8.73,46.11],[8.72,46.05],[8.7,46],[8.62,45.94],[8.62,45.93],[8.59,45.89],[8.59,45.87],[8.59,45.83],[8.58,45.81],[8.6,45.76],[8.66,45.65],[8.72,45.55],[8.79,45.47],[8.8,45.43],[8.79,45.4],[8.77,45.38],[8.72,45.35],[8.64,45.32],[8.57,45.31],[8.54,45.3],[8.53,45.28],[8.53,45.25],[8.56,45.18],[8.6,45.11],[8.63,45.07],[8.66,45.05],[8.7,45.03],[8.75,45.01],[8.8,45.01],[8.86,44.99],[8.92,44.97],[8.98,44.93],[9.04,44.89],[9.1,44.85],[9.14,44.81],[9.16,44.77],[9.2,44.68]]]},"properties":{"codigo_iso_3166_2":"IT-25"}},{"type":"Feature","geometry":{"type":"Polygon","coordinates":[[[10.84,45.83],[10.87,45.76],[10.89,45.74],[10.92,45.72],[10.97,45.71],[11.04,45.71],[11.09,45.72],[11.14,45.74],[11.19,45.78],[11.22,45.84],[11.27,45.88],[11.31,45.92],[11.36,45.95],[11.42,45.98],[11.47,45.99],[11.52,46],[11.57,46],[11.61,45.99],[11.65,45.99],[11.67,46],[11.69,46.03],[11.7,46.06],[11.72,46.08],[11.74,46.1],[11.78,46.11],[11.83,46.12],[11.9,46.14],[11.94,46.17],[11.95,46.2],[11.93,46.22],[11.91,46.26],[11.86,46.29],[11.84,46.33],[11.83,46.36],[11.83,46.4],[11.86,46.43],[11.87,46.47],[11.85,46.5],[11.9,46.52],[11.95,46.53],[11.99,46.54],[12.02,46.56],[12.05,46.59],[12.07,46.62],[12.09,46.64],[12.12,46.65],[12.14,46.64],[12.17,46.63],[12.21,46.62],[12.22,46.62],[12.25,46.62],[12.31,46.63],[12.47,46.68],[12.49,46.68],[12.51,46.71],[12.53,46.74],[12.54,46.75],[12.57,46.85],[12.59,46.85],[12.57,46.86],[12.52,46.88],[12.49,46.9],[12.47,46.93],[12.44,46.96],[12.41,46.99],[12.4,47],[12.41,47],[12.42,47.04],[12.41,47.08],[12.41,47.11],[12.39,47.14],[12.37,47.17],[12.34,47.2],[12.3,47.22],[12.24,47.24],[12.19,47.25],[12.15,47.25],[12.03,47.25],[11.88,47.21],[11.76,47.18],[11.72,47.16],[11.71,47.17],[11.57,47.18],[11.4,47.17],[11.3,47.16],[11.21,47.15],[11.12,47.12],[11.03,47.09],[10.95,47.05],[10.88,47],[10.85,46.97],[10.82,46.99],[10.73,47.02],[10.62,47.03],[10.53,47.03],[10.42,47.01],[10.31,46.97],[10.23,46.91],[10.19,46.86],[10.18,46.84],[10.16,46.8],[10.22,46.8],[10.23,46.79],[10.28,46.71],[10.32,46.66],[10.35,46.63],[10.43,46.58],[10.45,46.56],[10.45,46.55],[10.48,46.51],[10.51,46.49],[10.57,46.47],[10.61,46.44],[10.62,46.41],[10.6,46.38],[10.56,46.36],[10.55,46.32],[10.55,46.3],[10.58,46.24],[10.58,46.19],[10.56,46.13],[10.52,46.07],[10.5,46.03],[10.49,45.99],[10.49,45.95],[10.51,45.91],[10.54,45.86],[10.57,45.83],[10.6,45.81],[10.64,45.81],[10.71,45.84],[10.77,45.84],[10.84,45.83]]]},"properties":{"codigo_iso_3166_2":"IT-32"}},{"type":"Feature","geometry":{"type":"Polygon","coordinates":[[[7.29,43.97],[7.25,43.92],[7.25,43.91],[7.24,43.87],[7.24,43.84],[7.25,43.79],[7.26,43.75],[7.31,43.7],[7.35,43.67],[7.42,43.64],[7.45,43.63],[7.55,43.61],[7.7,43.62],[7.86,43.64],[8.02,43.68],[8.09,43.7],[8.16,43.73],[8.23,43.77],[8.29,43.81],[8.35,43.86],[8.39,43.92],[8.41,43.96],[8.43,43.97],[8.44,43.98],[8.46,43.99],[8.5,44.02],[8.56,44.05],[8.61,44.1],[8.66,44.15],[8.67,44.17],[8.68,44.18],[8.71,44.2],[8.76,44.22],[8.81,44.23],[8.82,44.24],[8.86,44.23],[8.92,44.22],[9,44.21],[9.08,44.19],[9.15,44.17],[9.21,44.15],[9.33,44.09],[9.53,43.99],[9.6,43.95],[9.69,43.92],[9.76,43.91],[9.82,43.91],[9.83,43.92],[9.89,43.9],[9.93,43.89],[9.93,43.88],[9.96,43.88],[9.98,43.87],[10.03,43.87],[10.08,43.87],[10.13,43.88],[10.17,43.9],[10.19,43.91],[10.16,43.95],[10.1,44.01],[10.03,44.05],[10.05,44.08],[10.03,44.1],[9.93,44.16],[9.89,44.2],[9.88,44.2],[9.85,44.24],[9.79,44.29],[9.78,44.3],[9.69,44.36],[9.63,44.4],[9.61,44.42],[9.56,44.42],[9.54,44.42],[9.53,44.42],[9.5,44.42],[9.49,44.44],[9.48,44.46],[9.48,44.53],[9.46,44.57],[9.41,44.58],[9.33,44.6],[9.2,44.61],[9.17,44.59],[9.12,44.6],[9.03,44.64],[8.99,44.65],[8.95,44.65],[8.91,44.64],[8.88,44.61],[8.86,44.59],[8.84,44.58],[8.8,44.57],[8.75,44.57],[8.69,44.58],[8.67,44.58],[8.65,44.58],[8.61,44.58],[8.59,44.56],[8.58,44.55],[8.55,44.53],[8.51,44.52],[8.49,44.52],[8.45,44.52],[8.32,44.52],[8.26,44.52],[8.24,44.51],[8.23,44.46],[8.19,44.41],[8.12,44.35],[8.1,44.32],[8.08,44.29],[8.07,44.27],[8.08,44.24],[8.08,44.23],[8.06,44.18],[8.03,44.15],[8,44.13],[7.98,44.13],[7.96,44.13],[7.94,44.13],[7.9,44.12],[7.79,44.13],[7.72,44.12],[7.69,44.09],[7.69,44.08],[7.63,44.08],[7.56,44.06],[7.35,43.96],[7.29,43.97]]]},"properties":{"codigo_iso_3166_2":"IT-42"}},{"type":"Feature","geometry":{"type":"Polygon","coordinates":[[[9.2,44.61],[9.33,44.6],[9.41,44.58],[9.46,44.57],[9.48,44.53],[9.48,44.46],[9.49,44.44],[9.5,44.42],[9.53,44.42],[9.54,44.42],[9.56,44.42],[9.61,44.42],[9.63,44.4],[9.69,44.36],[9.78,44.44],[9.82,44.46],[9.88,44.48],[9.93,44.46],[9.99,44.43],[10.05,44.37],[10.1,44.35],[10.16,44.33],[10.24,44.28],[10.29,44.27],[10.34,44.27],[10.4,44.25],[10.49,44.21],[10.56,44.16],[10.62,44.14],[10.67,44.15],[10.72,44.15],[10.75,44.14],[10.88,44.09],[10.94,44.08],[10.97,44.08],[11.07,44.09],[11.14,44.1],[11.18,44.11],[11.23,44.12],[11.27,44.15],[11.32,44.18],[11.36,44.2],[11.4,44.21],[11.44,44.2],[11.52,44.17],[11.6,44.15],[11.65,44.14],[11.68,44.13],[11.7,44.11],[11.69,44.08],[11.68,44.04],[11.67,44.01],[11.67,43.98],[11.68,43.95],[11.69,43.92],[11.72,43.89],[11.76,43.87],[11.81,43.84],[11.93,43.79],[12.02,43.77],[12.09,43.76],[12.17,43.76],[12.29,43.77],[12.34,43.85],[12.38,43.88],[12.45,43.91],[12.46,43.92],[12.5,43.91],[12.52,43.9],[12.57,43.87],[12.61,43.86],[12.64,43.85],[12.67,43.86],[12.69,43.87],[12.73,43.89],[12.74,43.91],[12.75,43.97],[12.68,44.01],[12.61,44.05],[12.57,44.08],[12.56,44.09],[12.57,44.1],[12.61,44.12],[12.65,44.14],[12.7,44.15],[12.75,44.15],[12.8,44.15],[12.85,44.14],[12.86,44.13],[12.88,44.13],[12.83,44.15],[12.78,44.18],[12.62,44.31],[12.61,44.33],[12.59,44.37],[12.56,44.44],[12.55,44.49],[12.53,44.62],[12.52,44.64],[12.51,44.63],[12.48,44.66],[12.44,44.71],[12.39,44.8],[12.39,44.79],[12.33,44.83],[12.29,44.87],[12.28,44.91],[12.25,44.94],[12.22,44.94],[12.18,44.94],[12.16,44.94],[12.12,44.95],[12.08,44.96],[12.05,44.97],[11.96,44.98],[11.87,44.98],[11.82,44.98],[11.78,44.97],[11.73,44.95],[11.68,44.93],[11.63,44.92],[11.59,44.91],[11.54,44.92],[11.42,44.95],[11.24,44.95],[11.15,44.96],[11.06,44.95],[10.96,44.93],[10.91,44.92],[10.86,44.93],[10.81,44.94],[10.76,44.96],[10.72,44.97],[10.68,44.98],[10.66,44.97],[10.63,44.95],[10.58,44.93],[10.55,44.93],[10.5,44.93],[10.45,44.95],[10.38,44.97],[10.3,45],[10.23,45.03],[10.18,45.04],[10.14,45.05],[10.11,45.04],[10.06,45.06],[10,45.11],[9.95,45.13],[9.89,45.13],[9.85,45.12],[9.76,45.1],[9.71,45.09],[9.67,45.09],[9.63,45.1],[9.57,45.12],[9.5,45.12],[9.48,45.11],[9.44,45.09],[9.41,45.06],[9.38,45.03],[9.35,44.98],[9.33,44.93],[9.32,44.9],[9.32,44.87],[9.35,44.84],[9.34,44.78],[9.31,44.72],[9.27,44.69],[9.2,44.68],[9.2,44.61]]]},"properties":{"codigo_iso_3166_2":"IT-45"}},{"type":"Feature","geometry":{"type":"Polygon","coordinates":[[[12.29,43.77],[12.33,43.74],[12.33,43.71],[12.3,43.69],[12.23,43.66],[12.2,43.64],[12.2,43.62],[12.27,43.58],[12.35,43.55],[12.44,43.53],[12.52,43.5],[12.57,43.46],[12.59,43.45],[12.62,43.44],[12.66,43.44],[12.73,43.45],[12.76,43.43],[12.76,43.38],[12.79,43.32],[12.81,43.27],[12.83,43.23],[12.86,43.17],[12.87,43.12],[12.89,43.05],[12.91,43],[12.93,42.97],[12.96,42.95],[13.03,42.92],[13.1,42.88],[13.13,42.86],[13.17,42.83],[13.21,42.83],[13.19,42.73],[13.34,42.69],[13.4,42.7],[13.44,42.72],[13.49,42.77],[13.52,42.79],[13.55,42.81],[13.59,42.81],[13.62,42.82],[13.68,42.83],[13.72,42.86],[13.79,42.88],[13.91,42.9],[13.87,43.01],[13.85,43.05],[13.85,43.07],[13.86,43.08],[13.91,43.08],[13.96,43.08],[14,43.07],[14.05,43.05],[14.08,43.03],[14.11,43],[14.14,42.97],[14.15,42.94],[14.11,43.06],[14.08,43.12],[13.96,43.37],[13.87,43.59],[13.85,43.62],[13.77,43.69],[13.69,43.73],[13.6,43.77],[13.44,43.83],[13.38,43.86],[13.19,43.98],[13.07,44.05],[12.99,44.09],[12.88,44.13],[12.86,44.13],[12.85,44.14],[12.8,44.15],[12.75,44.15],[12.7,44.15],[12.65,44.14],[12.61,44.12],[12.57,44.1],[12.56,44.09],[12.57,44.08],[12.61,44.05],[12.68,44.01],[12.75,43.97],[12.74,43.91],[12.73,43.89],[12.69,43.87],[12.67,43.86],[12.64,43.85],[12.61,43.86],[12.57,43.87],[12.52,43.9],[12.5,43.91],[12.46,43.92],[12.45,43.91],[12.38,43.88],[12.34,43.85],[12.29,43.77]]]},"properties":{"codigo_iso_3166_2":"IT-57"}},{"type":"Feature","geometry":{"type":"Polygon","coordinates":[[[11.42,44.95],[11.54,44.92],[11.59,44.91],[11.63,44.92],[11.68,44.93],[11.73,44.95],[11.78,44.97],[11.82,44.98],[11.87,44.98],[11.96,44.98],[12.05,44.97],[12.08,44.96],[12.12,44.95],[12.16,44.94],[12.18,44.94],[12.22,44.94],[12.25,44.94],[12.28,44.91],[12.29,44.87],[12.33,44.83],[12.39,44.79],[12.39,44.8],[12.44,44.71],[12.48,44.66],[12.51,44.63],[12.52,44.64],[12.53,44.64],[12.57,44.66],[12.6,44.69],[12.71,44.81],[12.73,44.86],[12.75,44.89],[12.75,44.95],[12.74,44.99],[12.7,45.06],[12.68,45.08],[12.61,45.14],[12.59,45.16],[12.55,45.23],[12.49,45.3],[12.59,45.3],[12.69,45.33],[12.78,45.35],[12.92,45.41],[13.01,45.44],[13.06,45.46],[13.15,45.47],[13.2,45.48],[13.21,45.49],[13.09,45.65],[13.1,45.65],[13.02,45.77],[13,45.78],[12.98,45.8],[12.94,45.81],[12.92,45.82],[12.9,45.82],[12.86,45.83],[12.78,45.82],[12.72,45.81],[12.67,45.81],[12.63,45.82],[12.58,45.84],[12.52,45.89],[12.49,45.92],[12.44,45.97],[12.43,46.01],[12.44,46.05],[12.47,46.08],[12.49,46.12],[12.49,46.15],[12.46,46.2],[12.42,46.23],[12.41,46.23],[12.39,46.25],[12.37,46.27],[12.38,46.29],[12.4,46.32],[12.44,46.35],[12.48,46.38],[12.6,46.48],[12.62,46.49],[12.66,46.51],[12.67,46.51],[12.72,46.53],[12.75,46.55],[12.76,46.57],[12.75,46.64],[12.73,46.64],[12.73,46.68],[12.73,46.71],[12.71,46.75],[12.71,46.76],[12.72,46.82],[12.75,46.82],[12.8,46.82],[12.85,46.81],[12.8,46.82],[12.72,46.83],[12.59,46.85],[12.57,46.85],[12.54,46.75],[12.53,46.74],[12.51,46.71],[12.49,46.68],[12.47,46.68],[12.31,46.63],[12.25,46.62],[12.22,46.62],[12.21,46.62],[12.17,46.63],[12.14,46.64],[12.12,46.65],[12.09,46.64],[12.07,46.62],[12.05,46.59],[12.02,46.56],[11.99,46.54],[11.95,46.53],[11.9,46.52],[11.85,46.5],[11.87,46.47],[11.86,46.43],[11.83,46.4],[11.83,46.36],[11.84,46.33],[11.86,46.29],[11.91,46.26],[11.93,46.22],[11.95,46.2],[11.94,46.17],[11.9,46.14],[11.83,46.12],[11.78,46.11],[11.74,46.1],[11.72,46.08],[11.7,46.06],[11.69,46.03],[11.67,46],[11.65,45.99],[11.61,45.99],[11.57,46],[11.52,46],[11.47,45.99],[11.42,45.98],[11.36,45.95],[11.31,45.92],[11.27,45.88],[11.22,45.84],[11.19,45.78],[11.14,45.74],[11.09,45.72],[11.04,45.71],[10.97,45.71],[10.92,45.72],[10.89,45.74],[10.87,45.76],[10.84,45.83],[10.72,45.69],[10.68,45.64],[10.66,45.59],[10.65,45.54],[10.66,45.45],[10.67,45.42],[10.69,45.36],[10.72,45.34],[10.76,45.31],[10.82,45.28],[10.94,45.21],[10.99,45.18],[11.04,45.14],[11.07,45.12],[11.13,45.1],[11.16,45.1],[11.2,45.09],[11.22,45.06],[11.28,45.02],[11.42,44.95]]]},"properties":{"codigo_iso_3166_2":"IT-34"}},{"type":"Feature","geometry":{"type":"Polygon","coordinates":[[[13.21,45.49],[13.24,45.5],[13.28,45.52],[13.31,45.55],[13.32,45.55],[13.42,45.54],[13.47,45.53],[13.52,45.54],[13.6,45.56],[13.63,45.55],[13.71,45.54],[13.76,45.54],[13.81,45.54],[13.86,45.55],[13.91,45.57],[13.94,45.6],[13.97,45.63],[14,45.68],[14.01,45.72],[14.02,45.75],[14.01,45.79],[13.99,45.82],[13.96,45.85],[13.86,45.91],[13.86,45.95],[13.85,46],[13.83,46.03],[13.84,46.04],[13.87,46.09],[13.88,46.12],[13.89,46.15],[13.89,46.19],[13.88,46.22],[13.86,46.25],[13.83,46.28],[13.77,46.31],[13.8,46.33],[13.86,46.39],[13.88,46.42],[13.9,46.45],[13.91,46.5],[13.9,46.54],[13.89,46.57],[13.85,46.62],[13.81,46.65],[13.7,46.7],[13.61,46.72],[13.46,46.74],[13.32,46.73],[13.29,46.73],[13.27,46.74],[13.25,46.74],[13.15,46.77],[13.01,46.78],[12.91,46.79],[12.9,46.79],[12.88,46.8],[12.85,46.81],[12.8,46.82],[12.75,46.82],[12.72,46.82],[12.71,46.76],[12.71,46.75],[12.73,46.71],[12.73,46.68],[12.73,46.64],[12.75,46.64],[12.76,46.57],[12.75,46.55],[12.72,46.53],[12.67,46.51],[12.66,46.51],[12.62,46.49],[12.6,46.48],[12.48,46.38],[12.44,46.35],[12.4,46.32],[12.38,46.29],[12.37,46.27],[12.39,46.25],[12.41,46.23],[12.42,46.23],[12.46,46.2],[12.49,46.15],[12.49,46.12],[12.47,46.08],[12.44,46.05],[12.43,46.01],[12.44,45.97],[12.49,45.92],[12.52,45.89],[12.58,45.84],[12.63,45.82],[12.67,45.81],[12.72,45.81],[12.78,45.82],[12.86,45.83],[12.9,45.82],[12.92,45.82],[12.94,45.81],[12.98,45.8],[13,45.78],[13.02,45.77],[13.1,45.65],[13.09,45.65],[13.21,45.49]]]},"properties":{"codigo_iso_3166_2":"IT-36"}},{"type":"Feature","geometry":{"type":"Polygon","coordinates":[[[13.34,42.69],[13.37,42.63],[13.36,42.62],[13.34,42.6],[13.31,42.6],[13.26,42.59],[13.19,42.58],[13.16,42.56],[13.15,42.52],[13.17,42.42],[13.17,42.4],[13.17,42.36],[13.19,42.32],[13.26,42.25],[13.28,42.22],[13.29,42.2],[13.29,42.17],[13.26,42.16],[13.21,42.14],[13.18,42.15],[13.12,42.16],[13.07,42.15],[13.04,42.12],[13.03,42.09],[13.03,42.06],[13.05,42.04],[13.08,42.02],[13.13,42],[13.2,41.98],[13.26,41.96],[13.3,41.93],[13.34,41.91],[13.37,41.88],[13.4,41.85],[13.44,41.83],[13.47,41.81],[13.52,41.79],[13.58,41.78],[13.62,41.8],[13.66,41.8],[13.74,41.76],[13.82,41.73],[13.92,41.7],[13.95,41.69],[14.09,41.73],[14.13,41.75],[14.16,41.77],[14.17,41.78],[14.15,41.81],[14.17,41.84],[14.26,41.9],[14.31,41.9],[14.34,41.88],[14.41,41.85],[14.43,41.83],[14.47,41.8],[14.49,41.81],[14.53,41.83],[14.58,41.87],[14.65,41.92],[14.69,41.97],[14.73,42.01],[14.75,42.04],[14.76,42.08],[14.79,42.07],[14.89,42.24],[14.95,42.22],[14.9,42.26],[14.86,42.3],[14.73,42.37],[14.67,42.41],[14.58,42.48],[14.36,42.63],[14.33,42.65],[14.31,42.68],[14.27,42.72],[14.19,42.84],[14.16,42.89],[14.15,42.94],[14.14,42.97],[14.11,43],[14.08,43.03],[14.05,43.05],[14,43.07],[13.96,43.08],[13.91,43.08],[13.86,43.08],[13.85,43.07],[13.85,43.05],[13.87,43.01],[13.91,42.9],[13.79,42.88],[13.72,42.86],[13.68,42.83],[13.62,42.82],[13.59,42.81],[13.55,42.81],[13.52,42.79],[13.49,42.77],[13.44,42.72],[13.4,42.7],[13.34,42.69]]]},"properties":{"codigo_iso_3166_2":"IT-65"}},{"type":"Feature","geometry":{"type":"Polygon","coordinates":[[[13.95,41.69],[13.99,41.59],[14,41.56],[13.99,41.51],[13.96,41.47],[14.01,41.42],[14.03,41.41],[14.05,41.42],[14.07,41.43],[14.11,41.48],[14.16,41.5],[14.21,41.49],[14.28,41.47],[14.36,41.45],[14.41,41.43],[14.52,41.39],[14.57,41.38],[14.61,41.38],[14.67,41.39],[14.75,41.41],[15,41.48],[14.96,41.51],[14.94,41.54],[14.93,41.59],[14.94,41.6],[14.96,41.62],[15.01,41.63],[15.05,41.66],[15.08,41.69],[15.1,41.72],[15.11,41.75],[15.11,41.76],[15.12,41.81],[15.14,41.93],[15.17,41.93],[15.21,42.11],[15.23,42.1],[15.22,42.11],[15.18,42.13],[15.12,42.16],[15,42.2],[14.95,42.22],[14.89,42.24],[14.79,42.07],[14.76,42.08],[14.75,42.04],[14.73,42.01],[14.69,41.97],[14.65,41.92],[14.58,41.87],[14.53,41.83],[14.49,41.81],[14.47,41.8],[14.43,41.83],[14.41,41.85],[14.34,41.88],[14.31,41.9],[14.26,41.9],[14.17,41.84],[14.15,41.81],[14.17,41.78],[14.16,41.77],[14.13,41.75],[14.09,41.73],[13.95,41.69]]]},"properties":{"codigo_iso_3166_2":"IT-67"}},{"type":"Feature","geometry":{"type":"Polygon","coordinates":[[[15,41.48],[15.06,41.45],[15.08,41.42],[15.08,41.37],[15.08,41.33],[15.1,41.31],[15.13,41.28],[15.18,41.27],[15.21,41.26],[15.24,41.24],[15.24,41.22],[15.22,41.17],[15.24,41.13],[15.28,41.11],[15.34,41.1],[15.4,41.1],[15.47,41.09],[15.56,41.06],[15.59,41.09],[15.63,41.11],[15.71,41.1],[15.78,41.11],[15.83,41.13],[15.85,41.13],[15.89,41.12],[15.92,41.1],[15.97,41.07],[16,41.04],[16.01,41.01],[16.02,40.99],[16.01,40.98],[16.01,40.96],[16.03,40.95],[16.07,40.94],[16.12,40.92],[16.16,40.91],[16.22,40.88],[16.25,40.85],[16.34,40.76],[16.38,40.74],[16.41,40.73],[16.44,40.73],[16.49,40.75],[16.55,40.76],[16.6,40.76],[16.66,40.74],[16.68,40.74],[16.7,40.72],[16.71,40.69],[16.72,40.66],[16.71,40.61],[16.72,40.57],[16.73,40.55],[16.73,40.54],[16.74,40.53],[16.77,40.49],[16.86,40.39],[16.79,40.28],[16.78,40.27],[16.81,40.25],[16.84,40.22],[16.84,40.21],[16.86,40.21],[16.91,40.21],[16.95,40.22],[16.99,40.24],[17.02,40.26],[17.03,40.26],[17.03,40.27],[17.06,40.29],[17.07,40.3],[17.12,40.25],[17.21,40.21],[17.3,40.18],[17.39,40.15],[17.48,40.13],[17.57,40.12],[17.7,40.11],[17.72,40.11],[17.77,40.05],[17.77,40.04],[17.78,39.98],[17.8,39.92],[17.85,39.84],[17.94,39.77],[18.04,39.71],[18.15,39.67],[18.25,39.65],[18.3,39.64],[18.34,39.64],[18.41,39.66],[18.45,39.67],[18.49,39.68],[18.55,39.73],[18.58,39.75],[18.62,39.84],[18.65,39.94],[18.66,39.95],[18.66,39.96],[18.67,39.97],[18.69,39.99],[18.72,40.05],[18.73,40.07],[18.73,40.15],[18.72,40.22],[18.68,40.29],[18.62,40.38],[18.53,40.47],[18.43,40.55],[18.33,40.61],[18.3,40.63],[18.28,40.65],[18.27,40.66],[18.24,40.7],[18.19,40.75],[18.12,40.8],[18.04,40.83],[17.99,40.84],[17.96,40.85],[17.91,40.88],[17.81,40.92],[17.63,40.98],[17.59,41],[17.57,41.01],[17.48,41.08],[17.38,41.14],[17.26,41.2],[17.07,41.27],[16.71,41.37],[16.53,41.44],[16.3,41.53],[16.21,41.57],[16.31,41.63],[16.37,41.7],[16.4,41.75],[16.41,41.78],[16.41,41.86],[16.38,41.94],[16.35,41.99],[16.31,42.03],[16.29,42.05],[16.23,42.08],[16.19,42.09],[16.05,42.12],[15.92,42.11],[15.8,42.1],[15.57,42.11],[15.49,42.1],[15.4,42.09],[15.35,42.1],[15.23,42.1],[15.21,42.11],[15.17,41.93],[15.14,41.93],[15.12,41.81],[15.11,41.76],[15.11,41.75],[15.1,41.72],[15.08,41.69],[15.05,41.66],[15.01,41.63],[14.96,41.62],[14.94,41.6],[14.93,41.59],[14.94,41.54],[14.96,41.51],[15,41.48]]]},"properties":{"codigo_iso_3166_2":"IT-75"}},{"type":"Feature","geometry":{"type":"Polygon","coordinates":[[[15.56,41.06],[15.55,40.99],[15.53,40.96],[15.51,40.94],[15.48,40.92],[15.4,40.9],[15.36,40.87],[15.35,40.83],[15.36,40.79],[15.38,40.74],[15.42,40.7],[15.45,40.68],[15.48,40.65],[15.5,40.61],[15.53,40.57],[15.55,40.51],[15.58,40.47],[15.61,40.43],[15.64,40.41],[15.69,40.38],[15.74,40.33],[15.76,40.31],[15.77,40.28],[15.77,40.26],[15.75,40.23],[15.74,40.22],[15.71,40.17],[15.68,40.12],[15.66,40.09],[15.65,40.05],[15.61,40.06],[15.58,40.05],[15.55,40.02],[15.53,39.99],[15.52,39.95],[15.52,39.92],[15.52,39.88],[15.53,39.85],[15.54,39.84],[15.55,39.83],[15.56,39.82],[15.56,39.81],[15.61,39.87],[15.65,39.87],[15.7,39.87],[15.74,39.88],[15.77,39.89],[15.75,39.92],[15.82,39.98],[15.85,39.99],[15.87,40],[15.89,40.01],[15.94,40],[15.97,39.98],[16,39.97],[16.02,39.94],[16.06,39.93],[16.12,39.92],[16.18,39.92],[16.25,39.92],[16.3,39.93],[16.33,39.95],[16.34,39.95],[16.37,39.98],[16.38,40.01],[16.4,40.07],[16.41,40.09],[16.41,40.1],[16.43,40.12],[16.46,40.12],[16.5,40.13],[16.64,40.12],[16.67,40.15],[16.77,40.07],[16.85,40.03],[16.89,40.07],[16.96,40.15],[17,40.2],[17.03,40.24],[17.06,40.29],[17.03,40.27],[17.03,40.26],[17.02,40.26],[16.99,40.24],[16.95,40.22],[16.91,40.21],[16.86,40.21],[16.84,40.21],[16.84,40.22],[16.81,40.25],[16.78,40.27],[16.79,40.28],[16.86,40.39],[16.77,40.49],[16.74,40.53],[16.73,40.54],[16.73,40.55],[16.72,40.57],[16.71,40.61],[16.72,40.66],[16.71,40.69],[16.7,40.72],[16.68,40.74],[16.66,40.74],[16.6,40.76],[16.55,40.76],[16.49,40.75],[16.44,40.73],[16.41,40.73],[16.38,40.74],[16.34,40.76],[16.25,40.85],[16.22,40.88],[16.16,40.91],[16.12,40.92],[16.07,40.94],[16.03,40.95],[16.01,40.96],[16.01,40.98],[16.02,40.99],[16.01,41.01],[16,41.04],[15.97,41.07],[15.92,41.1],[15.89,41.12],[15.85,41.13],[15.83,41.13],[15.78,41.11],[15.71,41.1],[15.63,41.11],[15.59,41.09],[15.56,41.06]]]},"properties":{"codigo_iso_3166_2":"IT-77"}},{"type":"Feature","geometry":{"type":"Polygon","coordinates":[[[15.54,39.84],[15.55,39.83],[15.55,39.81],[15.55,39.8],[15.57,39.74],[15.59,39.64],[15.63,39.55],[15.69,39.45],[15.78,39.36],[15.79,39.35],[15.79,39.34],[15.84,39.14],[15.87,39.05],[15.9,38.98],[15.94,38.91],[15.95,38.9],[15.85,38.87],[15.79,38.84],[15.76,38.83],[15.7,38.78],[15.67,38.75],[15.64,38.69],[15.63,38.66],[15.64,38.57],[15.66,38.53],[15.66,38.52],[15.66,38.51],[15.65,38.48],[15.63,38.45],[15.63,38.44],[15.64,38.42],[15.62,38.31],[15.57,38.04],[15.55,37.89],[15.55,37.83],[15.58,37.8],[15.63,37.78],[15.73,37.76],[15.81,37.76],[15.9,37.76],[16.01,37.76],[16.13,37.79],[16.21,37.83],[16.24,37.85],[16.3,37.91],[16.32,37.94],[16.35,38],[16.37,38.03],[16.39,38.06],[16.41,38.09],[16.48,38.15],[16.5,38.16],[16.51,38.17],[16.6,38.21],[16.69,38.28],[16.74,38.35],[16.77,38.42],[16.79,38.5],[16.79,38.57],[16.78,38.64],[16.78,38.67],[16.78,38.69],[16.79,38.69],[16.81,38.71],[16.85,38.72],[16.9,38.74],[16.92,38.74],[17.04,38.73],[17.16,38.75],[17.21,38.77],[17.25,38.79],[17.32,38.84],[17.35,38.87],[17.38,38.95],[17.39,38.99],[17.38,39.09],[17.36,39.11],[17.36,39.12],[17.37,39.14],[17.38,39.24],[17.36,39.31],[17.36,39.32],[17.37,39.33],[17.38,39.37],[17.38,39.4],[17.35,39.47],[17.34,39.5],[17.32,39.53],[17.25,39.58],[16.97,39.71],[16.9,39.75],[16.87,39.76],[16.76,39.8],[16.78,39.82],[16.82,39.87],[16.85,39.94],[16.85,39.98],[16.85,40.01],[16.85,40.03],[16.77,40.07],[16.67,40.15],[16.64,40.12],[16.5,40.13],[16.46,40.12],[16.43,40.12],[16.41,40.1],[16.41,40.09],[16.4,40.07],[16.38,40.01],[16.37,39.98],[16.34,39.95],[16.33,39.95],[16.3,39.93],[16.25,39.92],[16.18,39.92],[16.12,39.92],[16.06,39.93],[16.02,39.94],[16,39.97],[15.97,39.98],[15.94,40],[15.89,40.01],[15.87,40],[15.85,39.99],[15.82,39.98],[15.75,39.92],[15.77,39.89],[15.74,39.88],[15.7,39.87],[15.65,39.87],[15.61,39.87],[15.56,39.81],[15.56,39.82],[15.55,39.83],[15.54,39.84]]]},"properties":{"codigo_iso_3166_2":"IT-78"}},{"type":"Feature","geometry":{"type":"Polygon","coordinates":[[[13.96,41.47],[13.9,41.44],[13.88,41.42],[13.86,41.39],[13.86,41.35],[13.82,41.3],[13.74,41.24],[13.67,41.06],[13.64,41.07],[13.63,41.07],[13.64,41.05],[13.66,41.03],[13.71,40.98],[13.77,40.89],[13.8,40.84],[13.82,40.8],[13.86,40.74],[13.93,40.7],[14.01,40.66],[14.09,40.64],[14.18,40.63],[14.24,40.63],[14.25,40.6],[14.26,40.57],[14.3,40.51],[14.33,40.49],[14.37,40.47],[14.41,40.45],[14.45,40.44],[14.54,40.44],[14.58,40.44],[14.69,40.46],[14.72,40.42],[14.73,40.41],[14.69,40.34],[14.69,40.3],[14.68,40.26],[14.71,40.18],[14.73,40.15],[14.75,40.12],[14.86,40.05],[14.97,40.01],[15,40],[15.01,40],[15.05,39.96],[15.16,39.88],[15.25,39.85],[15.3,39.83],[15.38,39.82],[15.41,39.82],[15.52,39.84],[15.53,39.85],[15.52,39.88],[15.52,39.92],[15.52,39.95],[15.53,39.99],[15.55,40.02],[15.58,40.05],[15.61,40.06],[15.65,40.05],[15.66,40.09],[15.68,40.12],[15.71,40.17],[15.74,40.22],[15.75,40.23],[15.77,40.26],[15.77,40.28],[15.76,40.31],[15.74,40.33],[15.69,40.38],[15.64,40.41],[15.61,40.43],[15.58,40.47],[15.55,40.51],[15.53,40.57],[15.5,40.61],[15.48,40.65],[15.45,40.68],[15.42,40.7],[15.38,40.74],[15.36,40.79],[15.35,40.83],[15.36,40.87],[15.4,40.9],[15.48,40.92],[15.51,40.94],[15.53,40.96],[15.55,40.99],[15.56,41.06],[15.47,41.09],[15.4,41.1],[15.34,41.1],[15.28,41.11],[15.24,41.13],[15.22,41.17],[15.24,41.22],[15.24,41.24],[15.21,41.26],[15.18,41.27],[15.13,41.28],[15.1,41.31],[15.08,41.33],[15.08,41.37],[15.08,41.42],[15.06,41.45],[15,41.48],[14.75,41.41],[14.67,41.39],[14.61,41.38],[14.57,41.38],[14.52,41.39],[14.41,41.43],[14.36,41.45],[14.28,41.47],[14.21,41.49],[14.16,41.5],[14.11,41.48],[14.07,41.43],[14.05,41.42],[14.03,41.41],[14.01,41.42],[13.96,41.47]]]},"properties":{"codigo_iso_3166_2":"IT-72"}},{"type":"Feature","geometry":{"type":"Polygon","coordinates":[[[13.19,42.73],[13.17,42.68],[13.14,42.66],[13.11,42.65],[13.06,42.64],[12.95,42.61],[12.89,42.59],[12.87,42.57],[12.82,42.53],[12.78,42.52],[12.69,42.47],[12.6,42.42],[12.56,42.39],[12.51,42.38],[12.47,42.39],[12.35,42.47],[12.31,42.5],[12.28,42.53],[12.27,42.56],[12.24,42.63],[12.21,42.66],[12.17,42.67],[12.11,42.67],[12.05,42.66],[11.99,42.67],[11.97,42.69],[11.94,42.72],[11.96,42.76],[11.94,42.79],[11.89,42.85],[11.8,42.82],[11.78,42.81],[11.77,42.78],[11.8,42.75],[11.8,42.71],[11.79,42.66],[11.75,42.62],[11.71,42.61],[11.66,42.58],[11.62,42.57],[11.6,42.55],[11.59,42.52],[11.59,42.49],[11.58,42.46],[11.56,42.44],[11.54,42.41],[11.45,42.37],[11.58,42.31],[11.63,42.29],[11.65,42.27],[11.62,42.24],[11.58,42.22],[11.54,42.2],[11.5,42.19],[11.45,42.19],[11.4,42.19],[11.37,42.2],[11.35,42.21],[11.45,42.16],[11.47,42.15],[11.48,42.14],[11.59,41.98],[11.66,41.92],[11.7,41.9],[11.75,41.88],[11.83,41.86],[11.9,41.82],[11.93,41.8],[11.95,41.78],[11.97,41.76],[11.99,41.72],[12.04,41.66],[12.1,41.61],[12.17,41.56],[12.23,41.53],[12.26,41.51],[12.29,41.48],[12.42,41.37],[12.49,41.32],[12.57,41.28],[12.72,41.25],[12.76,41.24],[12.77,41.24],[12.77,41.23],[12.79,41.21],[12.8,41.19],[12.82,41.16],[12.87,41.12],[12.92,41.1],[13,41.07],[13.05,41.07],[13.16,41.07],[13.25,41.1],[13.28,41.1],[13.42,41.07],[13.51,41.06],[13.56,41.06],[13.61,41.07],[13.63,41.07],[13.64,41.07],[13.67,41.06],[13.74,41.24],[13.82,41.3],[13.86,41.35],[13.86,41.39],[13.88,41.42],[13.9,41.44],[13.96,41.47],[13.99,41.51],[14,41.56],[13.99,41.59],[13.95,41.69],[13.92,41.7],[13.82,41.73],[13.74,41.76],[13.66,41.8],[13.62,41.8],[13.58,41.78],[13.52,41.79],[13.47,41.81],[13.44,41.83],[13.4,41.85],[13.37,41.88],[13.34,41.91],[13.3,41.93],[13.26,41.96],[13.2,41.98],[13.13,42],[13.08,42.02],[13.05,42.04],[13.03,42.06],[13.03,42.09],[13.04,42.12],[13.07,42.15],[13.12,42.16],[13.18,42.15],[13.21,42.14],[13.26,42.16],[13.29,42.17],[13.29,42.2],[13.28,42.22],[13.26,42.25],[13.19,42.32],[13.17,42.36],[13.17,42.4],[13.17,42.42],[13.15,42.52],[13.16,42.56],[13.19,42.58],[13.26,42.59],[13.31,42.6],[13.34,42.6],[13.36,42.62],[13.37,42.63],[13.34,42.69],[13.19,42.73]]]},"properties":{"codigo_iso_3166_2":"IT-62"}},{"type":"Feature","geometry":{"type":"Polygon","coordinates":[[[9.89,43.9],[9.92,43.88],[9.95,43.85],[9.99,43.8],[10,43.78],[10.02,43.75],[10.02,43.71],[10.05,43.56],[10.07,43.47],[10.13,43.38],[10.22,43.3],[10.25,43.26],[10.28,43.22],[10.29,43.19],[10.29,43.16],[10.29,43.09],[10.27,43.03],[10.27,42.99],[10.26,42.99],[10.21,42.98],[10.14,42.98],[10.1,42.97],[10.05,42.96],[10.01,42.95],[9.97,42.92],[9.92,42.88],[9.9,42.85],[9.89,42.82],[9.88,42.78],[9.88,42.75],[9.89,42.72],[9.91,42.69],[9.97,42.63],[10,42.61],[10.04,42.59],[10.08,42.58],[10.23,42.57],[10.32,42.58],[10.36,42.59],[10.4,42.59],[10.48,42.62],[10.55,42.67],[10.57,42.69],[10.59,42.67],[10.68,42.62],[10.76,42.6],[10.8,42.58],[10.84,42.56],[10.92,42.49],[10.93,42.47],[10.93,42.45],[10.94,42.42],[10.96,42.37],[10.99,42.34],[11.09,42.28],[11.18,42.25],[11.35,42.21],[11.37,42.2],[11.4,42.19],[11.45,42.19],[11.5,42.19],[11.54,42.2],[11.58,42.22],[11.62,42.24],[11.65,42.27],[11.63,42.29],[11.58,42.31],[11.45,42.37],[11.54,42.41],[11.56,42.44],[11.58,42.46],[11.59,42.49],[11.59,42.52],[11.6,42.55],[11.62,42.57],[11.66,42.58],[11.71,42.61],[11.75,42.62],[11.79,42.66],[11.8,42.71],[11.8,42.75],[11.77,42.78],[11.78,42.81],[11.8,42.82],[11.89,42.85],[11.92,42.86],[11.94,42.9],[11.96,42.98],[11.97,43.02],[11.97,43.05],[11.96,43.08],[11.93,43.11],[11.93,43.14],[11.96,43.18],[11.99,43.21],[12.04,43.24],[12.11,43.25],[12.13,43.26],[12.15,43.28],[12.15,43.3],[12.14,43.32],[12.11,43.36],[12.07,43.4],[12.06,43.43],[12.07,43.45],[12.12,43.49],[12.16,43.54],[12.2,43.62],[12.2,43.64],[12.23,43.66],[12.3,43.69],[12.33,43.71],[12.33,43.74],[12.29,43.77],[12.17,43.76],[12.09,43.76],[12.02,43.77],[11.93,43.79],[11.81,43.84],[11.76,43.87],[11.72,43.89],[11.69,43.92],[11.68,43.95],[11.67,43.98],[11.67,44.01],[11.68,44.04],[11.69,44.08],[11.7,44.11],[11.68,44.13],[11.65,44.14],[11.6,44.15],[11.52,44.17],[11.44,44.2],[11.4,44.21],[11.36,44.2],[11.32,44.18],[11.27,44.15],[11.23,44.12],[11.18,44.11],[11.14,44.1],[11.07,44.09],[10.97,44.08],[10.94,44.08],[10.88,44.09],[10.75,44.14],[10.72,44.15],[10.67,44.15],[10.62,44.14],[10.56,44.16],[10.49,44.21],[10.4,44.25],[10.34,44.27],[10.29,44.27],[10.24,44.28],[10.16,44.33],[10.1,44.35],[10.05,44.37],[9.99,44.43],[9.93,44.46],[9.88,44.48],[9.82,44.46],[9.78,44.44],[9.69,44.36],[9.78,44.3],[9.79,44.29],[9.85,44.24],[9.88,44.2],[9.89,44.2],[9.93,44.16],[10.03,44.1],[10.05,44.08],[10.03,44.05],[10.1,44.01],[10.16,43.95],[10.19,43.91],[10.17,43.9],[10.13,43.88],[10.08,43.87],[10.03,43.87],[9.98,43.87],[9.96,43.88],[9.93,43.88],[9.93,43.89],[9.89,43.9]]]},"properties":{"codigo_iso_3166_2":"IT-52"}},{"type":"Feature","geometry":{"type":"Polygon","coordinates":[[[15.63,38.44],[15.62,38.44],[15.53,38.46],[15.49,38.46],[15.45,38.46],[15.41,38.45],[15.33,38.41],[15.31,38.41],[15.25,38.4],[15.13,38.37],[15.06,38.33],[15.05,38.34],[14.97,38.35],[14.89,38.36],[14.81,38.36],[14.73,38.34],[14.61,38.3],[14.49,38.23],[14.48,38.22],[14.43,38.22],[14.3,38.2],[14.25,38.2],[14.09,38.22],[14.01,38.22],[13.93,38.21],[13.77,38.16],[13.75,38.18],[13.71,38.21],[13.65,38.24],[13.57,38.27],[13.53,38.28],[13.49,38.31],[13.47,38.33],[13.41,38.36],[13.37,38.37],[13.34,38.38],[13.27,38.38],[13.23,38.38],[13.17,38.36],[13.12,38.37],[13.08,38.36],[13,38.33],[12.96,38.31],[12.93,38.29],[12.9,38.26],[12.9,38.25],[12.82,38.28],[12.75,38.29],[12.71,38.29],[12.64,38.28],[12.6,38.28],[12.48,38.23],[12.4,38.19],[12.35,38.15],[12.31,38.09],[12.28,38.04],[12.23,37.92],[12.23,37.88],[12.22,37.85],[12.22,37.78],[12.23,37.71],[12.26,37.64],[12.31,37.59],[12.36,37.54],[12.43,37.49],[12.5,37.45],[12.58,37.42],[12.67,37.39],[12.76,37.38],[12.82,37.39],[12.83,37.39],[12.83,37.38],[12.86,37.36],[12.95,37.33],[12.99,37.32],[13.06,37.31],[13.12,37.27],[13.21,37.21],[13.27,37.18],[13.37,37.14],[13.43,37.12],[13.46,37.11],[13.54,37.05],[13.64,37],[13.71,36.97],[13.79,36.95],[13.86,36.93],[13.94,36.92],[14.06,36.93],[14.12,36.9],[14.14,36.88],[14.17,36.85],[14.2,36.82],[14.24,36.77],[14.3,36.71],[14.37,36.65],[14.46,36.61],[14.56,36.59],[14.68,36.55],[14.72,36.54],[14.85,36.53],[14.89,36.54],[14.94,36.53],[15.05,36.52],[15.1,36.51],[15.16,36.53],[15.21,36.54],[15.25,36.56],[15.3,36.61],[15.32,36.64],[15.33,36.67],[15.34,36.73],[15.34,36.75],[15.33,36.78],[15.33,36.79],[15.34,36.8],[15.35,36.81],[15.36,36.82],[15.37,36.83],[15.4,36.85],[15.44,36.87],[15.48,36.93],[15.5,36.96],[15.51,36.99],[15.52,37.05],[15.51,37.09],[15.48,37.18],[15.43,37.23],[15.43,37.24],[15.43,37.27],[15.42,37.31],[15.38,37.39],[15.33,37.44],[15.33,37.45],[15.37,37.5],[15.43,37.65],[15.46,37.7],[15.5,37.76],[15.54,37.81],[15.55,37.82],[15.55,37.83],[15.55,37.89],[15.57,38.04],[15.62,38.31],[15.64,38.42],[15.63,38.44]]]},"properties":{"codigo_iso_3166_2":"IT-82"}},{"type":"Feature","geometry":{"type":"Polygon","coordinates":[[[8.87,38.73],[8.9,38.73],[8.93,38.74],[9.04,38.77],[9.12,38.83],[9.18,38.89],[9.23,38.96],[9.24,39.01],[9.25,39.01],[9.32,38.98],[9.4,38.95],[9.46,38.95],[9.5,38.95],[9.57,38.96],[9.61,38.97],[9.64,38.98],[9.71,39.02],[9.74,39.05],[9.76,39.07],[9.79,39.14],[9.8,39.21],[9.88,39.49],[9.92,39.74],[9.93,39.86],[9.93,39.93],[9.93,39.97],[9.95,40.02],[9.95,40.05],[9.95,40.09],[9.92,40.17],[9.9,40.2],[9.88,40.21],[9.9,40.24],[9.97,40.31],[10.03,40.41],[10.05,40.48],[10.05,40.56],[10.03,40.63],[9.92,40.82],[9.91,40.83],[9.91,40.84],[9.91,40.88],[9.88,40.94],[9.85,40.98],[9.82,41],[9.82,41.01],[9.82,41.04],[9.8,41.11],[9.79,41.14],[9.72,41.22],[9.64,41.28],[9.56,41.32],[9.46,41.37],[9.35,41.4],[9.28,41.41],[9.22,41.41],[9.13,41.4],[9.08,41.38],[9.04,41.36],[9,41.32],[8.96,41.31],[8.89,41.27],[8.83,41.23],[8.77,41.18],[8.71,41.13],[8.68,41.11],[8.66,41.09],[8.65,41.09],[8.57,41.07],[8.46,41.02],[8.45,41.02],[8.44,41.02],[8.42,41.02],[8.4,41.03],[8.36,41.05],[8.31,41.06],[8.24,41.07],[8.2,41.06],[8.15,41.06],[8.12,41.04],[8.06,41.01],[8.03,40.99],[7.98,40.92],[7.92,40.81],[7.9,40.72],[7.9,40.7],[7.91,40.62],[7.92,40.59],[7.98,40.5],[8.05,40.45],[8.12,40.42],[8.14,40.41],[8.18,40.33],[8.21,40.28],[8.23,40.24],[8.24,40.17],[8.22,40.15],[8.18,40.07],[8.17,40.01],[8.17,39.95],[8.17,39.91],[8.18,39.88],[8.21,39.84],[8.23,39.81],[8.24,39.8],[8.23,39.79],[8.22,39.76],[8.22,39.61],[8.22,39.59],[8.21,39.58],[8.16,39.46],[8.15,39.43],[8.15,39.36],[8.16,39.33],[8.17,39.3],[8.16,39.25],[8.16,39.22],[8.18,39.14],[8.21,39.08],[8.3,38.98],[8.36,38.93],[8.38,38.92],[8.39,38.91],[8.45,38.84],[8.52,38.79],[8.6,38.76],[8.7,38.73],[8.81,38.72],[8.87,38.73]]]},"properties":{"codigo_iso_3166_2":"IT-88"}},{"type":"Feature","geometry":{"type":"Polygon","coordinates":[[[12.2,43.62],[12.16,43.54],[12.12,43.49],[12.07,43.45],[12.06,43.43],[12.07,43.4],[12.11,43.36],[12.14,43.32],[12.15,43.3],[12.15,43.28],[12.13,43.26],[12.11,43.25],[12.04,43.24],[11.99,43.21],[11.96,43.18],[11.93,43.14],[11.93,43.11],[11.96,43.08],[11.97,43.05],[11.97,43.02],[11.96,42.98],[11.94,42.9],[11.92,42.86],[11.89,42.85],[11.94,42.79],[11.96,42.76],[11.94,42.72],[11.97,42.69],[11.99,42.67],[12.05,42.66],[12.11,42.67],[12.17,42.67],[12.21,42.66],[12.24,42.63],[12.27,42.56],[12.28,42.53],[12.31,42.5],[12.35,42.47],[12.47,42.39],[12.51,42.38],[12.56,42.39],[12.6,42.42],[12.69,42.47],[12.78,42.52],[12.82,42.53],[12.87,42.57],[12.89,42.59],[12.95,42.61],[13.06,42.64],[13.11,42.65],[13.14,42.66],[13.17,42.68],[13.19,42.73],[13.21,42.83],[13.17,42.83],[13.13,42.86],[13.1,42.88],[13.03,42.92],[12.96,42.95],[12.93,42.97],[12.91,43],[12.89,43.05],[12.87,43.12],[12.86,43.17],[12.83,43.23],[12.81,43.27],[12.79,43.32],[12.76,43.38],[12.76,43.43],[12.73,43.45],[12.66,43.44],[12.62,43.44],[12.59,43.45],[12.57,43.46],[12.52,43.5],[12.44,43.53],[12.35,43.55],[12.27,43.58],[12.2,43.62]]]},"properties":{"codigo_iso_3166_2":"IT-55"}}]}