{"type":"FeatureCollection","features":[{"type":"Feature","geometry":{"type":"Polygon","coordinates":[[[-7.05,38.65],[-7.07,38.64],[-7.15,38.7],[-7.21,38.78],[-7.23,38.77],[-7.32,38.79],[-7.35,38.8],[-7.38,38.83],[-7.4,38.86],[-7.41,38.88],[-7.43,38.9],[-7.47,38.93],[-7.53,38.94],[-7.6,38.94],[-7.7,38.92],[-7.78,38.92],[-7.86,38.93],[-7.94,38.95],[-8,38.98],[-8.06,39],[-8.1,39.01],[-8.14,39.01],[-8.2,39],[-8.24,38.94],[-8.27,38.92],[-8.31,38.89],[-8.37,38.86],[-8.55,38.77],[-8.52,38.73],[-8.53,38.72],[-8.53,38.71],[-8.54,38.7],[-8.56,38.67],[-8.6,38.65],[-8.62,38.62],[-8.62,38.6],[-8.6,38.58],[-8.57,38.55],[-8.53,38.54],[-8.5,38.53],[-8.46,38.53],[-8.43,38.53],[-8.39,38.53],[-8.37,38.51],[-8.35,38.48],[-8.33,38.44],[-8.31,38.41],[-8.29,38.38],[-8.25,38.36],[-8.16,38.32],[-8.02,38.31],[-7.96,38.3],[-7.9,38.28],[-7.83,38.27],[-7.77,38.24],[-7.66,38.21],[-7.58,38.2],[-7.54,38.21],[-7.51,38.22],[-7.47,38.24],[-7.45,38.26],[-7.44,38.26],[-7.39,38.3],[-7.32,38.32],[-7.3,38.32],[-7.28,38.31],[-7.27,38.3],[-7.24,38.28],[-7.19,38.22],[-7.17,38.2],[-7.15,38.19],[-7.12,38.18],[-7.14,38.21],[-7.11,38.28],[-7.07,38.31],[-7.04,38.37],[-6.99,38.37],[-7.02,38.4],[-7.02,38.41],[-7.1,38.48],[-7.07,38.53],[-7.05,38.61],[-7.05,38.62],[-7.05,38.65]]]},"properties":{"codigo_iso_3166_2":"PT-07"}},{"type":"Feature","geometry":{"type":"Polygon","coordinates":[[[-7.05,38.65],[-6.98,38.69],[-6.92,38.73],[-6.87,38.78],[-6.82,38.83],[-6.79,38.89],[-6.76,38.96],[-6.76,39.03],[-6.78,39.11],[-6.82,39.18],[-6.88,39.23],[-6.93,39.25],[-6.96,39.27],[-7.02,39.28],[-7.03,39.29],[-7.06,39.33],[-7.08,39.37],[-7.09,39.39],[-7.09,39.42],[-7.1,39.47],[-7.1,39.49],[-7.11,39.51],[-7.12,39.52],[-7.17,39.51],[-7.19,39.53],[-7.33,39.59],[-7.44,39.63],[-7.47,39.64],[-7.52,39.66],[-7.53,39.67],[-7.54,39.68],[-7.55,39.68],[-7.56,39.68],[-7.65,39.66],[-7.71,39.64],[-7.74,39.62],[-7.76,39.59],[-7.77,39.59],[-7.8,39.56],[-7.89,39.55],[-7.92,39.55],[-7.97,39.52],[-7.99,39.48],[-7.99,39.45],[-7.97,39.43],[-7.97,39.41],[-7.98,39.39],[-8,39.36],[-8.08,39.3],[-8.18,39.23],[-8.24,39.18],[-8.28,39.14],[-8.29,39.11],[-8.28,39.07],[-8.2,39],[-8.14,39.01],[-8.1,39.01],[-8.06,39],[-8,38.98],[-7.94,38.95],[-7.86,38.93],[-7.78,38.92],[-7.7,38.92],[-7.6,38.94],[-7.53,38.94],[-7.47,38.93],[-7.43,38.9],[-7.41,38.88],[-7.4,38.86],[-7.38,38.83],[-7.35,38.8],[-7.32,38.79],[-7.23,38.77],[-7.21,38.78],[-7.15,38.7],[-7.07,38.64],[-7.05,38.65]]]},"properties":{"codigo_iso_3166_2":"PT-12"}},{"type":"Feature","geometry":{"type":"Polygon","coordinates":[[[-9.05,41.57],[-9.04,41.56],[-9.04,41.55],[-9.02,41.52],[-9.01,41.51],[-9,41.54],[-8.98,41.57],[-8.95,41.6],[-8.91,41.62],[-8.87,41.64],[-8.83,41.64],[-8.82,41.62],[-8.71,41.64],[-8.7,41.64],[-8.63,41.66],[-8.59,41.68],[-8.56,41.7],[-8.51,41.72],[-8.46,41.74],[-8.41,41.75],[-8.39,41.76],[-8.29,41.78],[-8.18,41.81],[-8.21,41.86],[-8.21,41.88],[-8.2,41.91],[-8.18,41.94],[-8.16,41.97],[-8.15,41.98],[-8.14,41.99],[-8.12,41.99],[-8.1,42],[-8.07,42],[-8.05,42],[-8,42],[-7.98,41.99],[-7.96,42.03],[-7.9,42.04],[-7.9,42.05],[-7.92,42.1],[-7.93,42.13],[-7.98,42.21],[-8.03,42.24],[-8.06,42.26],[-8.13,42.29],[-8.16,42.3],[-8.2,42.31],[-8.28,42.31],[-8.32,42.31],[-8.43,42.27],[-8.52,42.25],[-8.6,42.24],[-8.7,42.21],[-8.8,42.16],[-8.89,42.11],[-8.96,42.05],[-9.02,41.99],[-9.07,41.93],[-9.1,41.88],[-9.11,41.85],[-9.12,41.74],[-9.09,41.65],[-9.05,41.57]]]},"properties":{"codigo_iso_3166_2":"PT-16"}},{"type":"Feature","geometry":{"type":"Polygon","coordinates":[[[-7.12,39.52],[-7.07,39.53],[-6.97,39.56],[-6.93,39.57],[-6.85,39.62],[-6.81,39.64],[-6.75,39.73],[-6.7,39.83],[-6.66,39.94],[-6.66,40.02],[-6.69,40.1],[-6.74,40.15],[-6.81,40.17],[-6.92,40.23],[-6.95,40.25],[-6.94,40.25],[-6.98,40.28],[-7.01,40.28],[-7.06,40.29],[-7.12,40.29],[-7.17,40.29],[-7.2,40.29],[-7.22,40.29],[-7.26,40.3],[-7.29,40.31],[-7.3,40.34],[-7.29,40.36],[-7.3,40.38],[-7.32,40.39],[-7.37,40.38],[-7.5,40.35],[-7.62,40.3],[-7.63,40.3],[-7.78,40.23],[-7.75,40.14],[-7.77,40.11],[-7.82,40.07],[-7.89,40.03],[-8.13,39.92],[-8.28,39.79],[-8.24,39.7],[-8.22,39.67],[-8.19,39.65],[-8.16,39.64],[-8.12,39.63],[-8.09,39.63],[-8.07,39.64],[-8.06,39.67],[-8.05,39.7],[-8.04,39.71],[-8.02,39.71],[-7.98,39.7],[-7.9,39.65],[-7.84,39.61],[-7.8,39.56],[-7.77,39.59],[-7.76,39.59],[-7.74,39.62],[-7.71,39.64],[-7.65,39.66],[-7.56,39.68],[-7.55,39.68],[-7.54,39.68],[-7.53,39.67],[-7.52,39.66],[-7.47,39.64],[-7.44,39.63],[-7.33,39.59],[-7.19,39.53],[-7.17,39.51],[-7.12,39.52]]]},"properties":{"codigo_iso_3166_2":"PT-05"}},{"type":"Feature","geometry":{"type":"Polygon","coordinates":[[[-6.74,40.15],[-6.73,40.15],[-6.67,40.2],[-6.63,40.24],[-6.61,40.26],[-6.59,40.31],[-6.58,40.35],[-6.58,40.41],[-6.6,40.45],[-6.61,40.47],[-6.61,40.5],[-6.59,40.55],[-6.58,40.61],[-6.58,40.67],[-6.59,40.74],[-6.61,40.86],[-6.63,40.93],[-6.64,40.95],[-6.66,40.94],[-6.89,41.01],[-6.93,41.05],[-7.02,41.08],[-7.08,41.1],[-7.11,41.13],[-7.13,41.14],[-7.16,41.16],[-7.19,41.16],[-7.3,41.16],[-7.33,41.08],[-7.37,40.98],[-7.4,40.92],[-7.43,40.89],[-7.47,40.87],[-7.55,40.86],[-7.6,40.83],[-7.61,40.8],[-7.59,40.76],[-7.59,40.75],[-7.57,40.73],[-7.56,40.7],[-7.55,40.67],[-7.56,40.64],[-7.56,40.62],[-7.59,40.59],[-7.62,40.56],[-7.67,40.54],[-7.82,40.5],[-7.79,40.39],[-7.77,40.32],[-7.77,40.29],[-7.78,40.23],[-7.63,40.3],[-7.62,40.3],[-7.5,40.35],[-7.37,40.38],[-7.32,40.39],[-7.3,40.38],[-7.29,40.36],[-7.3,40.34],[-7.29,40.31],[-7.26,40.3],[-7.22,40.29],[-7.2,40.29],[-7.17,40.29],[-7.12,40.29],[-7.06,40.29],[-7.01,40.28],[-6.98,40.28],[-6.94,40.25],[-6.95,40.25],[-6.92,40.23],[-6.81,40.17],[-6.74,40.15]]]},"properties":{"codigo_iso_3166_2":"PT-09"}},{"type":"Feature","geometry":{"type":"Polygon","coordinates":[[[-6.64,40.95],[-6.61,40.98],[-6.55,41.04],[-6.51,41.09],[-6.5,41.11],[-6.49,41.11],[-6.41,41.13],[-6.34,41.17],[-6.27,41.2],[-6.21,41.25],[-6.11,41.34],[-6.05,41.42],[-6.03,41.45],[-6.01,41.51],[-6,41.54],[-6.01,41.6],[-6.02,41.64],[-6.07,41.7],[-6.09,41.73],[-6.18,41.78],[-6.25,41.81],[-6.29,41.82],[-6.3,41.86],[-6.32,41.92],[-6.33,41.95],[-6.38,42],[-6.41,42.03],[-6.51,42.07],[-6.59,42.09],[-6.69,42.11],[-6.8,42.13],[-6.94,42.15],[-7.07,42.15],[-7.15,42.15],[-7.2,42.14],[-7.28,42.11],[-7.31,42.1],[-7.34,42.08],[-7.35,42.08],[-7.37,42.05],[-7.38,42.04],[-7.32,42.05],[-7.22,41.89],[-7.21,41.89],[-7.19,41.84],[-7.18,41.8],[-7.18,41.77],[-7.19,41.73],[-7.19,41.71],[-7.2,41.7],[-7.2,41.69],[-7.23,41.62],[-7.24,41.6],[-7.24,41.56],[-7.26,41.52],[-7.31,41.47],[-7.34,41.45],[-7.35,41.43],[-7.36,41.4],[-7.36,41.34],[-7.38,41.29],[-7.43,41.22],[-7.3,41.16],[-7.19,41.16],[-7.16,41.16],[-7.13,41.14],[-7.11,41.13],[-7.08,41.1],[-7.02,41.08],[-6.93,41.05],[-6.89,41.01],[-6.66,40.94],[-6.64,40.95]]]},"properties":{"codigo_iso_3166_2":"PT-04"}},{"type":"Feature","geometry":{"type":"Polygon","coordinates":[[[-7.98,41.99],[-8,41.97],[-8.04,41.89],[-8.04,41.82],[-8.05,41.82],[-8.08,41.75],[-8.08,41.72],[-8.08,41.7],[-8.06,41.67],[-8.05,41.66],[-8.04,41.65],[-8.03,41.64],[-8.01,41.63],[-7.97,41.61],[-7.93,41.6],[-7.88,41.59],[-7.85,41.58],[-7.84,41.57],[-7.85,41.55],[-7.9,41.5],[-7.94,41.45],[-7.98,41.37],[-7.92,41.3],[-7.9,41.27],[-7.89,41.22],[-7.9,41.16],[-7.68,41.17],[-7.61,41.18],[-7.5,41.2],[-7.43,41.22],[-7.38,41.29],[-7.36,41.34],[-7.36,41.4],[-7.35,41.43],[-7.34,41.45],[-7.31,41.47],[-7.26,41.52],[-7.24,41.56],[-7.24,41.6],[-7.23,41.62],[-7.2,41.69],[-7.2,41.7],[-7.19,41.71],[-7.19,41.73],[-7.18,41.77],[-7.18,41.8],[-7.19,41.84],[-7.21,41.89],[-7.22,41.89],[-7.32,42.05],[-7.38,42.04],[-7.41,42.03],[-7.48,42.01],[-7.52,42.01],[-7.56,42.03],[-7.68,42.06],[-7.8,42.06],[-7.9,42.05],[-7.9,42.04],[-7.96,42.03],[-7.98,41.99]]]},"properties":{"codigo_iso_3166_2":"PT-17"}},{"type":"Feature","geometry":{"type":"Polygon","coordinates":[[[-9.05,41.57],[-9.02,41.46],[-9.02,41.44],[-9.02,41.45],[-9.02,41.47],[-8.97,41.48],[-8.95,41.47],[-8.91,41.45],[-8.87,41.44],[-8.82,41.44],[-8.78,41.44],[-8.78,41.47],[-8.73,41.45],[-8.59,41.41],[-8.56,41.4],[-8.53,41.39],[-8.52,41.39],[-8.47,41.38],[-8.42,41.37],[-8.38,41.37],[-8.3,41.38],[-8.23,41.39],[-8.19,41.39],[-8.15,41.38],[-8.12,41.37],[-8.06,41.35],[-8.05,41.35],[-8.02,41.35],[-7.98,41.37],[-7.94,41.45],[-7.9,41.5],[-7.85,41.55],[-7.84,41.57],[-7.85,41.58],[-7.88,41.59],[-7.93,41.6],[-7.97,41.61],[-8.01,41.63],[-8.03,41.64],[-8.04,41.65],[-8.05,41.66],[-8.06,41.67],[-8.08,41.7],[-8.08,41.72],[-8.08,41.75],[-8.05,41.82],[-8.04,41.82],[-8.04,41.89],[-8,41.97],[-7.98,41.99],[-8,42],[-8.05,42],[-8.07,42],[-8.1,42],[-8.12,41.99],[-8.14,41.99],[-8.15,41.98],[-8.16,41.97],[-8.18,41.94],[-8.2,41.91],[-8.21,41.88],[-8.21,41.86],[-8.18,41.81],[-8.29,41.78],[-8.39,41.76],[-8.41,41.75],[-8.46,41.74],[-8.51,41.72],[-8.56,41.7],[-8.59,41.68],[-8.63,41.66],[-8.7,41.64],[-8.71,41.64],[-8.82,41.62],[-8.83,41.64],[-8.87,41.64],[-8.91,41.62],[-8.95,41.6],[-8.98,41.57],[-9,41.54],[-9.01,41.51],[-9.02,41.52],[-9.04,41.55],[-9.04,41.56],[-9.05,41.57]]]},"properties":{"codigo_iso_3166_2":"PT-03"}},{"type":"Feature","geometry":{"type":"Polygon","coordinates":[[[-7.27,37.54],[-7.51,37.53],[-7.63,37.51],[-7.69,37.5],[-7.73,37.49],[-7.75,37.48],[-7.81,37.46],[-7.93,37.41],[-7.98,37.39],[-8.04,37.36],[-8.08,37.34],[-8.13,37.34],[-8.18,37.36],[-8.24,37.4],[-8.27,37.41],[-8.31,37.42],[-8.35,37.41],[-8.4,37.4],[-8.46,37.39],[-8.49,37.38],[-8.58,37.38],[-8.6,37.38],[-8.62,37.38],[-8.66,37.39],[-8.7,37.41],[-8.8,37.45],[-8.81,37.45],[-9.03,37.49],[-9.04,37.48],[-9.07,37.42],[-9.1,37.34],[-9.1,37.29],[-9.11,37.27],[-9.16,37.19],[-9.18,37.15],[-9.18,37.12],[-9.19,37.07],[-9.18,37.04],[-9.17,37.01],[-9.16,36.98],[-9.12,36.94],[-9.08,36.91],[-9.04,36.89],[-9,36.88],[-8.86,36.88],[-8.72,36.9],[-8.66,36.92],[-8.63,36.93],[-8.61,36.93],[-8.6,36.93],[-8.55,36.92],[-8.42,36.9],[-8.28,36.91],[-8.25,36.9],[-8.22,36.9],[-8.2,36.89],[-8.15,36.87],[-8.07,36.85],[-7.99,36.83],[-7.9,36.83],[-7.81,36.84],[-7.73,36.86],[-7.65,36.89],[-7.56,36.92],[-7.44,36.99],[-7.41,37],[-7.37,37.01],[-7.33,37.03],[-7.3,37.05],[-7.27,37.07],[-7.23,37.12],[-7.22,37.16],[-7.2,37.25],[-7.21,37.33],[-7.25,37.48],[-7.27,37.54]]]},"properties":{"codigo_iso_3166_2":"PT-08"}},{"type":"Feature","geometry":{"type":"Polygon","coordinates":[[[-8.16,38.32],[-8.15,38.26],[-8.16,38.23],[-8.18,38.21],[-8.22,38.19],[-8.31,38.15],[-8.35,38.13],[-8.38,38.1],[-8.38,38.07],[-8.33,38.02],[-8.31,37.99],[-8.3,37.96],[-8.3,37.93],[-8.31,37.9],[-8.33,37.87],[-8.34,37.87],[-8.36,37.86],[-8.4,37.85],[-8.45,37.85],[-8.49,37.84],[-8.52,37.83],[-8.55,37.82],[-8.57,37.79],[-8.58,37.79],[-8.6,37.78],[-8.63,37.78],[-8.67,37.79],[-8.77,37.82],[-8.8,37.83],[-8.8,37.82],[-9.02,37.79],[-9.03,37.81],[-9.03,37.79],[-9.04,37.71],[-9.05,37.59],[-9.05,37.54],[-9.04,37.49],[-9.04,37.48],[-9.03,37.49],[-8.81,37.45],[-8.8,37.45],[-8.7,37.41],[-8.66,37.39],[-8.62,37.38],[-8.6,37.38],[-8.58,37.38],[-8.49,37.38],[-8.46,37.39],[-8.4,37.4],[-8.35,37.41],[-8.31,37.42],[-8.27,37.41],[-8.24,37.4],[-8.18,37.36],[-8.13,37.34],[-8.08,37.34],[-8.04,37.36],[-7.98,37.39],[-7.93,37.41],[-7.81,37.46],[-7.75,37.48],[-7.73,37.49],[-7.69,37.5],[-7.63,37.51],[-7.51,37.53],[-7.27,37.54],[-7.24,37.61],[-7.23,37.64],[-7.22,37.65],[-7.19,37.68],[-7.17,37.7],[-7.1,37.79],[-7.08,37.83],[-7.08,37.84],[-7.07,37.84],[-7.06,37.85],[-7.02,37.85],[-6.95,37.87],[-6.9,37.89],[-6.82,37.96],[-6.78,38.02],[-6.75,38.1],[-6.75,38.15],[-6.75,38.18],[-6.75,38.22],[-6.78,38.26],[-6.8,38.29],[-6.83,38.32],[-6.87,38.34],[-6.94,38.36],[-6.99,38.37],[-7.04,38.37],[-7.07,38.31],[-7.11,38.28],[-7.14,38.21],[-7.12,38.18],[-7.15,38.19],[-7.17,38.2],[-7.19,38.22],[-7.24,38.28],[-7.27,38.3],[-7.28,38.31],[-7.3,38.32],[-7.32,38.32],[-7.39,38.3],[-7.44,38.26],[-7.45,38.26],[-7.47,38.24],[-7.51,38.22],[-7.54,38.21],[-7.58,38.2],[-7.66,38.21],[-7.77,38.24],[-7.83,38.27],[-7.9,38.28],[-7.96,38.3],[-8.02,38.31],[-8.16,38.32]]]},"properties":{"codigo_iso_3166_2":"PT-02"}},{"type":"Feature","geometry":{"type":"Polygon","coordinates":[[[-8.55,38.77],[-8.64,38.81],[-8.68,38.81],[-8.71,38.81],[-8.71,38.8],[-8.73,38.79],[-8.76,38.77],[-8.78,38.75],[-8.81,38.75],[-8.84,38.75],[-8.91,38.77],[-8.92,38.78],[-8.94,38.78],[-8.98,38.79],[-9,38.79],[-9.01,38.79],[-9.02,38.79],[-9.03,38.79],[-9.03,38.78],[-9.04,38.77],[-9.07,38.74],[-9.09,38.72],[-9.11,38.71],[-9.14,38.7],[-9.2,38.68],[-9.23,38.67],[-9.25,38.66],[-9.27,38.64],[-9.3,38.6],[-9.34,38.54],[-9.36,38.52],[-9.37,38.5],[-9.42,38.51],[-9.42,38.46],[-9.41,38.41],[-9.4,38.37],[-9.38,38.34],[-9.34,38.3],[-9.3,38.28],[-9.25,38.26],[-9.18,38.24],[-9.13,38.24],[-9.01,38.27],[-9.01,38.26],[-9.01,38.24],[-9.01,38.22],[-9.02,38.19],[-9.03,38.16],[-9.05,38.1],[-9.07,38.03],[-9.08,37.95],[-9.07,37.87],[-9.03,37.81],[-9.02,37.79],[-8.8,37.82],[-8.8,37.83],[-8.77,37.82],[-8.67,37.79],[-8.63,37.78],[-8.6,37.78],[-8.58,37.79],[-8.57,37.79],[-8.55,37.82],[-8.52,37.83],[-8.49,37.84],[-8.45,37.85],[-8.4,37.85],[-8.36,37.86],[-8.34,37.87],[-8.33,37.87],[-8.31,37.9],[-8.3,37.93],[-8.3,37.96],[-8.31,37.99],[-8.33,38.02],[-8.38,38.07],[-8.38,38.1],[-8.35,38.13],[-8.31,38.15],[-8.22,38.19],[-8.18,38.21],[-8.16,38.23],[-8.15,38.26],[-8.16,38.32],[-8.25,38.36],[-8.29,38.38],[-8.31,38.41],[-8.33,38.44],[-8.35,38.48],[-8.37,38.51],[-8.39,38.53],[-8.43,38.53],[-8.46,38.53],[-8.5,38.53],[-8.53,38.54],[-8.57,38.55],[-8.6,38.58],[-8.62,38.6],[-8.62,38.62],[-8.6,38.65],[-8.56,38.67],[-8.54,38.7],[-8.53,38.71],[-8.53,38.72],[-8.52,38.73],[-8.55,38.77]]]},"properties":{"codigo_iso_3166_2":"PT-15"}},{"type":"Feature","geometry":{"type":"Polygon","coordinates":[[[-8.92,38.78],[-8.94,38.82],[-8.94,38.84],[-8.93,38.88],[-8.9,38.91],[-8.9,38.93],[-8.88,38.95],[-8.79,39.07],[-8.79,39.08],[-8.86,39.14],[-8.89,39.19],[-8.88,39.22],[-8.89,39.24],[-8.89,39.26],[-8.92,39.27],[-8.99,39.3],[-9.04,39.31],[-9.08,39.29],[-9.12,39.27],[-9.12,39.26],[-9.13,39.25],[-9.16,39.24],[-9.18,39.24],[-9.2,39.26],[-9.22,39.28],[-9.24,39.3],[-9.29,39.31],[-9.35,39.29],[-9.35,39.26],[-9.58,39.3],[-9.58,39.29],[-9.58,39.25],[-9.59,39.23],[-9.62,39.16],[-9.65,39.1],[-9.66,39.04],[-9.66,38.99],[-9.66,38.96],[-9.67,38.95],[-9.7,38.89],[-9.72,38.8],[-9.72,38.75],[-9.72,38.72],[-9.7,38.67],[-9.68,38.64],[-9.63,38.59],[-9.6,38.57],[-9.52,38.53],[-9.43,38.51],[-9.42,38.51],[-9.37,38.5],[-9.36,38.52],[-9.34,38.54],[-9.3,38.6],[-9.27,38.64],[-9.25,38.66],[-9.23,38.67],[-9.2,38.68],[-9.14,38.7],[-9.11,38.71],[-9.09,38.72],[-9.07,38.74],[-9.04,38.77],[-9.03,38.78],[-9.03,38.79],[-9.02,38.79],[-9.01,38.79],[-9,38.79],[-8.98,38.79],[-8.94,38.78],[-8.92,38.78]]]},"properties":{"codigo_iso_3166_2":"PT-11"}},{"type":"Feature","geometry":{"type":"Polygon","coordinates":[[[-8.2,39],[-8.28,39.07],[-8.29,39.11],[-8.28,39.14],[-8.24,39.18],[-8.18,39.23],[-8.08,39.3],[-8,39.36],[-7.98,39.39],[-7.97,39.41],[-7.97,39.43],[-7.99,39.45],[-7.99,39.48],[-7.97,39.52],[-7.92,39.55],[-7.89,39.55],[-7.8,39.56],[-7.84,39.61],[-7.9,39.65],[-7.98,39.7],[-8.02,39.71],[-8.04,39.71],[-8.05,39.7],[-8.06,39.67],[-8.07,39.64],[-8.09,39.63],[-8.12,39.63],[-8.16,39.64],[-8.19,39.65],[-8.22,39.67],[-8.24,39.7],[-8.28,39.79],[-8.38,39.76],[-8.41,39.76],[-8.44,39.76],[-8.45,39.78],[-8.46,39.8],[-8.48,39.82],[-8.51,39.82],[-8.55,39.81],[-8.6,39.79],[-8.64,39.76],[-8.66,39.73],[-8.68,39.69],[-8.67,39.64],[-8.68,39.6],[-8.69,39.57],[-8.7,39.54],[-8.74,39.5],[-8.79,39.48],[-8.82,39.48],[-8.86,39.47],[-8.89,39.46],[-8.92,39.44],[-8.97,39.38],[-9,39.34],[-8.99,39.3],[-8.92,39.27],[-8.89,39.26],[-8.89,39.24],[-8.88,39.22],[-8.89,39.19],[-8.86,39.14],[-8.79,39.08],[-8.79,39.07],[-8.88,38.95],[-8.9,38.93],[-8.9,38.91],[-8.93,38.88],[-8.94,38.84],[-8.94,38.82],[-8.92,38.78],[-8.91,38.77],[-8.84,38.75],[-8.81,38.75],[-8.78,38.75],[-8.76,38.77],[-8.73,38.79],[-8.71,38.8],[-8.71,38.81],[-8.68,38.81],[-8.64,38.81],[-8.55,38.77],[-8.37,38.86],[-8.31,38.89],[-8.27,38.92],[-8.24,38.94],[-8.2,39]]]},"properties":{"codigo_iso_3166_2":"PT-14"}},{"type":"Feature","geometry":{"type":"Polygon","coordinates":[[[-8.13,39.92],[-8.16,40.03],[-8.17,40.05],[-8.2,40.05],[-8.24,40.03],[-8.28,40],[-8.32,39.97],[-8.35,39.96],[-8.37,39.97],[-8.39,39.98],[-8.43,40],[-8.49,39.98],[-8.52,39.97],[-8.56,39.98],[-8.59,39.99],[-8.63,40],[-8.66,40.02],[-8.67,40.02],[-8.71,40.03],[-8.76,40.04],[-8.9,40.05],[-8.92,40],[-9.13,40.09],[-9.12,40.12],[-9.12,40.11],[-9.13,40.1],[-9.22,39.9],[-9.29,39.74],[-9.31,39.67],[-9.32,39.64],[-9.37,39.59],[-9.41,39.55],[-9.47,39.52],[-9.51,39.49],[-9.56,39.42],[-9.58,39.38],[-9.58,39.3],[-9.58,39.29],[-9.58,39.3],[-9.35,39.26],[-9.35,39.29],[-9.29,39.31],[-9.24,39.3],[-9.22,39.28],[-9.2,39.26],[-9.18,39.24],[-9.16,39.24],[-9.13,39.25],[-9.12,39.26],[-9.12,39.27],[-9.08,39.29],[-9.04,39.31],[-8.99,39.3],[-9,39.34],[-8.97,39.38],[-8.92,39.44],[-8.89,39.46],[-8.86,39.47],[-8.82,39.48],[-8.79,39.48],[-8.74,39.5],[-8.7,39.54],[-8.69,39.57],[-8.68,39.6],[-8.67,39.64],[-8.68,39.69],[-8.66,39.73],[-8.64,39.76],[-8.6,39.79],[-8.55,39.81],[-8.51,39.82],[-8.48,39.82],[-8.46,39.8],[-8.45,39.78],[-8.44,39.76],[-8.41,39.76],[-8.38,39.76],[-8.28,39.79],[-8.13,39.92]]]},"properties":{"codigo_iso_3166_2":"PT-10"}},{"type":"Feature","geometry":{"type":"Polygon","coordinates":[[[-7.78,40.23],[-7.77,40.29],[-7.77,40.32],[-7.79,40.39],[-7.82,40.5],[-8.01,40.4],[-8.07,40.37],[-8.16,40.33],[-8.22,40.33],[-8.27,40.34],[-8.35,40.37],[-8.44,40.38],[-8.47,40.38],[-8.52,40.39],[-8.59,40.41],[-8.6,40.41],[-8.61,40.41],[-8.65,40.43],[-8.72,40.46],[-8.79,40.52],[-8.75,40.6],[-8.71,40.64],[-8.67,40.67],[-8.7,40.69],[-8.74,40.7],[-8.79,40.7],[-8.84,40.7],[-8.88,40.69],[-8.92,40.67],[-8.96,40.65],[-8.99,40.62],[-9.01,40.59],[-9.02,40.57],[-9.09,40.37],[-9.12,40.29],[-9.13,40.21],[-9.12,40.16],[-9.11,40.13],[-9.12,40.12],[-9.13,40.09],[-8.92,40],[-8.9,40.05],[-8.76,40.04],[-8.71,40.03],[-8.67,40.02],[-8.66,40.02],[-8.63,40],[-8.59,39.99],[-8.56,39.98],[-8.52,39.97],[-8.49,39.98],[-8.43,40],[-8.39,39.98],[-8.37,39.97],[-8.35,39.96],[-8.32,39.97],[-8.28,40],[-8.24,40.03],[-8.2,40.05],[-8.17,40.05],[-8.16,40.03],[-8.13,39.92],[-7.89,40.03],[-7.82,40.07],[-7.77,40.11],[-7.75,40.14],[-7.78,40.23]]]},"properties":{"codigo_iso_3166_2":"PT-06"}},{"type":"Feature","geometry":{"type":"Polygon","coordinates":[[[-8.35,40.37],[-8.32,40.51],[-8.31,40.6],[-8.31,40.68],[-8.31,40.72],[-8.3,40.75],[-8.27,40.78],[-8.22,40.83],[-8.19,40.85],[-8.14,40.86],[-8.12,40.89],[-8.13,40.94],[-8.14,40.95],[-8.15,40.97],[-8.2,41.02],[-8.29,41.08],[-8.37,41.04],[-8.41,41.03],[-8.42,41.03],[-8.46,41.02],[-8.51,41.02],[-8.66,41.02],[-8.67,40.98],[-8.9,41],[-8.9,41.01],[-8.9,41.03],[-8.9,41],[-8.92,40.89],[-8.93,40.82],[-8.92,40.76],[-8.92,40.73],[-8.96,40.68],[-9.01,40.59],[-8.99,40.62],[-8.96,40.65],[-8.92,40.67],[-8.88,40.69],[-8.84,40.7],[-8.79,40.7],[-8.74,40.7],[-8.7,40.69],[-8.67,40.67],[-8.71,40.64],[-8.75,40.6],[-8.79,40.52],[-8.72,40.46],[-8.65,40.43],[-8.61,40.41],[-8.6,40.41],[-8.59,40.41],[-8.52,40.39],[-8.47,40.38],[-8.44,40.38],[-8.35,40.37]]]},"properties":{"codigo_iso_3166_2":"PT-01"}},{"type":"Feature","geometry":{"type":"Polygon","coordinates":[[[-7.98,41.37],[-8.02,41.35],[-8.05,41.35],[-8.06,41.35],[-8.12,41.37],[-8.15,41.38],[-8.19,41.39],[-8.23,41.39],[-8.3,41.38],[-8.38,41.37],[-8.42,41.37],[-8.47,41.38],[-8.52,41.39],[-8.53,41.39],[-8.56,41.4],[-8.59,41.41],[-8.73,41.45],[-8.78,41.47],[-8.78,41.44],[-8.82,41.44],[-8.87,41.44],[-8.91,41.45],[-8.95,41.47],[-8.97,41.48],[-9.02,41.47],[-9.02,41.45],[-9.02,41.44],[-8.99,41.31],[-8.98,41.24],[-8.94,41.15],[-8.91,41.09],[-8.9,41.06],[-8.9,41.03],[-8.9,41.01],[-8.9,41],[-8.67,40.98],[-8.66,41.02],[-8.51,41.02],[-8.46,41.02],[-8.42,41.03],[-8.41,41.03],[-8.37,41.04],[-8.29,41.08],[-8.15,41.1],[-8.09,41.11],[-8.06,41.12],[-8,41.13],[-7.9,41.16],[-7.89,41.22],[-7.9,41.27],[-7.92,41.3],[-7.98,41.37]]]},"properties":{"codigo_iso_3166_2":"PT-13"}},{"type":"Feature","geometry":{"type":"Polygon","coordinates":[[[-16.91,32.48],[-16.87,32.49],[-16.75,32.52],[-16.68,32.54],[-16.64,32.57],[-16.61,32.59],[-16.58,32.63],[-16.56,32.69],[-16.55,32.73],[-16.56,32.76],[-16.57,32.8],[-16.62,32.87],[-16.68,32.91],[-16.74,32.95],[-16.82,32.98],[-16.9,33.01],[-17,33.01],[-17.04,33],[-17.05,33],[-17.08,33.02],[-17.16,33.03],[-17.2,33.03],[-17.24,33.03],[-17.28,33.02],[-17.31,33.01],[-17.37,32.97],[-17.4,32.94],[-17.42,32.92],[-17.44,32.89],[-17.45,32.84],[-17.45,32.8],[-17.42,32.72],[-17.37,32.66],[-17.28,32.58],[-17.18,32.53],[-17.11,32.5],[-17.03,32.49],[-16.95,32.48],[-16.91,32.48]]]},"properties":{"codigo_iso_3166_2":"PT-30"}},{"type":"Feature","geometry":{"type":"MultiPolygon","coordinates":[[[[-25.49,37.54],[-25.45,37.54],[-25.27,37.55],[-25.16,37.58],[-25.09,37.61],[-25.05,37.63],[-25,37.69],[-24.98,37.73],[-24.97,37.76],[-24.97,37.83],[-24.98,37.86],[-24.99,37.89],[-25.03,37.94],[-25.05,37.96],[-25.09,37.99],[-25.16,38.01],[-25.2,38.02],[-25.31,38.03],[-25.39,38.02],[-25.49,38.01],[-25.61,38.02],[-25.67,38.01],[-25.7,38],[-25.77,37.98],[-25.81,37.96],[-25.87,37.91],[-25.89,37.89],[-25.9,37.86],[-25.92,37.81],[-25.92,37.76],[-25.9,37.7],[-25.89,37.68],[-25.87,37.65],[-25.82,37.61],[-25.79,37.59],[-25.7,37.56],[-25.61,37.54],[-25.54,37.54],[-25.49,37.54]]],[[[-28.05,38.62],[-28.09,38.64],[-28.24,38.7],[-28.31,38.72],[-28.4,38.73],[-28.44,38.74],[-28.48,38.73],[-28.49,38.75],[-28.56,38.79],[-28.6,38.8],[-28.7,38.82],[-28.74,38.82],[-28.78,38.81],[-28.88,38.79],[-28.93,38.77],[-28.98,38.73],[-29.01,38.7],[-29.03,38.67],[-29.04,38.62],[-29.05,38.59],[-29.04,38.55],[-29.02,38.5],[-29,38.48],[-28.96,38.43],[-28.92,38.41],[-28.86,38.38],[-28.81,38.37],[-28.73,38.36],[-28.71,38.36],[-28.67,38.33],[-28.65,38.3],[-28.57,38.26],[-28.5,38.24],[-28.43,38.22],[-28.35,38.21],[-28.26,38.21],[-28.17,38.22],[-28.08,38.25],[-28.03,38.28],[-27.99,38.3],[-27.96,38.33],[-27.93,38.39],[-27.92,38.42],[-27.92,38.46],[-27.93,38.5],[-27.97,38.56],[-28,38.59],[-28.05,38.62]]],[[[-26.85,38.79],[-26.87,38.83],[-26.93,38.89],[-27,38.93],[-27.08,38.96],[-27.18,38.98],[-27.3,38.98],[-27.38,38.96],[-27.45,38.94],[-27.49,38.92],[-27.52,38.9],[-27.55,38.88],[-27.58,38.82],[-27.6,38.79],[-27.6,38.75],[-27.6,38.72],[-27.57,38.64],[-27.55,38.61],[-27.53,38.59],[-27.45,38.53],[-27.36,38.5],[-27.27,38.48],[-27.18,38.47],[-27.11,38.47],[-27.02,38.47],[-26.96,38.49],[-26.92,38.51],[-26.89,38.53],[-26.86,38.55],[-26.84,38.58],[-26.81,38.64],[-26.81,38.67],[-26.81,38.71],[-26.82,38.74],[-26.85,38.79]]]]},"properties":{"codigo_iso_3166_2":"PT-20"}},{"type":"Feature","geometry":{"type":"Polygon","coordinates":[[[-7.3,41.16],[-7.43,41.22],[-7.5,41.2],[-7.61,41.18],[-7.68,41.17],[-7.9,41.16],[-8,41.13],[-8.06,41.12],[-8.09,41.11],[-8.15,41.1],[-8.29,41.08],[-8.2,41.02],[-8.15,40.97],[-8.14,40.95],[-8.13,40.94],[-8.12,40.89],[-8.14,40.86],[-8.19,40.85],[-8.22,40.83],[-8.27,40.78],[-8.3,40.75],[-8.31,40.72],[-8.31,40.68],[-8.31,40.6],[-8.32,40.51],[-8.35,40.37],[-8.27,40.34],[-8.22,40.33],[-8.16,40.33],[-8.07,40.37],[-8.01,40.4],[-7.82,40.5],[-7.67,40.54],[-7.62,40.56],[-7.59,40.59],[-7.56,40.62],[-7.56,40.64],[-7.55,40.67],[-7.56,40.7],[-7.57,40.73],[-7.59,40.75],[-7.59,40.76],[-7.61,40.8],[-7.6,40.83],[-7.55,40.86],[-7.47,40.87],[-7.43,40.89],[-7.4,40.92],[-7.37,40.98],[-7.33,41.08],[-7.3,41.16]]]},"properties":{"codigo_iso_3166_2":"PT-18"}}]}